{"type":"FeatureCollection","features":[{"type":"Feature","properties":{"c":"01","en":"Banteay Meanchey","km":"បន្ទាយមានជ័យ"},"geometry":{"type":"MultiPolygon","coordinates":[[[[103.4251,13.7363],[103.4287,13.7363],[103.4257,13.7331],[103.4225,13.7337],[103.4251,13.7363]]],[[[103.4277,13.7249],[103.4209,13.7229],[103.4217,13.7087],[103.4393,13.6903],[103.4065,13.6637],[103.3965,13.6461],[103.4077,13.6335],[103.3973,13.6331],[103.3903,13.6223],[103.3953,13.6093],[103.4071,13.6117],[103.4141,13.6011],[103.4043,13.5915],[103.4153,13.5743],[103.4031,13.5693],[103.4137,13.5619],[103.4103,13.5515],[103.4179,13.5431],[103.4055,13.5137],[103.4121,13.5007],[103.4039,13.4979],[103.4003,13.4757],[103.4139,13.4657],[103.3939,13.4187],[103.4161,13.3683],[103.3955,13.3585],[103.3527,13.3813],[103.2169,13.3873],[103.1741,13.4111],[103.1565,13.4035],[103.1467,13.4119],[103.1129,13.4107],[103.0557,13.3923],[103.0323,13.3969],[103.0011,13.3757],[102.9881,13.3789],[102.9843,13.3611],[102.9215,13.3655],[102.8601,13.3879],[102.8493,13.3827],[102.7457,13.4117],[102.6881,13.3809],[102.6869,13.4795],[102.3573,13.4757],[102.3629,13.5057],[102.3349,13.5379],[102.3413,13.5593],[102.3685,13.5775],[102.3913,13.5679],[102.4193,13.5709],[102.4387,13.5603],[102.4799,13.5717],[102.5253,13.5653],[102.5625,13.5793],[102.5749,13.6037],[102.6261,13.6073],[102.5775,13.6297],[102.5489,13.6597],[102.5631,13.6839],[102.5917,13.7071],[102.6887,13.7521],[102.7165,13.7741],[102.7321,13.7757],[102.7233,13.7933],[102.7663,13.8565],[102.7829,13.9329],[102.8039,13.9441],[102.8157,13.9655],[102.8653,14.0027],[102.9107,14.0171],[102.8977,14.0539],[102.9015,14.0833],[102.9233,14.1071],[102.9249,14.1311],[102.9407,14.1497],[102.9305,14.1767],[102.9407,14.1863],[102.9391,14.1947],[102.9567,14.1977],[102.9519,14.2061],[102.9621,14.2119],[103.0001,14.2151],[103.0325,14.2387],[103.0319,14.2503],[103.0827,14.1411],[103.1113,14.1163],[103.1431,14.1087],[103.2103,14.1093],[103.2003,14.0687],[103.1869,14.0545],[103.1957,14.0391],[103.1929,14.0233],[103.1705,13.9969],[103.2041,13.9393],[103.2189,13.9501],[103.2645,13.9551],[103.3285,14.0257],[103.3869,13.9351],[103.4407,13.9163],[103.4423,13.8989],[103.4259,13.8773],[103.4307,13.8669],[103.4217,13.8563],[103.4299,13.8205],[103.4409,13.8183],[103.4221,13.7969],[103.4275,13.7971],[103.4245,13.7791],[103.4101,13.7761],[103.4301,13.7535],[103.4195,13.7369],[103.4277,13.7249]]]]}},{"type":"Feature","properties":{"c":"02","en":"Battambang","km":"បាត់ដំបង"},"geometry":{"type":"Polygon","coordinates":[[[102.6869,13.4795],[102.3573,13.4757],[102.3605,13.4051],[102.3453,13.3463],[102.3593,13.3153],[102.3499,13.2775],[102.3671,13.2617],[102.3703,13.2395],[102.3933,13.1975],[102.3999,13.1561],[102.4169,13.1387],[102.4347,13.0901],[102.4591,13.0825],[102.4951,13.0133],[102.5289,13.0025],[102.4873,12.9825],[102.5625,12.9807],[102.5845,13.0153],[102.5837,13.0485],[102.5735,13.0623],[102.5797,13.0739],[102.5925,13.0807],[102.5875,13.0865],[102.5991,13.0865],[102.6027,13.0993],[102.6337,13.1053],[102.6359,13.1147],[102.6659,13.1155],[102.6945,13.1023],[102.7513,13.0267],[102.7533,12.7495],[102.6667,12.6899],[102.5195,12.6629],[102.5391,12.6521],[102.5791,12.6535],[102.6155,12.6171],[102.6445,12.6113],[102.6459,12.5849],[102.6625,12.5815],[102.6683,12.5631],[102.6841,12.5489],[102.6795,12.5375],[102.6909,12.5333],[102.6965,12.5199],[102.7153,12.5071],[102.7279,12.5125],[102.7213,12.4865],[102.7341,12.4885],[102.7369,12.4673],[102.7661,12.4553],[102.7839,12.4271],[102.7849,12.4003],[102.8095,12.3715],[102.8361,12.4117],[102.8735,12.3983],[102.9031,12.4321],[102.9427,12.4315],[102.9747,12.4509],[102.9957,12.4847],[103.0225,12.4475],[103.0667,12.4375],[103.0723,12.4597],[103.1033,12.4637],[103.1367,12.4887],[103.1597,12.4813],[103.1829,12.5049],[103.2271,12.5265],[103.2481,12.5197],[103.2745,12.5429],[103.2859,12.5497],[103.3019,12.5461],[103.3035,12.5585],[103.3277,12.5605],[103.3279,12.5677],[103.3601,12.5603],[103.3697,12.5505],[103.3997,12.5581],[103.4587,12.5355],[103.5095,12.5049],[103.5627,12.5211],[103.6087,12.5247],[103.6227,12.5601],[103.6425,12.5781],[103.6327,12.5959],[103.6405,12.6081],[103.6369,12.6295],[103.6485,12.6395],[103.6451,12.6633],[103.6193,12.6771],[103.6355,12.6999],[103.6199,12.7481],[103.6231,12.7777],[103.6445,12.8163],[103.6323,12.8231],[103.6333,12.8451],[103.6945,12.8695],[103.7011,12.9149],[103.7321,12.9327],[103.7189,12.9741],[103.7409,13.0073],[103.7717,13.0229],[103.7615,13.0367],[103.7429,13.0417],[103.7075,13.0895],[103.7037,13.1713],[103.6851,13.2165],[103.6933,13.2471],[103.7067,13.2605],[103.7041,13.2713],[103.6833,13.2861],[103.6695,13.2747],[103.6277,13.2979],[103.5929,13.2941],[103.5801,13.3139],[103.5607,13.3115],[103.5531,13.3319],[103.5285,13.3409],[103.5231,13.3503],[103.5061,13.3527],[103.4937,13.3445],[103.4771,13.3537],[103.4631,13.3465],[103.4195,13.3683],[103.3955,13.3585],[103.3527,13.3813],[103.2169,13.3873],[103.1741,13.4111],[103.1565,13.4035],[103.1467,13.4119],[103.1129,13.4107],[103.0557,13.3923],[103.0323,13.3969],[103.0011,13.3757],[102.9881,13.3789],[102.9843,13.3611],[102.9215,13.3655],[102.8601,13.3879],[102.8493,13.3827],[102.7457,13.4117],[102.6881,13.3809],[102.6869,13.4795]]]}},{"type":"Feature","properties":{"c":"03","en":"Kampong Cham","km":"កំពង់ចាម"},"geometry":{"type":"Polygon","coordinates":[[[105.7229,12.5015],[105.6719,12.4903],[105.5485,12.4919],[105.5241,12.4565],[105.5005,12.4501],[105.4535,12.4765],[105.4407,12.4945],[105.4133,12.4825],[105.4023,12.4871],[105.3643,12.3665],[105.3469,12.3569],[105.3319,12.3577],[105.3285,12.3717],[105.3147,12.3829],[105.2799,12.3827],[105.2613,12.3999],[105.2359,12.3945],[105.2179,12.4011],[105.1993,12.3925],[105.1695,12.4005],[105.1603,12.3815],[105.1293,12.3655],[105.1527,12.3345],[105.1693,12.3295],[105.1725,12.2847],[105.1957,12.2629],[105.1901,12.2415],[105.2019,12.1997],[105.1933,12.1901],[105.1739,12.1953],[105.1639,12.2107],[105.1445,12.2199],[105.1127,12.2041],[105.1017,12.2057],[105.0999,12.2221],[105.0121,12.2205],[104.9677,12.2667],[104.9629,12.2581],[104.9185,12.2623],[104.9017,12.2465],[104.8727,12.2381],[104.8873,12.2239],[104.8827,12.2093],[104.8975,12.2083],[104.9003,12.2007],[104.9019,12.1591],[104.8861,12.1347],[104.8685,12.0733],[104.8777,12.0741],[104.8881,12.0605],[104.8943,12.0187],[104.8843,11.9877],[104.8599,11.9825],[104.8453,11.9511],[104.8293,11.9373],[104.8199,11.8969],[104.8369,11.8685],[104.8309,11.8267],[104.8463,11.8247],[104.8537,11.8331],[104.8779,11.8189],[104.8907,11.8223],[104.9035,11.8091],[104.9181,11.8093],[104.9395,11.8343],[104.9557,11.8747],[104.9641,11.8569],[104.9871,11.8819],[105.0055,11.8545],[105.0383,11.8503],[105.0655,11.8159],[105.0671,11.8087],[105.0507,11.7931],[105.0481,11.7521],[105.0881,11.7501],[105.1013,11.7347],[105.1211,11.7419],[105.1519,11.7345],[105.1639,11.7425],[105.1571,11.7597],[105.2537,11.8127],[105.2681,11.8425],[105.2871,11.8461],[105.2843,11.8571],[105.3265,11.8701],[105.3435,11.8539],[105.3621,11.8565],[105.3913,11.8387],[105.4051,11.8449],[105.4159,11.8285],[105.4443,11.8335],[105.4535,11.8903],[105.4669,11.9009],[105.4549,11.9137],[105.4703,11.9521],[105.4729,12.0179],[105.4857,12.0387],[105.4907,12.0247],[105.5295,12.0313],[105.5477,12.0531],[105.5299,12.1153],[105.5411,12.1783],[105.5377,12.2291],[105.5547,12.2743],[105.5837,12.2973],[105.6107,12.3005],[105.6491,12.2863],[105.7211,12.2775],[105.7453,12.2881],[105.7425,12.3013],[105.7705,12.3157],[105.7759,12.3427],[105.7683,12.4015],[105.7335,12.5013],[105.7229,12.5015]]]}},{"type":"Feature","properties":{"c":"04","en":"Kampong Chhnang","km":"កំពង់ឆ្នាំង"},"geometry":{"type":"MultiPolygon","coordinates":[[[[104.4723,12.5133],[104.4789,12.5139],[104.4949,12.5025],[104.5157,12.4583],[104.5713,12.4249],[104.5705,12.4361],[104.5793,12.4221],[104.5697,12.4473],[104.5383,12.4681],[104.5237,12.4887],[104.5821,12.4523],[104.5947,12.4609],[104.5951,12.4849],[104.5121,12.5247],[104.5197,12.5465],[104.5155,12.5607],[104.5573,12.5885],[104.6279,12.6073],[104.7423,12.5513],[104.8207,12.5321],[104.8279,12.5223],[104.8255,12.5025],[104.8149,12.4885],[104.8409,12.4745],[104.8283,12.4659],[104.8419,12.4503],[104.8365,12.4437],[104.8493,12.4275],[104.8605,12.4293],[104.8671,12.4103],[104.8621,12.3709],[104.8829,12.3817],[104.8909,12.4003],[104.9003,12.3697],[104.8925,12.3427],[104.8627,12.3237],[104.8513,12.2871],[104.8745,12.2325],[104.8873,12.2239],[104.8827,12.2093],[104.8975,12.2083],[104.9003,12.2007],[104.9019,12.1591],[104.8861,12.1347],[104.8685,12.0733],[104.8819,12.0713],[104.8903,12.0537],[104.8877,12.0323],[104.8943,12.0187],[104.8885,11.9943],[104.8599,11.9825],[104.8453,11.9511],[104.8313,11.9429],[104.8211,11.8881],[104.8107,11.8941],[104.7647,11.8817],[104.7709,11.8539],[104.7825,11.8391],[104.7557,11.8277],[104.7425,11.8303],[104.7105,11.8107],[104.6249,11.8063],[104.5951,11.7909],[104.5513,11.7437],[104.5151,11.7345],[104.4885,11.7357],[104.4625,11.7555],[104.3753,11.7691],[104.3317,11.8157],[104.3121,11.8773],[104.2671,11.9117],[104.2683,11.9263],[104.2563,11.9481],[104.2631,11.9793],[104.2585,11.9957],[104.2161,12.0221],[104.1969,12.0951],[104.1861,12.1059],[104.1845,12.1637],[104.1711,12.1797],[104.1805,12.2415],[104.2123,12.2843],[104.2639,12.2993],[104.2829,12.3217],[104.3147,12.3275],[104.3389,12.3553],[104.3525,12.3979],[104.3919,12.4203],[104.3807,12.4559],[104.3867,12.5085],[104.4249,12.5123],[104.4187,12.5235],[104.3889,12.5223],[104.3895,12.5443],[104.4019,12.5525],[104.4429,12.5145],[104.4466,12.5129],[104.4753,12.5077],[104.4723,12.5133]],[[104.4375,12.5145],[104.4435,12.5134],[104.4429,12.5145],[104.4375,12.5145]]],[[[104.4553,12.5169],[104.4459,12.5161],[104.4443,12.5191],[104.4487,12.5193],[104.4553,12.5169]]],[[[104.4405,12.5225],[104.4329,12.5245],[104.4277,12.5309],[104.4307,12.5311],[104.4405,12.5225]]]]}},{"type":"Feature","properties":{"c":"05","en":"Kampong Speu","km":"កំពង់ស្ពឺ"},"geometry":{"type":"Polygon","coordinates":[[[104.2099,12.0399],[104.1993,12.0767],[104.1887,12.0675],[104.1801,12.0377],[104.1493,12.0507],[104.1391,12.0427],[104.1141,12.0471],[104.0951,12.0387],[104.0871,11.9817],[104.0779,11.9847],[104.0729,11.9689],[104.0579,11.9685],[104.0505,11.9557],[104.0621,11.9235],[104.0435,11.9215],[104.0197,11.9013],[103.9917,11.9029],[103.9737,11.9359],[103.9429,11.9437],[103.9179,11.9307],[103.9213,11.8987],[103.8923,11.8849],[103.8733,11.8607],[103.8747,11.8493],[103.8307,11.8357],[103.7847,11.8495],[103.7843,11.8087],[103.7929,11.7907],[103.7735,11.7729],[103.7829,11.7517],[103.7739,11.7209],[103.8021,11.6775],[103.7953,11.6245],[103.8189,11.6181],[103.8619,11.5745],[103.9137,11.5515],[103.9375,11.5171],[104.0017,11.5299],[104.0253,11.5015],[104.0543,11.4951],[104.0643,11.4575],[104.0489,11.4489],[104.0419,11.4321],[104.0611,11.3649],[104.0403,11.3287],[104.0515,11.2715],[104.0211,11.2093],[104.0393,11.2081],[104.0433,11.1881],[104.0373,11.1799],[104.0433,11.1751],[104.1571,11.1493],[104.1861,11.1083],[104.2159,11.0941],[104.3083,11.1037],[104.3383,11.1377],[104.3679,11.1329],[104.3969,11.1477],[104.4285,11.1285],[104.4429,11.1329],[104.4853,11.1237],[104.5125,11.1313],[104.5423,11.1053],[104.6327,11.0787],[104.6783,11.0915],[104.6863,11.0875],[104.6853,11.1661],[104.7109,11.3213],[104.7883,11.4101],[104.7917,11.4231],[104.7843,11.4161],[104.7745,11.4291],[104.7675,11.4217],[104.7499,11.4249],[104.7199,11.4391],[104.7045,11.4295],[104.6897,11.4363],[104.6787,11.4219],[104.6565,11.4355],[104.6865,11.6413],[104.7309,11.7419],[104.7517,11.8213],[104.7393,11.8285],[104.7075,11.8101],[104.6249,11.8063],[104.5951,11.7909],[104.5513,11.7437],[104.5151,11.7345],[104.4885,11.7357],[104.4625,11.7555],[104.3753,11.7691],[104.3239,11.8269],[104.3245,11.8529],[104.3121,11.8773],[104.2671,11.9117],[104.2683,11.9263],[104.2563,11.9481],[104.2631,11.9793],[104.2585,11.9957],[104.2519,12.0053],[104.2211,12.0143],[104.2099,12.0399]]]}},{"type":"Feature","properties":{"c":"06","en":"Kampong Thom","km":"កំពង់ធំ"},"geometry":{"type":"Polygon","coordinates":[[[105.6317,13.0585],[105.6471,13.1133],[105.6049,13.1525],[105.5877,13.2125],[105.5869,13.2507],[105.5491,13.2785],[105.5515,13.4081],[105.5375,13.4481],[105.5243,13.4339],[105.4797,13.4213],[105.3585,13.3633],[105.2805,13.2759],[105.1921,13.2299],[105.1459,13.1663],[104.9743,13.0555],[104.9539,13.0581],[104.9337,13.0763],[104.9075,13.1085],[104.8775,13.1689],[104.8753,13.2189],[104.9043,13.2849],[104.8927,13.3081],[104.7763,13.3023],[104.7599,13.3139],[104.7431,13.3135],[104.7087,13.3057],[104.6503,13.2725],[104.5655,13.2531],[104.5491,13.2071],[104.4819,13.1799],[104.4717,13.1539],[104.4665,13.0525],[104.4527,13.0357],[104.4605,13.0121],[104.4561,13.0015],[104.4487,13.0017],[104.4401,12.9859],[104.4241,12.9863],[104.3825,12.9455],[104.3607,12.9019],[104.2671,12.8641],[104.2281,12.7985],[104.2211,12.7999],[104.2099,12.7821],[104.2231,12.7441],[104.2569,12.7327],[104.3079,12.7325],[104.3985,12.7587],[104.4497,12.7415],[104.4713,12.7041],[104.4765,12.6705],[104.4643,12.6153],[104.4471,12.5979],[104.4833,12.5725],[104.4867,12.5597],[104.4803,12.5469],[104.4605,12.5433],[104.4289,12.5507],[104.4103,12.5639],[104.4015,12.5557],[104.4103,12.5385],[104.4283,12.5343],[104.4173,12.5467],[104.4553,12.5251],[104.4897,12.5405],[104.5001,12.5327],[104.4933,12.5263],[104.4825,12.5343],[104.4785,12.5287],[104.5011,12.5199],[104.5133,12.5385],[104.5113,12.5597],[104.5209,12.5687],[104.5949,12.6027],[104.6279,12.6073],[104.7423,12.5513],[104.8207,12.5321],[104.8279,12.5223],[104.8255,12.5025],[104.8149,12.4885],[104.8409,12.4745],[104.8283,12.4659],[104.8419,12.4503],[104.8365,12.4437],[104.8493,12.4275],[104.8605,12.4293],[104.8671,12.4103],[104.8621,12.3709],[104.8829,12.3817],[104.8909,12.4003],[104.9003,12.3697],[104.8925,12.3427],[104.8627,12.3237],[104.8519,12.3031],[104.8513,12.2871],[104.8727,12.2381],[104.9017,12.2465],[104.9185,12.2623],[104.9629,12.2581],[104.9677,12.2667],[105.0121,12.2205],[105.0999,12.2221],[105.1017,12.2057],[105.1127,12.2041],[105.1445,12.2199],[105.1639,12.2107],[105.1739,12.1953],[105.1933,12.1901],[105.2019,12.1997],[105.1901,12.2415],[105.1957,12.2629],[105.1725,12.2847],[105.1693,12.3295],[105.1527,12.3345],[105.1293,12.3655],[105.1603,12.3815],[105.1695,12.4005],[105.1993,12.3925],[105.2179,12.4011],[105.2359,12.3945],[105.2613,12.3999],[105.2799,12.3827],[105.3147,12.3829],[105.3285,12.3717],[105.3319,12.3577],[105.3469,12.3569],[105.3643,12.3665],[105.4023,12.4871],[105.4133,12.4825],[105.4407,12.4945],[105.4535,12.4765],[105.5005,12.4501],[105.5241,12.4565],[105.5485,12.4919],[105.6719,12.4903],[105.7335,12.5013],[105.7175,12.5953],[105.7205,12.6525],[105.7123,12.6923],[105.6921,12.7217],[105.6973,12.7465],[105.6765,12.7795],[105.6843,12.8107],[105.6715,12.8311],[105.6901,12.8657],[105.6777,12.8963],[105.6615,12.9039],[105.6553,12.9207],[105.6781,12.9531],[105.6437,12.9803],[105.6495,13.0067],[105.6317,13.0585]]]}},{"type":"Feature","properties":{"c":"07","en":"Kampot","km":"កំពត"},"geometry":{"type":"MultiPolygon","coordinates":[[[[104.4019,10.4709],[104.4019,10.4745],[104.4051,10.4719],[104.4019,10.4709]]],[[[104.4027,10.4929],[104.4121,10.4875],[104.4215,10.4935],[104.4147,10.5197],[104.3863,10.5417],[104.3855,10.5681],[104.3783,10.5751],[104.2943,10.5767],[104.2769,10.5905],[104.2665,10.5515],[104.2479,10.5699],[104.2227,10.5613],[104.2131,10.5703],[104.2167,10.5597],[104.2013,10.5597],[104.1797,10.5399],[104.1437,10.5639],[104.1031,10.5475],[104.0505,10.5495],[103.9763,10.5821],[103.9407,10.5875],[103.9219,10.6045],[103.9327,10.6217],[103.9417,10.6167],[103.9531,10.6251],[103.9675,10.6717],[103.9573,10.7077],[103.9465,10.7121],[103.9243,10.7483],[103.9223,10.7691],[103.9331,10.7779],[103.9333,10.8017],[103.9455,10.8217],[103.9229,10.8517],[103.9317,10.8641],[103.9189,10.8785],[103.9333,10.9029],[103.9343,10.9277],[103.9335,10.9405],[103.9161,10.9551],[103.9719,10.9933],[103.9967,11.0199],[104.0181,11.0197],[104.0221,11.0095],[104.0719,11.0287],[104.0749,11.0417],[104.0599,11.0581],[104.0773,11.0757],[104.0709,11.1469],[104.0521,11.1711],[104.0835,11.1709],[104.1571,11.1493],[104.1861,11.1083],[104.2213,11.0937],[104.3083,11.1037],[104.3383,11.1377],[104.3679,11.1329],[104.3969,11.1477],[104.4105,11.1369],[104.4111,11.0779],[104.4335,11.0803],[104.4551,11.0689],[104.4551,11.0579],[104.4611,11.0637],[104.4685,11.0569],[104.4877,11.0709],[104.4869,11.0597],[104.4995,11.0583],[104.5233,11.0237],[104.5379,10.9871],[104.5411,10.9303],[104.5215,10.8939],[104.5359,10.8871],[104.5853,10.8863],[104.6183,10.9023],[104.6547,10.9071],[104.6743,10.8999],[104.6919,10.8729],[104.7067,10.8351],[104.7061,10.8065],[104.7291,10.7803],[104.7039,10.7647],[104.7021,10.7411],[104.6711,10.6955],[104.6739,10.6213],[104.7105,10.6161],[104.7065,10.5891],[104.7179,10.5343],[104.6501,10.5397],[104.6449,10.5295],[104.5901,10.5301],[104.5843,10.5065],[104.5595,10.4925],[104.5511,10.4561],[104.5193,10.4415],[104.4979,10.4051],[104.4789,10.4319],[104.4381,10.4241],[104.4265,10.4437],[104.4151,10.4461],[104.4261,10.4581],[104.4159,10.4663],[104.4193,10.4715],[104.4051,10.4719],[104.4027,10.4929]]]]}},{"type":"Feature","properties":{"c":"08","en":"Kandal","km":"កណ្ដាល"},"geometry":{"type":"Polygon","coordinates":[[[104.8251,11.8829],[104.8107,11.8941],[104.7809,11.8813],[104.7697,11.8853],[104.7647,11.8817],[104.7709,11.8539],[104.7825,11.8391],[104.7393,11.8285],[104.7517,11.8213],[104.7511,11.8005],[104.6865,11.6413],[104.6565,11.4355],[104.6787,11.4219],[104.6897,11.4363],[104.7045,11.4295],[104.7199,11.4391],[104.7499,11.4249],[104.7675,11.4217],[104.7745,11.4291],[104.7843,11.4161],[104.7917,11.4231],[104.7883,11.4101],[104.7325,11.3499],[104.7551,11.3369],[104.8013,11.3543],[104.8385,11.3421],[104.8525,11.3417],[104.8653,11.3519],[104.8947,11.3493],[104.9253,11.3273],[104.9381,11.3281],[104.9395,11.2985],[104.9261,11.2715],[104.9333,11.2519],[104.9805,11.2205],[104.9863,11.1741],[105.0193,11.1735],[105.0135,11.1621],[105.0263,11.1619],[105.0167,11.1353],[105.0191,11.1049],[104.9963,11.0559],[104.9909,11.0077],[104.9937,10.9983],[105.0311,10.9887],[105.0425,10.9281],[105.0335,10.9107],[105.0363,10.8977],[105.0449,10.9025],[105.0533,10.9299],[105.0671,10.9389],[105.0789,10.9367],[105.0831,10.9585],[105.1125,10.9621],[105.1179,10.9487],[105.1029,10.9215],[105.1517,10.9237],[105.1895,10.9135],[105.1839,10.9567],[105.1969,11.0271],[105.1943,11.0865],[105.2339,11.1297],[105.2461,11.1879],[105.2627,11.2039],[105.2811,11.2537],[105.2741,11.3213],[105.2597,11.3545],[105.2557,11.3915],[105.2965,11.4253],[105.2811,11.4559],[105.2699,11.4501],[105.2367,11.4635],[105.2277,11.4853],[105.2137,11.4877],[105.1983,11.5211],[105.1847,11.5177],[105.1599,11.5313],[105.1381,11.5301],[105.1281,11.5367],[105.1339,11.5495],[105.1171,11.5611],[105.1119,11.6127],[105.1035,11.6249],[105.1117,11.6411],[105.1323,11.6531],[105.1211,11.6673],[105.1287,11.6931],[105.1569,11.7087],[105.1593,11.7355],[105.1211,11.7419],[105.1013,11.7347],[105.0881,11.7501],[105.0481,11.7521],[105.0507,11.7931],[105.0671,11.8087],[105.0655,11.8159],[105.0383,11.8503],[105.0055,11.8545],[104.9871,11.8819],[104.9641,11.8569],[104.9557,11.8747],[104.9395,11.8343],[104.9181,11.8093],[104.9073,11.8079],[104.8907,11.8223],[104.8779,11.8189],[104.8537,11.8331],[104.8463,11.8247],[104.8309,11.8267],[104.8369,11.8685],[104.8251,11.8829]],[[104.9171,11.7215],[104.9189,11.7365],[104.9399,11.7359],[104.9677,11.7109],[104.9323,11.6237],[104.9459,11.5631],[104.9761,11.5461],[105.0417,11.5389],[105.0263,11.5157],[105.0293,11.4835],[105.0491,11.4823],[105.0297,11.4657],[104.9825,11.4615],[104.9633,11.4665],[104.9471,11.4937],[104.9215,11.4845],[104.9223,11.4289],[104.8821,11.4363],[104.8729,11.4215],[104.8309,11.4313],[104.8229,11.4439],[104.8175,11.4321],[104.8049,11.4319],[104.7733,11.4623],[104.7557,11.4573],[104.7597,11.4521],[104.7447,11.4553],[104.7463,11.4825],[104.7629,11.4927],[104.7673,11.5201],[104.7447,11.5305],[104.7419,11.5439],[104.7279,11.5447],[104.7209,11.5717],[104.7127,11.5765],[104.7355,11.5821],[104.7321,11.5927],[104.7493,11.6645],[104.8133,11.6739],[104.8153,11.7039],[104.8261,11.7175],[104.8399,11.7145],[104.8613,11.6685],[104.8977,11.6723],[104.9171,11.7215]]]}},{"type":"Feature","properties":{"c":"23","en":"Kep","km":"កែប"},"geometry":{"type":"MultiPolygon","coordinates":[[[[104.3275,10.3979],[104.3311,10.3971],[104.3281,10.3945],[104.3275,10.3979]]],[[[104.3337,10.4381],[104.3261,10.4303],[104.3163,10.4329],[104.3221,10.4433],[104.3337,10.4381]]],[[[104.4261,10.4581],[104.4151,10.4461],[104.3891,10.4535],[104.3493,10.4967],[104.3041,10.4767],[104.2905,10.4793],[104.2867,10.5135],[104.2665,10.5515],[104.2769,10.5905],[104.2943,10.5767],[104.3585,10.5781],[104.3839,10.5713],[104.3863,10.5417],[104.4147,10.5197],[104.4215,10.4935],[104.4121,10.4875],[104.4027,10.4929],[104.4079,10.4795],[104.4055,10.4677],[104.4145,10.4739],[104.4261,10.4581]],[[104.4051,10.4719],[104.4019,10.4745],[104.4019,10.4709],[104.4051,10.4719]]]]}},{"type":"Feature","properties":{"c":"09","en":"Koh Kong","km":"កោះកុង"},"geometry":{"type":"MultiPolygon","coordinates":[[[[103.0589,10.9065],[103.0573,10.9111],[103.0605,10.9099],[103.0627,10.9081],[103.0589,10.9065]]],[[[103.0555,10.9609],[103.0549,10.9575],[103.0533,10.9545],[103.0475,10.9565],[103.0555,10.9609]]],[[[103.0779,10.9785],[103.0735,10.9773],[103.0679,10.9745],[103.0789,10.9819],[103.0779,10.9785]]],[[[103.0407,11.3353],[103.0441,11.3059],[103.0253,11.2489],[103.0173,11.2435],[102.9895,11.2555],[102.9897,11.2689],[102.9817,11.2757],[102.9809,11.3055],[102.9899,11.3193],[102.9757,11.3577],[102.9801,11.3705],[102.9711,11.4005],[102.9821,11.4213],[102.9851,11.4127],[103.0171,11.4163],[103.0343,11.3773],[103.0283,11.3487],[103.0407,11.3353]]],[[[103.0649,11.4273],[103.0645,11.4215],[103.0617,11.4241],[103.0649,11.4273]]],[[[103.0057,11.4361],[103.0093,11.4349],[103.0065,11.4331],[103.0057,11.4361]]],[[[103.1993,10.8029],[103.1943,10.8013],[103.1923,10.8041],[103.2045,10.8053],[103.1993,10.8029]]],[[[103.1799,10.8335],[103.1951,10.8211],[103.1747,10.8179],[103.1673,10.8313],[103.1799,10.8335]]],[[[103.0727,10.9057],[103.0837,10.8985],[103.0909,10.8901],[103.0673,10.8905],[103.0727,10.9057]]],[[[103.0757,10.9347],[103.0733,10.9311],[103.0797,10.9449],[103.0797,10.9391],[103.0757,10.9347]]],[[[102.9857,11.4995],[102.9849,11.5127],[102.9509,11.5489],[102.9535,11.5651],[102.9313,11.5931],[102.9387,11.6019],[102.9357,11.6131],[102.9113,11.6491],[102.9049,11.7675],[102.8827,11.7905],[102.8849,11.7997],[102.8665,11.8069],[102.8613,11.8253],[102.8537,11.8263],[102.8335,11.8569],[102.8199,11.8931],[102.8153,11.9355],[102.7805,11.9899],[102.7797,12.0231],[102.7977,12.0135],[102.9727,12.0023],[103.1119,11.9479],[103.1597,11.9443],[103.1987,11.9635],[103.2231,11.9569],[103.2313,11.9759],[103.2525,11.9739],[103.2681,11.9885],[103.2893,11.9805],[103.3113,11.9859],[103.3289,12.0169],[103.3627,12.0305],[103.3643,12.0597],[103.3849,12.0705],[103.3821,12.0959],[103.3917,12.1073],[103.4325,12.0873],[103.4715,12.1161],[103.4897,12.0997],[103.5087,12.1059],[103.5379,12.0949],[103.5385,12.0835],[103.5841,12.0531],[103.6067,12.0235],[103.6329,12.0143],[103.6361,12.0029],[103.6289,11.9955],[103.6381,11.9853],[103.6765,11.9657],[103.6955,11.9643],[103.6957,11.9411],[103.7115,11.9309],[103.7225,11.9281],[103.7427,11.9393],[103.7587,11.9261],[103.7725,11.9333],[103.7965,11.9237],[103.8569,11.8435],[103.8307,11.8357],[103.7847,11.8495],[103.7843,11.8087],[103.7929,11.7907],[103.7735,11.7729],[103.7829,11.7517],[103.7739,11.7209],[103.8021,11.6775],[103.7953,11.6245],[103.8189,11.6181],[103.8619,11.5745],[103.9137,11.5515],[103.9375,11.5171],[104.0017,11.5299],[104.0253,11.5015],[104.0543,11.4951],[104.0645,11.4621],[104.0419,11.4359],[103.9723,11.3849],[103.9025,11.3011],[103.9011,11.2845],[103.8845,11.2727],[103.8725,11.2407],[103.8517,11.2221],[103.8689,11.2039],[103.8867,11.1583],[103.8719,11.1491],[103.8591,11.1133],[103.8403,11.0971],[103.8465,11.0727],[103.8351,11.0725],[103.7917,11.0407],[103.7859,11.0235],[103.7971,10.9395],[103.7673,10.9315],[103.7367,10.8989],[103.7307,10.9047],[103.7185,10.8967],[103.7129,10.9083],[103.7057,10.9063],[103.6833,10.9613],[103.6587,10.9979],[103.6641,11.0229],[103.6483,11.0495],[103.6601,11.0601],[103.6593,11.0803],[103.5923,11.0941],[103.5531,11.1679],[103.5123,11.1681],[103.4739,11.1435],[103.4437,11.1023],[103.4643,11.1051],[103.4691,11.0955],[103.4499,11.0721],[103.4465,11.0443],[103.4105,10.9583],[103.4249,10.8935],[103.4089,10.8929],[103.3869,10.8765],[103.3707,10.8811],[103.3545,10.8659],[103.3405,10.8949],[103.3117,10.9149],[103.2601,10.9235],[103.2433,10.9175],[103.2115,10.8805],[103.1847,10.8731],[103.1811,10.8581],[103.1565,10.8737],[103.1473,10.8729],[103.1433,10.8625],[103.1237,10.8705],[103.1317,10.8809],[103.1293,10.8953],[103.0981,10.9203],[103.0965,10.9487],[103.1079,10.9629],[103.1091,10.9961],[103.0969,11.0741],[103.0897,11.0783],[103.1099,11.0859],[103.1171,11.1005],[103.1149,11.1257],[103.0819,11.2175],[103.0731,11.2235],[103.0533,11.2165],[103.0479,11.2233],[103.0707,11.2383],[103.0657,11.2557],[103.0759,11.2643],[103.0719,11.2863],[103.0931,11.2867],[103.0933,11.2995],[103.1155,11.3061],[103.1199,11.3179],[103.1315,11.3123],[103.1451,11.3205],[103.1345,11.3493],[103.1093,11.3429],[103.0941,11.3537],[103.0861,11.4091],[103.0769,11.4207],[103.0719,11.4179],[103.0717,11.4313],[103.0649,11.4273],[103.0419,11.4433],[103.0153,11.4227],[103.0125,11.4603],[102.9857,11.4995]]]]}},{"type":"Feature","properties":{"c":"10","en":"Kratie","km":"ក្រចេះ"},"geometry":{"type":"Polygon","coordinates":[[[106.3249,13.4003],[106.3063,13.4071],[106.2973,13.4001],[106.2665,13.4055],[106.2537,13.3921],[106.2455,13.3935],[106.2389,13.3697],[106.2213,13.3609],[106.1329,13.3693],[106.0859,13.3537],[106.0851,13.3357],[106.0255,13.2591],[106.0225,13.2259],[106.0057,13.2151],[105.9675,13.2317],[105.9653,13.1963],[105.9453,13.1521],[105.8757,13.1169],[105.8529,13.1149],[105.8011,13.1323],[105.7425,13.1833],[105.6951,13.2065],[105.6625,13.2057],[105.6085,13.2291],[105.5893,13.2301],[105.5877,13.2125],[105.6049,13.1525],[105.6471,13.1133],[105.6317,13.0585],[105.6495,13.0067],[105.6425,12.9843],[105.6769,12.9563],[105.6693,12.9327],[105.6553,12.9207],[105.6615,12.9039],[105.6777,12.8963],[105.6901,12.8657],[105.6715,12.8311],[105.6843,12.8107],[105.6765,12.7795],[105.6973,12.7465],[105.6921,12.7217],[105.7123,12.6923],[105.7227,12.6381],[105.7175,12.5953],[105.7341,12.4927],[105.7733,12.3733],[105.7705,12.3157],[105.7425,12.3013],[105.7453,12.2881],[105.7211,12.2745],[105.7455,12.2589],[105.8311,12.2569],[105.8425,12.2049],[105.8519,12.2033],[105.8647,12.2219],[105.8935,12.2109],[105.9299,12.2203],[105.9475,12.1979],[105.9931,12.2019],[105.9935,12.1907],[105.9865,12.1881],[106.0089,12.1827],[106.0175,12.1473],[106.0447,12.1563],[106.0439,12.1461],[106.0591,12.1319],[106.0593,12.1127],[106.0417,12.0967],[106.0495,12.0895],[106.0449,12.0825],[106.0759,12.0815],[106.0803,12.0695],[106.1113,12.0753],[106.1333,12.0461],[106.1467,12.0543],[106.1727,12.0349],[106.1811,12.0103],[106.1715,11.9967],[106.1741,11.9713],[106.1671,11.9667],[106.1797,11.9531],[106.1993,11.9685],[106.2251,11.9575],[106.2361,11.9659],[106.2559,11.9537],[106.3133,11.9639],[106.3683,11.9513],[106.3997,11.9773],[106.4303,11.9723],[106.4535,11.9885],[106.4711,11.9729],[106.4921,11.9691],[106.5193,11.9809],[106.5363,11.9749],[106.5299,11.9697],[106.6257,11.9737],[106.6347,11.9619],[106.6427,11.9741],[106.6473,11.9647],[106.6597,11.9669],[106.6499,11.9797],[106.6547,11.9891],[106.6837,11.9653],[106.7207,11.9707],[106.7819,12.0721],[106.7993,12.0851],[106.7911,12.1165],[106.7987,12.1345],[106.7933,12.1535],[106.8013,12.1913],[106.7623,12.2495],[106.7401,12.2689],[106.7037,12.2877],[106.6083,12.3145],[106.5637,12.4083],[106.5317,12.4215],[106.5157,12.4377],[106.4973,12.4389],[106.3707,12.5143],[106.3591,12.5287],[106.3993,12.6421],[106.4035,12.6765],[106.4269,12.7163],[106.4995,12.7767],[106.5415,12.7873],[106.5937,12.8323],[106.6093,12.8557],[106.6137,12.9033],[106.5957,12.9321],[106.5413,12.9695],[106.4627,13.0133],[106.4411,13.0113],[106.4175,13.0217],[106.4035,13.0453],[106.3817,13.0543],[106.3445,13.0993],[106.3389,13.1339],[106.3497,13.1715],[106.3989,13.1755],[106.4289,13.1691],[106.4313,13.1745],[106.4073,13.2143],[106.3691,13.2369],[106.3459,13.2945],[106.3565,13.3381],[106.3501,13.4001],[106.3249,13.4003]]]}},{"type":"Feature","properties":{"c":"11","en":"Mondul Kiri","km":"មណ្ឌលគិរី"},"geometry":{"type":"Polygon","coordinates":[[[106.5201,13.3515],[106.4869,13.3827],[106.4199,13.4171],[106.3501,13.4001],[106.3565,13.3381],[106.3477,13.2865],[106.3707,13.2345],[106.4073,13.2143],[106.4313,13.1745],[106.4289,13.1691],[106.3989,13.1755],[106.3497,13.1715],[106.3391,13.1161],[106.3787,13.0577],[106.4035,13.0453],[106.4175,13.0217],[106.4411,13.0113],[106.4627,13.0133],[106.5957,12.9321],[106.6131,12.9111],[106.6111,12.8635],[106.5987,12.8379],[106.5545,12.7969],[106.5035,12.7791],[106.4299,12.7205],[106.4035,12.6765],[106.3967,12.6343],[106.3629,12.5533],[106.3633,12.5215],[106.4973,12.4389],[106.5157,12.4377],[106.5317,12.4215],[106.5637,12.4083],[106.6083,12.3145],[106.7037,12.2877],[106.7467,12.2643],[106.8013,12.1913],[106.7933,12.1535],[106.7987,12.1345],[106.7911,12.1165],[106.7993,12.0851],[106.8243,12.0829],[106.8543,12.0671],[106.8797,12.0733],[106.9277,12.0639],[107.0027,12.0893],[107.0487,12.1361],[107.0605,12.1613],[107.0783,12.1641],[107.0701,12.1779],[107.0745,12.1879],[107.0917,12.1813],[107.1127,12.2189],[107.1383,12.2303],[107.1535,12.2763],[107.1835,12.2841],[107.2015,12.2981],[107.2307,12.2963],[107.2701,12.3253],[107.2831,12.3225],[107.3089,12.3323],[107.3207,12.3225],[107.3457,12.3337],[107.3755,12.3051],[107.3991,12.2565],[107.4185,12.2435],[107.4343,12.2475],[107.4459,12.2903],[107.4639,12.2987],[107.4693,12.3113],[107.5449,12.3527],[107.5445,12.3735],[107.5539,12.3791],[107.5447,12.4165],[107.5653,12.4499],[107.5657,12.4703],[107.5797,12.4953],[107.5625,12.5179],[107.5895,12.5583],[107.5801,12.5787],[107.5835,12.6135],[107.5697,12.6431],[107.5715,12.6667],[107.5811,12.6807],[107.5593,12.7127],[107.5675,12.7285],[107.5589,12.7601],[107.5621,12.7919],[107.5501,12.8229],[107.4999,12.8773],[107.4929,12.8993],[107.5007,12.9169],[107.4853,12.9469],[107.4891,12.9715],[107.5025,12.9743],[107.4907,13.0157],[107.6029,13.3025],[107.5845,13.3049],[107.5649,13.2839],[107.5329,13.2997],[107.4969,13.2973],[107.4673,13.3345],[107.4579,13.3309],[107.4553,13.3191],[107.4029,13.2971],[107.4053,13.2867],[107.3703,13.2771],[107.3385,13.3161],[107.2911,13.3101],[107.2697,13.3587],[107.2433,13.3673],[107.2351,13.3575],[107.2347,13.3367],[107.1897,13.3079],[107.1625,13.3091],[107.1457,13.3309],[107.1335,13.3299],[107.1065,13.3085],[107.0785,13.3211],[107.0713,13.2995],[107.0891,13.2743],[107.0931,13.2409],[107.0835,13.2301],[107.0837,13.2053],[107.0487,13.1737],[107.0373,13.1741],[107.0309,13.1851],[107.0051,13.1877],[106.9803,13.1779],[106.9633,13.1839],[106.9339,13.1739],[106.8737,13.1743],[106.7793,13.1979],[106.6081,13.3229],[106.6009,13.3191],[106.5581,13.3505],[106.5201,13.3515]]]}},{"type":"Feature","properties":{"c":"22","en":"Oddar Meanchey","km":"ឧត្ដរមានជ័យ"},"geometry":{"type":"Polygon","coordinates":[[[103.6921,14.4389],[103.6561,14.4395],[103.6427,14.4261],[103.6563,14.4207],[103.6531,14.4137],[103.6207,14.4043],[103.6099,14.4247],[103.5569,14.4317],[103.4981,14.4115],[103.4961,14.3893],[103.4851,14.3875],[103.4667,14.3653],[103.4507,14.3689],[103.4361,14.3907],[103.4005,14.3699],[103.4023,14.3585],[103.3675,14.3521],[103.3407,14.3603],[103.3311,14.3511],[103.3169,14.3567],[103.2649,14.3509],[103.2197,14.3239],[103.1689,14.3351],[103.1529,14.3165],[103.1419,14.3261],[103.1297,14.3203],[103.1303,14.3075],[103.1209,14.3017],[103.0811,14.2957],[103.0739,14.2861],[103.0563,14.2833],[103.0553,14.2723],[103.0319,14.2503],[103.0827,14.1411],[103.1243,14.1101],[103.2103,14.1093],[103.2003,14.0687],[103.1869,14.0545],[103.1957,14.0391],[103.1929,14.0233],[103.1705,13.9969],[103.2041,13.9393],[103.2189,13.9501],[103.2645,13.9551],[103.3285,14.0257],[103.3869,13.9351],[103.4407,13.9163],[103.4423,13.8989],[103.4331,13.8795],[103.4407,13.8775],[103.4807,13.9019],[103.5189,13.8967],[103.5319,13.9025],[103.5375,13.8965],[103.5563,13.9085],[103.5681,13.9059],[103.5787,13.9265],[103.5927,13.9261],[103.6355,13.9717],[103.6469,13.9633],[103.6515,13.9709],[103.6819,13.9603],[104.1129,13.9667],[104.1115,13.9549],[104.1629,13.9563],[104.1919,13.9345],[104.2161,13.9283],[104.2607,13.9579],[104.3487,13.9537],[104.3603,13.9645],[104.3909,13.9625],[104.4069,13.9527],[104.4163,13.9349],[104.4219,13.9389],[104.4277,13.9731],[104.4179,13.9979],[104.4367,14.0663],[104.5075,14.1453],[104.4627,14.1781],[104.4421,14.2089],[104.4567,14.2129],[104.4629,14.2337],[104.4563,14.2901],[104.4673,14.3423],[104.4601,14.3605],[104.4367,14.3581],[104.4157,14.3717],[104.4053,14.3663],[104.3755,14.3825],[104.3527,14.3687],[104.3297,14.3711],[104.2761,14.4083],[104.2525,14.3911],[104.2473,14.3775],[104.2181,14.3677],[104.1881,14.3847],[104.1711,14.3757],[104.1739,14.3597],[104.1463,14.3551],[104.1373,14.3579],[104.1375,14.3733],[104.1091,14.3779],[104.0861,14.3473],[104.0301,14.3391],[104.0129,14.3455],[104.0095,14.3559],[103.9949,14.3457],[103.9799,14.3547],[103.9507,14.3507],[103.9413,14.3307],[103.9007,14.3385],[103.8993,14.3451],[103.8811,14.3395],[103.8601,14.3671],[103.8449,14.3711],[103.8335,14.3683],[103.8263,14.3531],[103.8033,14.3569],[103.8025,14.3691],[103.7753,14.3613],[103.7591,14.3773],[103.7529,14.3723],[103.7315,14.3853],[103.7097,14.3799],[103.7007,14.3907],[103.7075,14.4325],[103.6921,14.4389]]]}},{"type":"Feature","properties":{"c":"24","en":"Pailin","km":"ប៉ៃលិន"},"geometry":{"type":"Polygon","coordinates":[[[102.6515,13.1159],[102.6331,13.1137],[102.6337,13.1053],[102.6027,13.0993],[102.5991,13.0865],[102.5875,13.0865],[102.5925,13.0807],[102.5735,13.0623],[102.5837,13.0485],[102.5845,13.0153],[102.5625,12.9807],[102.4873,12.9825],[102.5005,12.9611],[102.4863,12.9473],[102.5087,12.8965],[102.5069,12.8663],[102.4989,12.8559],[102.5141,12.8417],[102.5157,12.8231],[102.5311,12.8137],[102.5283,12.7975],[102.5357,12.7845],[102.5315,12.7667],[102.5003,12.7405],[102.4979,12.7049],[102.5195,12.6629],[102.6667,12.6899],[102.7533,12.7495],[102.7513,13.0267],[102.6945,13.1023],[102.6515,13.1159]]]}},{"type":"Feature","properties":{"c":"12","en":"Phnom Penh","km":"រាជធានីភ្នំពេញ"},"geometry":{"type":"Polygon","coordinates":[[[104.9189,11.7365],[104.8977,11.6723],[104.8613,11.6685],[104.8399,11.7145],[104.8261,11.7175],[104.8153,11.7039],[104.8133,11.6739],[104.7493,11.6645],[104.7321,11.5927],[104.7355,11.5821],[104.7127,11.5765],[104.7209,11.5717],[104.7279,11.5447],[104.7419,11.5439],[104.7447,11.5305],[104.7673,11.5201],[104.7629,11.4927],[104.7463,11.4825],[104.7447,11.4553],[104.7597,11.4521],[104.7557,11.4573],[104.7733,11.4623],[104.8049,11.4319],[104.8175,11.4321],[104.8229,11.4439],[104.8309,11.4313],[104.8729,11.4215],[104.8821,11.4363],[104.9223,11.4289],[104.9215,11.4845],[104.9471,11.4937],[104.9633,11.4665],[104.9825,11.4615],[105.0297,11.4657],[105.0491,11.4823],[105.0293,11.4835],[105.0263,11.5157],[105.0417,11.5389],[104.9761,11.5461],[104.9459,11.5631],[104.9323,11.6237],[104.9677,11.7109],[104.9443,11.7349],[104.9189,11.7365]]]}},{"type":"Feature","properties":{"c":"18","en":"Preah Sihanouk","km":"ព្រះសីហនុ"},"geometry":{"type":"MultiPolygon","coordinates":[[[[103.5471,10.5261],[103.5445,10.5237],[103.5409,10.5251],[103.5459,10.5305],[103.5471,10.5261]]],[[[103.3051,10.5833],[103.3219,10.5719],[103.3313,10.5885],[103.3393,10.5753],[103.3193,10.5427],[103.3113,10.5453],[103.3023,10.5679],[103.2953,10.5667],[103.2795,10.6061],[103.2929,10.6227],[103.3025,10.6171],[103.3125,10.6247],[103.3157,10.6183],[103.3231,10.6071],[103.3039,10.6045],[103.3105,10.5923],[103.3051,10.5833]]],[[[103.4291,10.6121],[103.4255,10.6107],[103.4097,10.6105],[103.4151,10.6149],[103.4291,10.6121]]],[[[103.4797,10.6231],[103.4747,10.6331],[103.4851,10.6319],[103.4877,10.6285],[103.4797,10.6231]]],[[[103.3025,10.6285],[103.2965,10.6281],[103.3027,10.6359],[103.3045,10.6323],[103.3025,10.6285]]],[[[103.2933,10.7023],[103.3023,10.7011],[103.3091,10.7115],[103.3153,10.6995],[103.2963,10.6789],[103.2807,10.6791],[103.2649,10.6519],[103.2447,10.7051],[103.2105,10.7057],[103.2017,10.7169],[103.2023,10.7347],[103.1825,10.7365],[103.1949,10.7711],[103.2203,10.7655],[103.2309,10.7797],[103.2555,10.7729],[103.2497,10.7667],[103.2571,10.7265],[103.2661,10.7185],[103.2869,10.7241],[103.2933,10.7023]]],[[[103.8051,10.4039],[103.7827,10.4221],[103.7873,10.4377],[103.8027,10.4315],[103.8223,10.4267],[103.8051,10.4161],[103.8051,10.4039]]],[[[103.7329,10.4749],[103.7477,10.4851],[103.7421,10.5193],[103.7883,10.5095],[103.7961,10.4999],[103.7955,10.4779],[103.7967,10.4567],[103.7707,10.4425],[103.7595,10.4501],[103.7329,10.4749]]],[[[103.6213,10.4821],[103.6215,10.4893],[103.6227,10.4851],[103.6213,10.4821]]],[[[103.6079,10.4849],[103.5993,10.4755],[103.5817,10.4817],[103.5879,10.4903],[103.5781,10.5027],[103.5871,10.5065],[103.5993,10.5051],[103.6051,10.4929],[103.6079,10.4849]]],[[[103.5649,10.4887],[103.5601,10.4879],[103.5525,10.4973],[103.5597,10.5013],[103.5649,10.4887]]],[[[104.0211,11.2093],[104.0393,11.2081],[104.0433,11.1881],[104.0373,11.1799],[104.0709,11.1469],[104.0773,11.0757],[104.0599,11.0581],[104.0749,11.0417],[104.0743,11.0325],[104.0373,11.0117],[104.0221,11.0095],[104.0181,11.0197],[103.9967,11.0199],[103.9719,10.9933],[103.9161,10.9551],[103.9335,10.9405],[103.9343,10.9277],[103.9333,10.9029],[103.9189,10.8785],[103.9317,10.8641],[103.9229,10.8517],[103.9455,10.8217],[103.9333,10.8017],[103.9331,10.7779],[103.9223,10.7691],[103.9243,10.7483],[103.9465,10.7121],[103.9573,10.7077],[103.9675,10.6717],[103.9531,10.6251],[103.9417,10.6167],[103.9327,10.6217],[103.9203,10.6083],[103.9025,10.6513],[103.8829,10.6593],[103.8559,10.6555],[103.8531,10.6453],[103.8681,10.6221],[103.8015,10.5211],[103.7923,10.5209],[103.7799,10.5365],[103.7551,10.5315],[103.7193,10.5553],[103.7171,10.5445],[103.7371,10.5225],[103.7283,10.4985],[103.6797,10.5097],[103.6323,10.4889],[103.6085,10.5041],[103.6141,10.5321],[103.6021,10.5535],[103.5901,10.5623],[103.5647,10.5401],[103.5611,10.5581],[103.5297,10.6005],[103.5127,10.6103],[103.5037,10.6073],[103.4907,10.6209],[103.5007,10.6461],[103.5165,10.6505],[103.5211,10.6671],[103.5417,10.6849],[103.5439,10.7205],[103.5675,10.7269],[103.5831,10.7427],[103.5955,10.7357],[103.6125,10.7367],[103.6223,10.7473],[103.6363,10.7387],[103.6621,10.7441],[103.6583,10.7689],[103.6707,10.7781],[103.6733,10.8065],[103.7019,10.8279],[103.7109,10.8439],[103.7057,10.9063],[103.7129,10.9083],[103.7185,10.8967],[103.7307,10.9047],[103.7367,10.8989],[103.7673,10.9315],[103.7971,10.9395],[103.7859,11.0235],[103.7963,11.0471],[103.8225,11.0571],[103.8351,11.0725],[103.8465,11.0727],[103.8403,11.0971],[103.8591,11.1133],[103.8719,11.1491],[103.8867,11.1583],[103.8689,11.2039],[103.8517,11.2221],[103.8725,11.2407],[103.8845,11.2727],[103.9011,11.2845],[103.9067,11.3065],[103.9787,11.3917],[104.0419,11.4359],[104.0601,11.3537],[104.0485,11.3515],[104.0403,11.3287],[104.0507,11.2677],[104.0211,11.2093]]]]}},{"type":"Feature","properties":{"c":"13","en":"Preah Vihear","km":"ព្រះវិហារ"},"geometry":{"type":"Polygon","coordinates":[[[104.8349,14.4095],[104.8047,14.4373],[104.7655,14.4221],[104.7535,14.4059],[104.7377,14.4143],[104.7241,14.4039],[104.7235,14.4219],[104.7079,14.4341],[104.6793,14.3977],[104.6603,14.4005],[104.6525,14.4217],[104.6407,14.4227],[104.5791,14.3745],[104.5797,14.3589],[104.5347,14.3561],[104.4991,14.3759],[104.4779,14.3629],[104.4771,14.3511],[104.4663,14.3451],[104.4563,14.2901],[104.4629,14.2337],[104.4567,14.2129],[104.4421,14.2089],[104.4627,14.1781],[104.5029,14.1513],[104.5065,14.1401],[104.4381,14.0695],[104.4179,13.9979],[104.4277,13.9731],[104.4201,13.9571],[104.4227,13.9219],[104.4079,13.9089],[104.4173,13.8917],[104.3993,13.8917],[104.3907,13.8721],[104.3957,13.8643],[104.3783,13.8379],[104.3689,13.8387],[104.3583,13.8135],[104.3859,13.8067],[104.3957,13.7791],[104.4149,13.7655],[104.4083,13.7513],[104.4283,13.7209],[104.4287,13.6791],[104.4397,13.6697],[104.4251,13.6163],[104.4025,13.5957],[104.4093,13.5577],[104.5317,13.5449],[104.5527,13.5259],[104.5983,13.5235],[104.6189,13.5055],[104.6753,13.5345],[104.6829,13.5285],[104.6517,13.4977],[104.6497,13.4671],[104.6343,13.4435],[104.5979,13.4171],[104.5745,13.3847],[104.5671,13.3617],[104.5723,13.3199],[104.5649,13.2967],[104.5717,13.2737],[104.5655,13.2531],[104.6503,13.2725],[104.7087,13.3057],[104.7431,13.3135],[104.7599,13.3139],[104.7763,13.3023],[104.8927,13.3081],[104.9043,13.2849],[104.8753,13.2189],[104.8775,13.1689],[104.9075,13.1085],[104.9337,13.0763],[104.9539,13.0581],[104.9743,13.0555],[105.1459,13.1663],[105.1921,13.2299],[105.2805,13.2759],[105.3585,13.3633],[105.4797,13.4213],[105.5243,13.4339],[105.5655,13.4881],[105.5627,13.5407],[105.5769,13.6527],[105.5649,13.7085],[105.5249,13.7651],[105.5281,13.8063],[105.5205,13.8299],[105.5315,13.8547],[105.5797,13.8869],[105.6015,13.8785],[105.6233,13.8569],[105.6363,13.8685],[105.6655,13.8747],[105.6803,13.8633],[105.6973,13.8625],[105.7143,13.8729],[105.7007,13.9043],[105.7123,13.9171],[105.8695,13.9217],[105.9001,13.9369],[105.7935,14.0229],[105.7829,14.0431],[105.7867,14.0827],[105.7383,14.0945],[105.7231,14.1091],[105.7039,14.0869],[105.6591,14.1201],[105.6603,14.1107],[105.6503,14.1089],[105.6455,14.0975],[105.6331,14.1075],[105.6329,14.1307],[105.6199,14.1341],[105.6171,14.1265],[105.6023,14.1477],[105.5851,14.1489],[105.5839,14.1393],[105.5569,14.1607],[105.4517,14.1025],[105.4133,14.1109],[105.3919,14.1007],[105.3625,14.1057],[105.3271,14.1437],[105.3201,14.1631],[105.3097,14.1611],[105.2755,14.1769],[105.2501,14.2307],[105.2415,14.2715],[105.2073,14.3113],[105.2067,14.3417],[105.1995,14.3485],[105.1751,14.3447],[105.1687,14.3351],[105.1771,14.3159],[105.1513,14.2843],[105.1531,14.2685],[105.1445,14.2607],[105.1537,14.2537],[105.1415,14.2371],[105.1083,14.2139],[105.0545,14.2145],[105.0237,14.2403],[105.0259,14.2639],[104.9855,14.3195],[105.0023,14.3607],[104.9935,14.3791],[104.9733,14.3921],[104.9473,14.3823],[104.9239,14.3997],[104.9051,14.3999],[104.8715,14.4179],[104.8395,14.3987],[104.8349,14.4095]]]}},{"type":"Feature","properties":{"c":"14","en":"Prey Veng","km":"ព្រៃវែង"},"geometry":{"type":"Polygon","coordinates":[[[105.3315,11.8647],[105.3265,11.8701],[105.2843,11.8571],[105.2871,11.8461],[105.2681,11.8425],[105.2537,11.8127],[105.1571,11.7597],[105.1645,11.7467],[105.1569,11.7087],[105.1287,11.6931],[105.1211,11.6673],[105.1323,11.6531],[105.1117,11.6411],[105.1035,11.6249],[105.1119,11.6127],[105.1171,11.5611],[105.1339,11.5495],[105.1281,11.5367],[105.1467,11.5273],[105.1599,11.5313],[105.1807,11.5183],[105.1983,11.5211],[105.2137,11.4877],[105.2277,11.4853],[105.2367,11.4635],[105.2699,11.4501],[105.2811,11.4559],[105.2965,11.4253],[105.2557,11.3915],[105.2597,11.3545],[105.2741,11.3213],[105.2811,11.2537],[105.2627,11.2039],[105.2461,11.1879],[105.2339,11.1297],[105.1943,11.0865],[105.1969,11.0271],[105.1839,10.9519],[105.1895,10.9135],[105.2383,10.8931],[105.2655,10.8957],[105.3373,10.8607],[105.3679,10.8877],[105.3847,10.9163],[105.4071,10.9309],[105.4285,10.9745],[105.4535,10.9555],[105.4739,10.9639],[105.4955,10.9487],[105.5383,10.9525],[105.6119,10.9737],[105.6105,10.9931],[105.5863,11.0007],[105.5803,11.0103],[105.6023,11.0499],[105.6029,11.0827],[105.6353,11.1213],[105.6141,11.1497],[105.6081,11.2043],[105.6373,11.2713],[105.6531,11.2647],[105.6689,11.2695],[105.6523,11.3209],[105.6519,11.4007],[105.6691,11.4553],[105.6655,11.4865],[105.6857,11.5081],[105.6773,11.5339],[105.6901,11.5463],[105.6935,11.5653],[105.7431,11.5779],[105.7473,11.5881],[105.7835,11.5879],[105.8095,11.5995],[105.7751,11.6339],[105.7559,11.6779],[105.7327,11.6931],[105.7203,11.7251],[105.7013,11.7425],[105.6199,11.7425],[105.4637,11.7655],[105.4423,11.7557],[105.4189,11.7725],[105.4075,11.7941],[105.4191,11.8235],[105.4051,11.8449],[105.3913,11.8387],[105.3621,11.8565],[105.3435,11.8539],[105.3315,11.8647]]]}},{"type":"Feature","properties":{"c":"15","en":"Pursat","km":"ពោធិ៍សាត់"},"geometry":{"type":"MultiPolygon","coordinates":[[[[104.0163,12.7817],[104.0341,12.7899],[104.0545,12.7847],[104.0595,12.7923],[104.0665,12.7837],[104.0915,12.8225],[104.0947,12.7835],[104.1261,12.7881],[104.1087,12.7513],[104.1155,12.7397],[104.1261,12.7435],[104.1229,12.7243],[104.1281,12.7375],[104.1393,12.7391],[104.1301,12.7297],[104.1237,12.6951],[104.1557,12.6919],[104.1497,12.6761],[104.1543,12.6577],[104.1457,12.6575],[104.1565,12.6429],[104.1731,12.6377],[104.1977,12.5835],[104.2623,12.5579],[104.2851,12.5607],[104.2937,12.5483],[104.2971,12.5543],[104.3205,12.5353],[104.3867,12.5085],[104.3889,12.4979],[104.3807,12.4559],[104.3919,12.4203],[104.3525,12.3979],[104.3267,12.3373],[104.3147,12.3275],[104.2829,12.3217],[104.2639,12.2993],[104.2207,12.2907],[104.1883,12.2555],[104.1711,12.1797],[104.1845,12.1637],[104.1861,12.1059],[104.1969,12.0951],[104.1993,12.0767],[104.1887,12.0675],[104.1801,12.0377],[104.1493,12.0507],[104.1391,12.0427],[104.1141,12.0471],[104.0951,12.0387],[104.0871,11.9817],[104.0779,11.9847],[104.0729,11.9689],[104.0579,11.9685],[104.0505,11.9557],[104.0621,11.9235],[104.0435,11.9215],[104.0197,11.9013],[103.9917,11.9029],[103.9737,11.9359],[103.9429,11.9437],[103.9179,11.9307],[103.9213,11.8987],[103.8923,11.8849],[103.8733,11.8607],[103.8747,11.8493],[103.8569,11.8435],[103.7875,11.9321],[103.7621,11.9255],[103.7427,11.9393],[103.7225,11.9281],[103.7115,11.9309],[103.6957,11.9411],[103.6955,11.9643],[103.6765,11.9657],[103.6381,11.9853],[103.6289,11.9955],[103.6361,12.0029],[103.6329,12.0143],[103.6067,12.0235],[103.5841,12.0531],[103.5385,12.0835],[103.5379,12.0949],[103.5087,12.1059],[103.4897,12.0997],[103.4715,12.1161],[103.4325,12.0873],[103.3917,12.1073],[103.3821,12.0959],[103.3849,12.0705],[103.3643,12.0597],[103.3627,12.0305],[103.3289,12.0169],[103.3113,11.9859],[103.2893,11.9805],[103.2681,11.9885],[103.2525,11.9739],[103.2313,11.9759],[103.2231,11.9569],[103.1987,11.9635],[103.1597,11.9443],[103.1119,11.9479],[102.9727,12.0023],[102.7977,12.0135],[102.7797,12.0231],[102.7711,12.0723],[102.7345,12.1109],[102.7045,12.1743],[102.7185,12.2255],[102.7141,12.2643],[102.7255,12.2995],[102.7257,12.3637],[102.7461,12.3889],[102.7849,12.4003],[102.8095,12.3715],[102.8361,12.4117],[102.8735,12.3983],[102.9031,12.4321],[102.9427,12.4315],[102.9747,12.4509],[102.9957,12.4847],[103.0225,12.4475],[103.0667,12.4375],[103.0723,12.4597],[103.1033,12.4637],[103.1367,12.4887],[103.1597,12.4813],[103.1829,12.5049],[103.2271,12.5265],[103.2481,12.5197],[103.2745,12.5429],[103.2859,12.5497],[103.3019,12.5461],[103.3035,12.5585],[103.3277,12.5605],[103.3279,12.5677],[103.3601,12.5603],[103.3697,12.5505],[103.3997,12.5581],[103.4587,12.5355],[103.5095,12.5049],[103.5627,12.5211],[103.6087,12.5247],[103.6227,12.5601],[103.6425,12.5781],[103.6327,12.5959],[103.6405,12.6081],[103.6369,12.6295],[103.6485,12.6395],[103.6451,12.6633],[103.6193,12.6771],[103.6355,12.6999],[103.6199,12.7481],[103.6231,12.7777],[103.6445,12.8163],[103.6323,12.8231],[103.6333,12.8451],[103.6945,12.8695],[103.7011,12.9149],[103.7321,12.9327],[103.7189,12.9741],[103.7481,13.0115],[103.7893,12.9785],[103.7931,12.9585],[103.7849,12.9483],[103.7919,12.9169],[103.8035,12.9017],[103.8115,12.8993],[103.8355,12.9137],[103.8443,12.8999],[103.8627,12.8971],[103.8671,12.8827],[103.8777,12.8777],[103.8771,12.8653],[103.9023,12.8641],[103.9023,12.8479],[103.9137,12.8387],[103.9265,12.8453],[103.9335,12.8223],[103.9491,12.8299],[103.9519,12.8405],[103.9577,12.8119],[103.9893,12.7967],[104.0003,12.8087],[104.0025,12.8135],[104.0163,12.7817]]],[[[104.3889,12.5223],[104.3617,12.5267],[104.3459,12.5407],[104.3847,12.5285],[104.3889,12.5223]]],[[[104.1461,12.7247],[104.1467,12.7201],[104.1399,12.7209],[104.1429,12.7223],[104.1461,12.7247]]],[[[104.1247,12.7515],[104.1267,12.7555],[104.1281,12.7521],[104.1247,12.7515]]],[[[104.0025,12.8135],[104.0047,12.8167],[104.0055,12.8135],[104.0025,12.8135]]]]}},{"type":"Feature","properties":{"c":"16","en":"Ratanak Kiri","km":"រតនគិរី"},"geometry":{"type":"Polygon","coordinates":[[[107.5421,14.6875],[107.5271,14.6823],[107.5201,14.6521],[107.4929,14.6237],[107.4655,14.6171],[107.4673,14.5943],[107.4535,14.5851],[107.4579,14.5745],[107.4487,14.5285],[107.4383,14.5245],[107.3989,14.5419],[107.3769,14.5403],[107.3641,14.5655],[107.3395,14.5851],[107.3289,14.5911],[107.2989,14.5875],[107.2831,14.5707],[107.2813,14.5483],[107.2611,14.5413],[107.2545,14.4879],[107.2361,14.4793],[107.2065,14.4865],[107.1965,14.4491],[107.1633,14.4149],[107.1501,14.4217],[107.1215,14.3979],[107.0935,14.3923],[107.0791,14.4043],[107.0773,14.4251],[107.0397,14.4483],[107.0457,14.4161],[107.0153,14.3955],[106.9957,14.3571],[106.9761,14.3575],[106.9717,14.3407],[106.9785,14.3345],[106.9673,14.3149],[106.9455,14.3151],[106.9377,14.3235],[106.8963,14.3327],[106.8929,14.3129],[106.8653,14.3175],[106.8505,14.2939],[106.8389,14.2941],[106.8349,14.3093],[106.8159,14.3121],[106.7977,14.3269],[106.7697,14.3805],[106.7551,14.3869],[106.7471,14.3469],[106.7595,14.2359],[106.7515,14.1737],[106.7885,14.0727],[106.7557,14.0257],[106.7315,14.0193],[106.7033,13.9979],[106.6689,13.9967],[106.6551,13.9867],[106.6165,13.9923],[106.6125,13.9761],[106.6261,13.9347],[106.6251,13.9065],[106.6373,13.8887],[106.6325,13.8671],[106.6639,13.8299],[106.6535,13.8103],[106.6633,13.7793],[106.6177,13.7031],[106.5863,13.6831],[106.5309,13.6703],[106.5303,13.5759],[106.5317,13.5531],[106.5525,13.5449],[106.5703,13.5187],[106.5749,13.4943],[106.6125,13.4273],[106.6053,13.4015],[106.6221,13.3879],[106.6273,13.3591],[106.6249,13.3465],[106.6089,13.3411],[106.6081,13.3229],[106.7793,13.1979],[106.8669,13.1747],[106.9339,13.1739],[106.9633,13.1839],[106.9803,13.1779],[107.0051,13.1877],[107.0309,13.1851],[107.0373,13.1741],[107.0487,13.1737],[107.0837,13.2053],[107.0835,13.2301],[107.0931,13.2409],[107.0891,13.2743],[107.0713,13.2995],[107.0785,13.3211],[107.1065,13.3085],[107.1335,13.3299],[107.1457,13.3309],[107.1625,13.3091],[107.1897,13.3079],[107.2347,13.3367],[107.2351,13.3575],[107.2433,13.3673],[107.2697,13.3587],[107.2911,13.3101],[107.3385,13.3161],[107.3703,13.2771],[107.4053,13.2867],[107.4029,13.2971],[107.4553,13.3191],[107.4579,13.3309],[107.4673,13.3345],[107.4969,13.2973],[107.5329,13.2997],[107.5649,13.2839],[107.5845,13.3049],[107.6029,13.3025],[107.6275,13.3659],[107.6169,13.5259],[107.5727,13.6247],[107.5707,13.6627],[107.5353,13.7423],[107.4519,13.7945],[107.4613,13.8133],[107.4567,13.8301],[107.4731,13.8523],[107.4543,13.8721],[107.4693,13.8893],[107.4725,13.9145],[107.4539,13.9301],[107.4557,13.9785],[107.4439,13.9967],[107.3875,13.9905],[107.3579,14.0169],[107.3717,14.0837],[107.3353,14.1097],[107.3401,14.1321],[107.3627,14.1629],[107.3607,14.1713],[107.3767,14.1789],[107.4071,14.2345],[107.4013,14.2511],[107.4093,14.2643],[107.4069,14.2973],[107.3911,14.3173],[107.4091,14.3489],[107.4093,14.3633],[107.4397,14.3821],[107.4501,14.4179],[107.4633,14.4057],[107.4893,14.4079],[107.5139,14.4991],[107.5083,14.5077],[107.5221,14.5199],[107.5313,14.5461],[107.5185,14.5847],[107.5581,14.6225],[107.5491,14.6579],[107.5555,14.6853],[107.5421,14.6875]]]}},{"type":"Feature","properties":{"c":"17","en":"Siemreap","km":"សៀមរាប"},"geometry":{"type":"Polygon","coordinates":[[[103.4195,13.7369],[103.4287,13.7363],[103.4225,13.7337],[103.4277,13.7249],[103.4209,13.7229],[103.4217,13.7087],[103.4393,13.6903],[103.4065,13.6637],[103.3965,13.6461],[103.4077,13.6335],[103.3973,13.6331],[103.3903,13.6223],[103.3953,13.6093],[103.4071,13.6117],[103.4149,13.5973],[103.4043,13.5915],[103.4153,13.5743],[103.4031,13.5693],[103.4137,13.5619],[103.4177,13.5305],[103.4055,13.5137],[103.4121,13.5007],[103.4039,13.4979],[103.4003,13.4757],[103.4139,13.4657],[103.3939,13.4187],[103.4161,13.3683],[103.4631,13.3465],[103.4771,13.3537],[103.4937,13.3445],[103.5061,13.3527],[103.5231,13.3503],[103.5285,13.3409],[103.5531,13.3319],[103.5607,13.3115],[103.5801,13.3139],[103.5929,13.2941],[103.6431,13.2941],[103.6695,13.2747],[103.6833,13.2861],[103.7167,13.2561],[103.7207,13.2641],[103.7817,13.2417],[103.8423,13.2279],[103.8589,13.2313],[103.9071,13.2115],[103.9409,13.2097],[104.0175,13.1731],[104.0553,13.1317],[104.0907,13.0717],[104.1261,12.9613],[104.1461,12.9483],[104.1581,12.9199],[104.1517,12.8981],[104.1583,12.8723],[104.1865,12.8299],[104.2059,12.7797],[104.2211,12.7999],[104.2281,12.7985],[104.2671,12.8641],[104.3607,12.9019],[104.3825,12.9455],[104.4241,12.9863],[104.4401,12.9859],[104.4487,13.0017],[104.4561,13.0015],[104.4605,13.0121],[104.4527,13.0357],[104.4665,13.0525],[104.4773,13.1721],[104.4841,13.1819],[104.5491,13.2071],[104.5717,13.2737],[104.5649,13.2967],[104.5723,13.3199],[104.5669,13.3577],[104.5727,13.3803],[104.5979,13.4171],[104.6343,13.4435],[104.6497,13.4671],[104.6517,13.4977],[104.6829,13.5285],[104.6753,13.5345],[104.6189,13.5055],[104.5983,13.5235],[104.5527,13.5259],[104.5317,13.5449],[104.4093,13.5577],[104.4025,13.5957],[104.4251,13.6163],[104.4397,13.6697],[104.4287,13.6791],[104.4283,13.7209],[104.4083,13.7513],[104.4149,13.7655],[104.3957,13.7791],[104.3859,13.8067],[104.3583,13.8135],[104.3689,13.8387],[104.3783,13.8379],[104.3957,13.8643],[104.3907,13.8721],[104.3993,13.8917],[104.4173,13.8917],[104.4079,13.9089],[104.4227,13.9219],[104.4253,13.9385],[104.4163,13.9349],[104.4069,13.9527],[104.3909,13.9625],[104.3603,13.9645],[104.3487,13.9537],[104.2607,13.9579],[104.2161,13.9283],[104.1919,13.9345],[104.1629,13.9563],[104.1115,13.9549],[104.1129,13.9667],[103.6819,13.9603],[103.6515,13.9709],[103.6469,13.9633],[103.6355,13.9717],[103.5927,13.9261],[103.5787,13.9265],[103.5681,13.9059],[103.5563,13.9085],[103.5375,13.8965],[103.5319,13.9025],[103.5189,13.8967],[103.4807,13.9019],[103.4407,13.8775],[103.4259,13.8773],[103.4307,13.8669],[103.4217,13.8563],[103.4233,13.8345],[103.4321,13.8171],[103.4409,13.8183],[103.4221,13.7969],[103.4275,13.7971],[103.4245,13.7791],[103.4101,13.7761],[103.4301,13.7535],[103.4195,13.7369]]]}},{"type":"Feature","properties":{"c":"19","en":"Stung Treng","km":"ស្ទឹងត្រែង"},"geometry":{"type":"Polygon","coordinates":[[[106.5429,14.5933],[106.5113,14.5891],[106.4613,14.5535],[106.4595,14.5419],[106.4783,14.5151],[106.4369,14.5241],[106.4305,14.5111],[106.4409,14.4895],[106.4121,14.4521],[106.3707,14.4543],[106.3153,14.4415],[106.2879,14.4723],[106.2659,14.4745],[106.2519,14.4859],[106.2423,14.4647],[106.2523,14.4435],[106.2379,14.4279],[106.2371,14.3985],[106.2189,14.3671],[106.2047,14.3717],[106.1865,14.3513],[106.1595,14.3543],[106.1441,14.3719],[106.1203,14.3587],[106.1031,14.3745],[106.0829,14.3635],[106.0797,14.3381],[106.0663,14.3517],[106.0583,14.3449],[106.0285,14.3455],[106.0013,14.3713],[105.9969,14.3249],[106.0031,14.3127],[106.0195,14.3145],[106.0257,14.3075],[106.0349,14.2705],[106.0273,14.2627],[106.0275,14.2459],[106.0365,14.2271],[106.0553,14.2003],[106.1109,14.1849],[106.1115,14.1457],[106.1219,14.1093],[106.1887,14.0623],[106.1695,14.0213],[106.1349,14.0147],[106.1197,13.9937],[106.1021,13.9901],[106.1063,13.9107],[106.0089,13.9293],[105.9861,13.9237],[105.9591,13.9329],[105.9137,13.9299],[105.9001,13.9369],[105.8695,13.9217],[105.7239,13.9199],[105.7015,13.9087],[105.7037,13.8899],[105.7149,13.8803],[105.7115,13.8673],[105.6803,13.8633],[105.6655,13.8747],[105.6363,13.8685],[105.6233,13.8569],[105.6015,13.8785],[105.5797,13.8869],[105.5281,13.8511],[105.5205,13.8299],[105.5281,13.8063],[105.5249,13.7651],[105.5649,13.7085],[105.5769,13.6527],[105.5627,13.5407],[105.5655,13.4881],[105.5375,13.4481],[105.5515,13.4081],[105.5491,13.2785],[105.5869,13.2507],[105.5893,13.2301],[105.6085,13.2291],[105.6625,13.2057],[105.6951,13.2065],[105.7425,13.1833],[105.8011,13.1323],[105.8635,13.1141],[105.9453,13.1521],[105.9653,13.1963],[105.9675,13.2317],[106.0057,13.2151],[106.0225,13.2259],[106.0337,13.2727],[106.0851,13.3357],[106.0825,13.3513],[106.1093,13.3657],[106.1645,13.3695],[106.2213,13.3609],[106.2389,13.3697],[106.2455,13.3935],[106.2537,13.3921],[106.2665,13.4055],[106.3501,13.4001],[106.4199,13.4171],[106.4905,13.3803],[106.5121,13.3553],[106.5581,13.3505],[106.6009,13.3191],[106.6105,13.3261],[106.6089,13.3411],[106.6249,13.3465],[106.6221,13.3879],[106.6053,13.4015],[106.6125,13.4273],[106.5749,13.4943],[106.5745,13.5121],[106.5525,13.5449],[106.5317,13.5531],[106.5309,13.6703],[106.5863,13.6831],[106.6177,13.7031],[106.6619,13.7739],[106.6535,13.8103],[106.6639,13.8299],[106.6325,13.8671],[106.6373,13.8887],[106.6251,13.9065],[106.6261,13.9347],[106.6125,13.9761],[106.6165,13.9923],[106.6551,13.9867],[106.6689,13.9967],[106.6957,13.9951],[106.7315,14.0193],[106.7493,14.0211],[106.7845,14.0649],[106.7891,14.0829],[106.7515,14.1737],[106.7595,14.2359],[106.7471,14.3469],[106.7571,14.3993],[106.7427,14.4281],[106.7301,14.4349],[106.7169,14.4223],[106.6637,14.4393],[106.6589,14.4493],[106.6309,14.4457],[106.6157,14.4679],[106.6127,14.4971],[106.6035,14.4957],[106.6003,14.5067],[106.5651,14.5009],[106.5709,14.5241],[106.5429,14.5933]]]}},{"type":"Feature","properties":{"c":"20","en":"Svay Rieng","km":"ស្វាយរៀង"},"geometry":{"type":"Polygon","coordinates":[[[105.8117,11.5891],[105.8095,11.5995],[105.7835,11.5879],[105.7473,11.5881],[105.7431,11.5779],[105.6935,11.5653],[105.6901,11.5463],[105.6773,11.5339],[105.6857,11.5081],[105.6655,11.4865],[105.6691,11.4553],[105.6519,11.4007],[105.6523,11.3209],[105.6689,11.2695],[105.6531,11.2647],[105.6373,11.2713],[105.6081,11.2043],[105.6141,11.1497],[105.6353,11.1213],[105.6029,11.0827],[105.6023,11.0499],[105.5807,11.0067],[105.6105,10.9931],[105.6119,10.9737],[105.6673,10.9875],[105.7263,11.0247],[105.7787,11.0317],[105.8077,10.9729],[105.8643,10.8995],[105.8519,10.8619],[105.8991,10.8441],[105.9361,10.8407],[105.9305,10.8639],[105.9549,10.8825],[105.9453,10.9187],[106.0163,10.8497],[106.0735,10.8109],[106.1649,10.8117],[106.1895,10.7907],[106.1881,10.8389],[106.1387,10.9177],[106.1507,10.9423],[106.1457,10.9787],[106.2057,10.9765],[106.1941,11.0019],[106.1873,11.0523],[106.1537,11.1015],[106.1209,11.0883],[106.1071,11.0713],[106.1009,11.0745],[106.0891,11.1005],[106.0731,11.1003],[106.0627,11.1159],[106.0231,11.1407],[106.0111,11.1901],[105.9611,11.1973],[105.9243,11.2213],[105.9081,11.2517],[105.9079,11.2867],[105.8653,11.2851],[105.8849,11.3647],[105.8721,11.3733],[105.8785,11.3903],[105.8741,11.4049],[105.9017,11.4301],[105.9035,11.4453],[105.8755,11.4615],[105.8847,11.4853],[105.8807,11.5441],[105.8615,11.5659],[105.8461,11.5617],[105.8199,11.5685],[105.8117,11.5891]]]}},{"type":"Feature","properties":{"c":"21","en":"Takeo","km":"តាកែវ"},"geometry":{"type":"Polygon","coordinates":[[[104.8013,11.3543],[104.7551,11.3369],[104.7325,11.3499],[104.7109,11.3213],[104.6853,11.1661],[104.6863,11.0875],[104.6783,11.0915],[104.6357,11.0781],[104.5423,11.1053],[104.5125,11.1313],[104.4617,11.1241],[104.4105,11.1369],[104.4111,11.0779],[104.4335,11.0803],[104.4551,11.0689],[104.4551,11.0579],[104.4611,11.0637],[104.4685,11.0569],[104.4877,11.0709],[104.4869,11.0597],[104.4995,11.0583],[104.5233,11.0237],[104.5379,10.9871],[104.5411,10.9303],[104.5215,10.8939],[104.5359,10.8871],[104.5853,10.8863],[104.6183,10.9023],[104.6547,10.9071],[104.6743,10.8999],[104.6919,10.8729],[104.7067,10.8351],[104.7061,10.8065],[104.7291,10.7803],[104.7039,10.7647],[104.7021,10.7411],[104.6711,10.6955],[104.6739,10.6213],[104.7105,10.6161],[104.7065,10.5891],[104.7145,10.5321],[104.7537,10.5179],[104.8691,10.5223],[104.8975,10.5479],[104.9543,10.6369],[105.0971,10.7203],[105.0919,10.7565],[105.0645,10.7821],[105.0583,10.8201],[105.0309,10.8861],[105.0425,10.9281],[105.0311,10.9887],[104.9937,10.9983],[104.9913,11.0047],[104.9963,11.0559],[105.0191,11.1049],[105.0167,11.1353],[105.0263,11.1619],[105.0135,11.1621],[105.0193,11.1735],[104.9863,11.1741],[104.9805,11.2205],[104.9333,11.2519],[104.9261,11.2715],[104.9395,11.2985],[104.9381,11.3281],[104.9253,11.3273],[104.8947,11.3493],[104.8653,11.3519],[104.8525,11.3417],[104.8347,11.3423],[104.8013,11.3543]]]}},{"type":"Feature","properties":{"c":"25","en":"Tboung Khmum","km":"ត្បូងឃ្មុំ"},"geometry":{"type":"Polygon","coordinates":[[[105.6417,12.2887],[105.6211,12.2987],[105.5875,12.2989],[105.5591,12.2799],[105.5449,12.2569],[105.5299,12.1153],[105.5477,12.0531],[105.5295,12.0313],[105.4907,12.0247],[105.4857,12.0387],[105.4729,12.0179],[105.4703,11.9521],[105.4549,11.9137],[105.4669,11.9009],[105.4535,11.8903],[105.4469,11.8363],[105.4187,11.8277],[105.4075,11.7941],[105.4273,11.7659],[105.4473,11.7551],[105.4637,11.7655],[105.6199,11.7425],[105.7013,11.7425],[105.7203,11.7251],[105.7327,11.6931],[105.7559,11.6779],[105.7751,11.6339],[105.8095,11.5995],[105.8101,11.6183],[105.8291,11.6215],[105.8499,11.6597],[105.8847,11.6771],[105.9255,11.6493],[105.9573,11.6437],[105.9821,11.6691],[105.9781,11.6861],[106.0035,11.7049],[106.0147,11.7265],[106.0153,11.7657],[106.0417,11.7781],[106.0681,11.7765],[106.1159,11.7429],[106.1531,11.7371],[106.1893,11.7539],[106.2133,11.7287],[106.2621,11.7237],[106.2981,11.6739],[106.3829,11.6969],[106.4355,11.6699],[106.4527,11.6731],[106.4537,11.6895],[106.4279,11.7281],[106.4151,11.7663],[106.4467,11.8227],[106.4397,11.8555],[106.4655,11.8715],[106.4139,11.9735],[106.3997,11.9773],[106.3789,11.9553],[106.3535,11.9499],[106.3133,11.9639],[106.2559,11.9537],[106.2361,11.9659],[106.2251,11.9575],[106.1993,11.9685],[106.1797,11.9531],[106.1671,11.9667],[106.1741,11.9713],[106.1715,11.9967],[106.1811,12.0103],[106.1727,12.0349],[106.1467,12.0543],[106.1333,12.0461],[106.1113,12.0753],[106.0803,12.0695],[106.0759,12.0815],[106.0449,12.0825],[106.0495,12.0895],[106.0417,12.0967],[106.0593,12.1127],[106.0591,12.1319],[106.0439,12.1461],[106.0447,12.1563],[106.0175,12.1473],[106.0089,12.1827],[105.9865,12.1881],[105.9935,12.1907],[105.9931,12.2019],[105.9475,12.1979],[105.9299,12.2203],[105.8935,12.2109],[105.8647,12.2219],[105.8519,12.2033],[105.8425,12.2049],[105.8285,12.2581],[105.7455,12.2589],[105.7211,12.2775],[105.6417,12.2887]]]}}]}