{"type":"FeatureCollection","features":[{"type":"Feature","properties":{"c":"010201","en":"Banteay Neang","km":"បន្ទាយនាង"},"geometry":{"type":"Polygon","coordinates":[[[103.0355,13.5225],[103.0151,13.5223],[103.0023,13.5305],[103.0029,13.5213],[102.9973,13.5019],[103.0133,13.4907],[103.0119,13.4703],[103.0141,13.4655],[103.0203,13.4641],[103.0311,13.4561],[103.0509,13.4553],[103.0495,13.4293],[103.1101,13.4299],[103.1109,13.4331],[103.0985,13.4431],[103.0865,13.4423],[103.0863,13.4471],[103.0833,13.4483],[103.0759,13.4443],[103.0745,13.4685],[103.0695,13.4743],[103.0601,13.4753],[103.0489,13.5071],[103.0455,13.5081],[103.0355,13.5225]]]}},{"type":"Feature","properties":{"c":"010202","en":"Bat Trang","km":"បត់ត្រង់"},"geometry":{"type":"Polygon","coordinates":[[[103.0023,13.5305],[102.9969,13.5389],[102.9955,13.5511],[102.9725,13.5517],[102.9401,13.5481],[102.9125,13.5335],[102.9047,13.5329],[102.8983,13.5257],[102.9667,13.5081],[102.9953,13.4977],[102.9989,13.4995],[102.9977,13.5053],[103.0029,13.5213],[103.0023,13.5305]]]}},{"type":"Feature","properties":{"c":"010203","en":"Chamnaom","km":"ចំណោម"},"geometry":{"type":"Polygon","coordinates":[[[102.9895,13.4295],[102.9801,13.4361],[102.9733,13.4543],[102.9697,13.4571],[102.9613,13.4587],[102.8757,13.4967],[102.8749,13.4933],[102.8513,13.4933],[102.8509,13.4881],[102.8467,13.4857],[102.8301,13.4857],[102.8229,13.4761],[102.7667,13.4535],[102.8317,13.4451],[102.8405,13.4397],[102.9089,13.4225],[102.9253,13.4089],[102.9523,13.4115],[102.9599,13.4077],[102.9633,13.4083],[102.9761,13.4159],[102.9797,13.4151],[102.9895,13.4295]]]}},{"type":"Feature","properties":{"c":"010204","en":"Kouk Ballangk","km":"គោកបល្ល័ង្គ"},"geometry":{"type":"Polygon","coordinates":[[[103.1755,13.4799],[103.1709,13.4809],[103.1705,13.4843],[103.1593,13.4867],[103.1593,13.4937],[103.1535,13.4939],[103.1491,13.4927],[103.1479,13.4853],[103.1427,13.4797],[103.1399,13.4811],[103.0695,13.4743],[103.0745,13.4685],[103.0759,13.4443],[103.0833,13.4483],[103.0863,13.4471],[103.0865,13.4423],[103.0985,13.4431],[103.1109,13.4331],[103.1101,13.4299],[103.1231,13.4257],[103.1241,13.4229],[103.1307,13.4259],[103.1523,13.4177],[103.1699,13.4527],[103.1695,13.4643],[103.1667,13.4669],[103.1687,13.4713],[103.1765,13.4765],[103.1755,13.4799]]]}},{"type":"Feature","properties":{"c":"010205","en":"Koy Maeng","km":"គយម៉ែង"},"geometry":{"type":"Polygon","coordinates":[[[103.1061,13.5701],[103.1019,13.5721],[103.1005,13.5689],[103.0895,13.5727],[103.0859,13.5709],[103.0837,13.5737],[103.0739,13.5689],[103.0663,13.5685],[103.0795,13.5437],[103.0815,13.5343],[103.1015,13.5337],[103.1047,13.5389],[103.1211,13.5393],[103.1323,13.5447],[103.1309,13.5515],[103.1269,13.5509],[103.1275,13.5557],[103.1211,13.5607],[103.1193,13.5679],[103.1159,13.5661],[103.1061,13.5701]]]}},{"type":"Feature","properties":{"c":"010206","en":"Ou Prasat","km":"អូរប្រាសាទ"},"geometry":{"type":"Polygon","coordinates":[[[103.1101,13.4299],[103.0495,13.4293],[103.0509,13.4553],[103.0311,13.4561],[103.0203,13.4641],[103.0141,13.4655],[103.0119,13.4703],[103.0133,13.4907],[102.9989,13.4995],[102.9953,13.4977],[102.9869,13.4689],[102.9891,13.4607],[102.9977,13.4517],[102.9991,13.4353],[103.0171,13.4283],[103.0351,13.4287],[103.0497,13.4193],[103.1493,13.4185],[103.1307,13.4259],[103.1241,13.4229],[103.1231,13.4257],[103.1101,13.4299]]]}},{"type":"Feature","properties":{"c":"010207","en":"Phnum Touch","km":"ភ្នំតូច"},"geometry":{"type":"Polygon","coordinates":[[[103.1493,13.4185],[103.0497,13.4193],[103.0351,13.4287],[103.0171,13.4283],[102.9991,13.4353],[102.9895,13.4295],[102.9797,13.4151],[102.9963,13.3989],[102.9961,13.3799],[103.0011,13.3757],[103.0047,13.3813],[103.0133,13.3851],[103.0201,13.3935],[103.0355,13.3975],[103.0441,13.3919],[103.0557,13.3923],[103.0797,13.3989],[103.0905,13.3985],[103.0959,13.4017],[103.0981,13.4063],[103.1053,13.4047],[103.1115,13.4067],[103.1129,13.4107],[103.1497,13.4113],[103.1523,13.4177],[103.1493,13.4185]]]}},{"type":"Feature","properties":{"c":"010208","en":"Rohat Tuek","km":"រហាត់ទឹក"},"geometry":{"type":"Polygon","coordinates":[[[102.9953,13.4977],[102.9667,13.5081],[102.8983,13.5257],[102.8851,13.5133],[102.8831,13.5049],[102.8759,13.4997],[102.8757,13.4967],[102.9613,13.4587],[102.9697,13.4571],[102.9733,13.4543],[102.9801,13.4361],[102.9895,13.4295],[102.9991,13.4353],[102.9977,13.4517],[102.9891,13.4607],[102.9869,13.4689],[102.9953,13.4977]]]}},{"type":"Feature","properties":{"c":"010209","en":"Ruessei Kraok","km":"ឫស្សីក្រោក"},"geometry":{"type":"Polygon","coordinates":[[[103.0815,13.5343],[103.0795,13.5437],[103.0663,13.5685],[102.9843,13.5643],[102.9869,13.5523],[102.9955,13.5511],[102.9989,13.5349],[103.0061,13.5273],[103.0151,13.5223],[103.0355,13.5225],[103.0815,13.5343]]]}},{"type":"Feature","properties":{"c":"010210","en":"Sambuor","km":"សំបួរ"},"geometry":{"type":"Polygon","coordinates":[[[103.2075,13.4715],[103.2051,13.4681],[103.2027,13.4713],[103.2009,13.4679],[103.1963,13.4671],[103.1945,13.4715],[103.1909,13.4709],[103.1893,13.4765],[103.1845,13.4755],[103.1805,13.4769],[103.1789,13.4805],[103.1755,13.4799],[103.1765,13.4765],[103.1687,13.4713],[103.1667,13.4669],[103.1695,13.4643],[103.1699,13.4527],[103.1523,13.4177],[103.1497,13.4113],[103.1515,13.4079],[103.1565,13.4035],[103.1653,13.4103],[103.1787,13.4101],[103.1853,13.4055],[103.1869,13.4007],[103.2169,13.3873],[103.2487,13.3845],[103.2575,13.3879],[103.2557,13.3911],[103.2627,13.3971],[103.2507,13.3971],[103.2579,13.4027],[103.2545,13.4035],[103.2515,13.4117],[103.2453,13.4047],[103.2431,13.4129],[103.2393,13.4165],[103.2409,13.4189],[103.2461,13.4195],[103.2513,13.4179],[103.2467,13.4243],[103.2479,13.4273],[103.2509,13.4253],[103.2521,13.4327],[103.2599,13.4337],[103.2569,13.4407],[103.2589,13.4489],[103.2509,13.4499],[103.2509,13.4533],[103.2469,13.4529],[103.2451,13.4569],[103.2395,13.4535],[103.2359,13.4537],[103.2345,13.4569],[103.2325,13.4539],[103.2265,13.4527],[103.2293,13.4561],[103.2211,13.4573],[103.2229,13.4609],[103.2203,13.4643],[103.2173,13.4595],[103.2153,13.4635],[103.2115,13.4609],[103.2079,13.4621],[103.2105,13.4683],[103.2075,13.4715]]]}},{"type":"Feature","properties":{"c":"010211","en":"Soea","km":"សឿ"},"geometry":{"type":"Polygon","coordinates":[[[102.7667,13.4535],[102.7401,13.4441],[102.7333,13.4445],[102.6961,13.4795],[102.6869,13.4795],[102.6881,13.3809],[102.7157,13.3997],[102.7457,13.4117],[102.8493,13.3827],[102.8601,13.3879],[102.9203,13.3681],[102.9215,13.3655],[102.9843,13.3611],[102.9881,13.3789],[102.9915,13.3811],[102.9961,13.3799],[102.9963,13.3989],[102.9797,13.4151],[102.9761,13.4159],[102.9599,13.4077],[102.9523,13.4115],[102.9253,13.4089],[102.9089,13.4225],[102.8405,13.4397],[102.8317,13.4451],[102.7667,13.4535]]]}},{"type":"Feature","properties":{"c":"010212","en":"Srah Reang","km":"ស្រះរាំង"},"geometry":{"type":"Polygon","coordinates":[[[103.1491,13.4927],[103.1329,13.5029],[103.0889,13.5113],[103.0489,13.5071],[103.0601,13.4753],[103.0649,13.4745],[103.1399,13.4811],[103.1427,13.4797],[103.1479,13.4853],[103.1491,13.4927]]]}},{"type":"Feature","properties":{"c":"010213","en":"Ta Lam","km":"តាឡំ"},"geometry":{"type":"Polygon","coordinates":[[[103.1425,13.5249],[103.1465,13.5225],[103.1495,13.5289],[103.1459,13.5303],[103.1467,13.5339],[103.1419,13.5385],[103.1447,13.5417],[103.1407,13.5447],[103.1345,13.5421],[103.1323,13.5447],[103.1211,13.5393],[103.1047,13.5389],[103.1015,13.5337],[103.0815,13.5343],[103.0355,13.5225],[103.0455,13.5081],[103.0489,13.5071],[103.0857,13.5117],[103.1329,13.5029],[103.1491,13.4927],[103.1535,13.4939],[103.1541,13.4979],[103.1503,13.4989],[103.1529,13.5033],[103.1493,13.5057],[103.1517,13.5087],[103.1505,13.5121],[103.1467,13.5131],[103.1489,13.5191],[103.1465,13.5225],[103.1433,13.5219],[103.1425,13.5249]]]}}]}