{"type":"FeatureCollection","features":[{"type":"Feature","properties":{"c":"010301","en":"Nam Tau","km":"ណាំតៅ"},"geometry":{"type":"Polygon","coordinates":[[[103.4407,13.9163],[103.4263,13.9199],[103.4113,13.9285],[103.3931,13.9317],[103.3869,13.9351],[103.3641,13.9651],[103.3329,14.0151],[103.3285,14.0257],[103.2803,13.9691],[103.2913,13.9555],[103.3001,13.9515],[103.3157,13.9507],[103.3295,13.9409],[103.3309,13.9321],[103.3395,13.9227],[103.3431,13.9125],[103.3429,13.8973],[103.3525,13.8741],[103.3373,13.8601],[103.3531,13.8335],[103.3629,13.8325],[103.3719,13.8273],[103.3749,13.8159],[103.3801,13.8117],[103.3897,13.7957],[103.3961,13.7891],[103.4079,13.7845],[103.4141,13.7749],[103.4159,13.7781],[103.4245,13.7791],[103.4257,13.7831],[103.4229,13.7891],[103.4279,13.7931],[103.4275,13.7971],[103.4249,13.7951],[103.4221,13.7969],[103.4309,13.8021],[103.4309,13.8073],[103.4377,13.8119],[103.4409,13.8183],[103.4321,13.8171],[103.4299,13.8205],[103.4319,13.8245],[103.4277,13.8251],[103.4233,13.8345],[103.4257,13.8365],[103.4239,13.8531],[103.4217,13.8563],[103.4237,13.8593],[103.4275,13.8583],[103.4277,13.8653],[103.4307,13.8669],[103.4259,13.8773],[103.4289,13.8801],[103.4331,13.8795],[103.4353,13.8917],[103.4381,13.8911],[103.4423,13.8989],[103.4369,13.9041],[103.4391,13.9065],[103.4369,13.9103],[103.4403,13.9117],[103.4407,13.9163]]]}},{"type":"Feature","properties":{"c":"010306","en":"Phnum Dei","km":"ភ្នំដី"},"geometry":{"type":"Polygon","coordinates":[[[103.4001,13.7881],[103.3917,13.7933],[103.3801,13.8117],[103.3749,13.8159],[103.3719,13.8273],[103.3629,13.8325],[103.3531,13.8335],[103.3479,13.7919],[103.3627,13.7647],[103.3489,13.7477],[103.3437,13.6715],[103.3605,13.6703],[103.3629,13.6805],[103.3607,13.6893],[103.3635,13.6881],[103.3669,13.6939],[103.3649,13.6977],[103.3705,13.7067],[103.3651,13.7107],[103.3679,13.7133],[103.3653,13.7219],[103.3691,13.7265],[103.3813,13.7263],[103.3851,13.7287],[103.3847,13.7325],[103.3801,13.7375],[103.3897,13.7429],[103.3877,13.7529],[103.3939,13.7567],[103.3977,13.7551],[103.4049,13.7699],[103.4001,13.7881]]]}},{"type":"Feature","properties":{"c":"010303","en":"Ponley","km":"ពន្លៃ"},"geometry":{"type":"Polygon","coordinates":[[[103.2597,13.7299],[103.2405,13.7751],[103.2415,13.7941],[103.2541,13.8069],[103.2509,13.8101],[103.2503,13.8353],[103.2379,13.8463],[103.2339,13.8749],[103.2359,13.8923],[103.2451,13.9063],[103.2509,13.9207],[103.2415,13.9301],[103.2233,13.9377],[103.2189,13.9445],[103.2127,13.9481],[103.2073,13.9449],[103.2041,13.9393],[103.2043,13.9293],[103.2183,13.8705],[103.2211,13.8639],[103.2291,13.8599],[103.2325,13.8491],[103.2237,13.8423],[103.2061,13.8389],[103.1831,13.8255],[103.1797,13.7765],[103.1583,13.7491],[103.2585,13.7193],[103.2597,13.7299]]]}},{"type":"Feature","properties":{"c":"010302","en":"Poy Char","km":"ប៉ោយចារ"},"geometry":{"type":"Polygon","coordinates":[[[103.3531,13.8335],[103.3373,13.8601],[103.3525,13.8741],[103.3439,13.8935],[103.3431,13.9125],[103.3395,13.9227],[103.3309,13.9321],[103.3295,13.9409],[103.3263,13.9437],[103.3157,13.9507],[103.3001,13.9515],[103.2913,13.9555],[103.2803,13.9691],[103.2609,13.9535],[103.2127,13.9481],[103.2189,13.9445],[103.2233,13.9377],[103.2415,13.9301],[103.2509,13.9207],[103.2451,13.9063],[103.2359,13.8923],[103.2339,13.8749],[103.2379,13.8463],[103.2503,13.8353],[103.2509,13.8101],[103.2541,13.8069],[103.2415,13.7941],[103.2405,13.7751],[103.2597,13.7299],[103.2659,13.7349],[103.2761,13.7371],[103.2905,13.7525],[103.3029,13.7615],[103.3291,13.7637],[103.3329,13.7665],[103.3479,13.7919],[103.3531,13.8335]]]}},{"type":"Feature","properties":{"c":"010304","en":"Spean Sraeng","km":"ស្ពានស្រែង"},"geometry":{"type":"MultiPolygon","coordinates":[[[[103.4217,13.7295],[103.4277,13.7249],[103.4209,13.7229],[103.4231,13.7159],[103.4217,13.7087],[103.4285,13.7051],[103.4323,13.6965],[103.4379,13.6935],[103.4377,13.6869],[103.4213,13.6747],[103.4135,13.6721],[103.4135,13.6681],[103.4065,13.6637],[103.4061,13.6593],[103.3605,13.6703],[103.3629,13.6805],[103.3607,13.6893],[103.3635,13.6881],[103.3669,13.6939],[103.3649,13.6977],[103.3705,13.7067],[103.3651,13.7107],[103.3679,13.7133],[103.3653,13.7219],[103.3691,13.7265],[103.3813,13.7263],[103.3851,13.7287],[103.3847,13.7325],[103.3801,13.7375],[103.3897,13.7429],[103.3877,13.7529],[103.3939,13.7567],[103.3977,13.7551],[103.4049,13.7699],[103.4001,13.7881],[103.4105,13.7815],[103.4117,13.7719],[103.4153,13.7697],[103.4183,13.7707],[103.4239,13.7657],[103.4243,13.7547],[103.4301,13.7535],[103.4287,13.7499],[103.4217,13.7465],[103.4207,13.7431],[103.4237,13.7437],[103.4229,13.7395],[103.4195,13.7369],[103.4225,13.7337],[103.4217,13.7295]]],[[[103.4251,13.7363],[103.4287,13.7363],[103.4257,13.7331],[103.4225,13.7337],[103.4251,13.7363]]]]}},{"type":"Feature","properties":{"c":"010305","en":"Srah Chik","km":"ស្រះជីក"},"geometry":{"type":"Polygon","coordinates":[[[103.3437,13.6715],[103.3489,13.7477],[103.3627,13.7647],[103.3479,13.7919],[103.3329,13.7665],[103.3291,13.7637],[103.3115,13.7637],[103.2993,13.7593],[103.2761,13.7371],[103.2617,13.7325],[103.2585,13.7193],[103.2795,13.7129],[103.2635,13.6805],[103.2997,13.6609],[103.3083,13.6783],[103.3437,13.6715]]]}}]}