{"type":"FeatureCollection","features":[{"type":"Feature","properties":{"c":"010409","en":"Bos Sbov","km":"បុស្បូវ"},"geometry":{"type":"Polygon","coordinates":[[[103.1409,13.7351],[103.1237,13.7349],[103.0801,13.7421],[103.0549,13.7319],[103.0451,13.7225],[103.0451,13.7015],[103.0275,13.7005],[103.0145,13.6853],[103.0105,13.6715],[103.0079,13.6691],[103.0113,13.6339],[103.0669,13.6357],[103.0687,13.6487],[103.0737,13.6563],[103.0831,13.6603],[103.1233,13.6677],[103.1349,13.6893],[103.1409,13.7351]]]}},{"type":"Feature","properties":{"c":"010401","en":"Chnuor Mean Chey","km":"ឈ្នួរមានជ័យ"},"geometry":{"type":"Polygon","coordinates":[[[103.1165,13.6217],[103.1137,13.6231],[103.1149,13.6263],[103.1247,13.6323],[103.1265,13.6365],[103.1233,13.6677],[103.0831,13.6603],[103.0709,13.6539],[103.0657,13.6267],[103.0859,13.5709],[103.0895,13.5727],[103.1005,13.5689],[103.1019,13.5721],[103.1061,13.5701],[103.1109,13.5907],[103.1165,13.5969],[103.1165,13.6217]]]}},{"type":"Feature","properties":{"c":"010402","en":"Chob Vari","km":"ជប់វារី"},"geometry":{"type":"Polygon","coordinates":[[[103.1999,13.6933],[103.1863,13.6979],[103.1879,13.7163],[103.1823,13.7245],[103.1651,13.7251],[103.1511,13.7197],[103.1457,13.7123],[103.1381,13.7097],[103.1341,13.6863],[103.1233,13.6677],[103.1265,13.6365],[103.1247,13.6323],[103.1149,13.6263],[103.1137,13.6231],[103.1165,13.6217],[103.1289,13.6259],[103.1371,13.6209],[103.1491,13.6247],[103.1607,13.6161],[103.1675,13.6141],[103.1805,13.6213],[103.1865,13.6175],[103.1955,13.6205],[103.1981,13.6233],[103.1959,13.6321],[103.1977,13.6371],[103.2021,13.6397],[103.2109,13.6555],[103.2071,13.6675],[103.2009,13.6771],[103.1999,13.6933]]]}},{"type":"Feature","properties":{"c":"010403","en":"Phnum Lieb","km":"ភ្នំលៀប"},"geometry":{"type":"Polygon","coordinates":[[[103.3507,13.5605],[103.3555,13.5785],[103.3695,13.5931],[103.3733,13.6001],[103.3763,13.6173],[103.3745,13.6215],[103.2957,13.6521],[103.2825,13.6285],[103.2817,13.5921],[103.2737,13.5877],[103.2521,13.5519],[103.2433,13.5415],[103.2369,13.5225],[103.2369,13.5019],[103.2275,13.4951],[103.2265,13.4909],[103.2267,13.4773],[103.2229,13.4609],[103.2243,13.4569],[103.2293,13.4561],[103.2265,13.4527],[103.2325,13.4539],[103.2345,13.4569],[103.2359,13.4537],[103.2395,13.4535],[103.2451,13.4569],[103.2469,13.4529],[103.2509,13.4533],[103.2509,13.4499],[103.2589,13.4489],[103.2569,13.4407],[103.2599,13.4337],[103.2521,13.4327],[103.2509,13.4253],[103.2479,13.4273],[103.2467,13.4243],[103.2513,13.4179],[103.2461,13.4195],[103.2409,13.4189],[103.2393,13.4165],[103.2431,13.4129],[103.2453,13.4047],[103.2515,13.4117],[103.2545,13.4035],[103.2579,13.4027],[103.2507,13.3971],[103.2627,13.3971],[103.2557,13.3911],[103.2575,13.3879],[103.2535,13.3857],[103.2625,13.3837],[103.2787,13.3869],[103.3027,13.3819],[103.3167,13.3833],[103.3141,13.3857],[103.3161,13.4029],[103.3047,13.4065],[103.3075,13.4147],[103.3027,13.4285],[103.3091,13.4437],[103.3079,13.4569],[103.3147,13.4741],[103.3145,13.5209],[103.3239,13.5265],[103.3359,13.5195],[103.3495,13.5161],[103.3513,13.5231],[103.3485,13.5305],[103.3555,13.5403],[103.3557,13.5441],[103.3497,13.5561],[103.3507,13.5605]]]}},{"type":"Feature","properties":{"c":"010404","en":"Prasat","km":"ប្រាសាទ"},"geometry":{"type":"Polygon","coordinates":[[[103.4119,13.5561],[103.3975,13.5559],[103.3833,13.5629],[103.3507,13.5605],[103.3497,13.5561],[103.3557,13.5441],[103.3555,13.5403],[103.3485,13.5305],[103.3513,13.5231],[103.3495,13.5161],[103.3359,13.5195],[103.3239,13.5265],[103.3145,13.5209],[103.3147,13.4741],[103.3079,13.4569],[103.3091,13.4437],[103.3027,13.4285],[103.3075,13.4147],[103.3047,13.4065],[103.3161,13.4029],[103.3141,13.3857],[103.3167,13.3833],[103.3233,13.3809],[103.3577,13.3799],[103.3785,13.3709],[103.3955,13.3585],[103.3989,13.3617],[103.4141,13.3647],[103.4161,13.3683],[103.4119,13.3793],[103.4117,13.3881],[103.4005,13.4085],[103.3945,13.4137],[103.3939,13.4187],[103.3941,13.4239],[103.4007,13.4357],[103.4039,13.4535],[103.4129,13.4619],[103.4139,13.4657],[103.4031,13.4715],[103.4003,13.4757],[103.4025,13.4793],[103.4013,13.4867],[103.4035,13.4893],[103.4039,13.4979],[103.4071,13.4949],[103.4079,13.4991],[103.4121,13.5007],[103.4055,13.5137],[103.4129,13.5207],[103.4137,13.5289],[103.4177,13.5305],[103.4151,13.5337],[103.4153,13.5405],[103.4179,13.5431],[103.4103,13.5515],[103.4119,13.5561]]]}},{"type":"Feature","properties":{"c":"010405","en":"Preak Netr Preah","km":"ព្រះនេត្រព្រះ"},"geometry":{"type":"MultiPolygon","coordinates":[[[[103.1433,13.5219],[103.1425,13.5249],[103.1465,13.5225],[103.1433,13.5219]]],[[[103.1495,13.5289],[103.1459,13.5303],[103.1467,13.5339],[103.1419,13.5385],[103.1447,13.5417],[103.1407,13.5447],[103.1345,13.5421],[103.1309,13.5515],[103.1269,13.5509],[103.1275,13.5557],[103.1211,13.5607],[103.1193,13.5679],[103.1159,13.5661],[103.1061,13.5701],[103.1109,13.5907],[103.1165,13.5969],[103.1165,13.6217],[103.1289,13.6259],[103.1371,13.6209],[103.1491,13.6247],[103.1607,13.6161],[103.1675,13.6141],[103.1763,13.6203],[103.1835,13.6201],[103.1867,13.6139],[103.1807,13.6007],[103.1829,13.5965],[103.2015,13.5983],[103.2069,13.5959],[103.2123,13.5885],[103.2149,13.5729],[103.2045,13.5469],[103.2051,13.5363],[103.1971,13.5309],[103.1923,13.5153],[103.1951,13.5047],[103.2011,13.4993],[103.1997,13.4931],[103.2077,13.4785],[103.2075,13.4715],[103.2051,13.4681],[103.2027,13.4713],[103.2009,13.4679],[103.1963,13.4671],[103.1945,13.4715],[103.1909,13.4709],[103.1893,13.4765],[103.1845,13.4755],[103.1805,13.4769],[103.1789,13.4805],[103.1709,13.4809],[103.1705,13.4843],[103.1593,13.4867],[103.1593,13.4937],[103.1535,13.4939],[103.1541,13.4979],[103.1503,13.4989],[103.1529,13.5033],[103.1493,13.5057],[103.1517,13.5087],[103.1505,13.5121],[103.1467,13.5131],[103.1489,13.5191],[103.1465,13.5225],[103.1495,13.5289]]]]}},{"type":"Feature","properties":{"c":"010406","en":"Rohal","km":"រហាល"},"geometry":{"type":"MultiPolygon","coordinates":[[[[103.2243,13.4569],[103.2211,13.4573],[103.2229,13.4609],[103.2243,13.4569]]],[[[103.2203,13.4643],[103.2173,13.4595],[103.2153,13.4635],[103.2115,13.4609],[103.2079,13.4621],[103.2105,13.4683],[103.2075,13.4715],[103.2077,13.4785],[103.1997,13.4931],[103.2011,13.4993],[103.1951,13.5047],[103.1925,13.5117],[103.1971,13.5309],[103.2051,13.5363],[103.2037,13.5433],[103.2149,13.5729],[103.2147,13.5811],[103.2069,13.5959],[103.2015,13.5983],[103.1829,13.5965],[103.1807,13.6007],[103.1861,13.6107],[103.1865,13.6175],[103.1981,13.6233],[103.1959,13.6321],[103.1977,13.6371],[103.2021,13.6397],[103.2109,13.6555],[103.2071,13.6675],[103.2009,13.6771],[103.1999,13.6933],[103.2359,13.6785],[103.2393,13.6699],[103.2555,13.6675],[103.2635,13.6805],[103.2997,13.6609],[103.2825,13.6285],[103.2817,13.5921],[103.2737,13.5877],[103.2697,13.5823],[103.2399,13.5337],[103.2369,13.5225],[103.2369,13.5019],[103.2275,13.4951],[103.2267,13.4773],[103.2229,13.4609],[103.2203,13.4643]]]]}},{"type":"Feature","properties":{"c":"010407","en":"Tean Kam","km":"ទានកាំ"},"geometry":{"type":"Polygon","coordinates":[[[103.2585,13.7193],[103.1583,13.7491],[103.1409,13.7351],[103.1385,13.7271],[103.1381,13.7097],[103.1457,13.7123],[103.1511,13.7197],[103.1651,13.7251],[103.1823,13.7245],[103.1879,13.7163],[103.1863,13.6979],[103.2359,13.6785],[103.2393,13.6699],[103.2555,13.6675],[103.2795,13.7129],[103.2585,13.7193]]]}},{"type":"Feature","properties":{"c":"010408","en":"Tuek Chour","km":"ទឹកជោរ"},"geometry":{"type":"Polygon","coordinates":[[[103.3437,13.6715],[103.3083,13.6783],[103.2957,13.6521],[103.3745,13.6215],[103.3763,13.6173],[103.3733,13.6001],[103.3695,13.5931],[103.3555,13.5785],[103.3507,13.5605],[103.3833,13.5629],[103.3975,13.5559],[103.4119,13.5561],[103.4137,13.5619],[103.4093,13.5615],[103.4067,13.5635],[103.4085,13.5665],[103.4031,13.5693],[103.4131,13.5711],[103.4153,13.5743],[103.4163,13.5791],[103.4119,13.5765],[103.4081,13.5787],[103.4081,13.5825],[103.4123,13.5833],[103.4047,13.5881],[103.4043,13.5915],[103.4129,13.5943],[103.4141,13.6011],[103.4071,13.6045],[103.4071,13.6117],[103.4017,13.6121],[103.3991,13.6079],[103.3953,13.6093],[103.3979,13.6153],[103.3903,13.6223],[103.3963,13.6257],[103.3973,13.6331],[103.4053,13.6317],[103.4077,13.6335],[103.4047,13.6397],[103.3983,13.6423],[103.3965,13.6461],[103.4017,13.6515],[103.4009,13.6551],[103.4061,13.6593],[103.3605,13.6703],[103.3437,13.6715]]]}}]}