{"type":"FeatureCollection","features":[{"type":"Feature","properties":{"c":"010501","en":"Changha","km":"ចង្ហា"},"geometry":{"type":"Polygon","coordinates":[[[102.9145,13.6649],[102.9137,13.7179],[102.9077,13.7125],[102.8989,13.7107],[102.8887,13.7029],[102.8789,13.6865],[102.8655,13.6791],[102.8569,13.6827],[102.8463,13.6931],[102.8487,13.6717],[102.8519,13.6645],[102.8597,13.6571],[102.8723,13.6513],[102.8755,13.6443],[102.8711,13.6309],[102.8563,13.6165],[102.8487,13.6047],[102.8637,13.6011],[102.8567,13.5859],[102.8697,13.5845],[102.8707,13.5981],[102.8859,13.6111],[102.8929,13.6121],[102.9095,13.6077],[102.9185,13.6105],[102.9215,13.6075],[102.9245,13.6085],[102.9275,13.6169],[102.9283,13.6353],[102.9147,13.6503],[102.9145,13.6649]]]}},{"type":"Feature","properties":{"c":"010502","en":"Koub","km":"កូប"},"geometry":{"type":"Polygon","coordinates":[[[102.7593,13.6797],[102.7427,13.6903],[102.7383,13.6961],[102.7229,13.6959],[102.7259,13.6747],[102.7441,13.6587],[102.7471,13.6291],[102.7573,13.6195],[102.7543,13.5997],[102.7855,13.5979],[102.7809,13.5583],[102.7777,13.5485],[102.8099,13.5591],[102.8119,13.5661],[102.8091,13.5765],[102.8101,13.5857],[102.8409,13.5749],[102.8485,13.5747],[102.8567,13.5859],[102.8637,13.6011],[102.7915,13.6205],[102.7883,13.6319],[102.7903,13.6441],[102.7593,13.6797]]]}},{"type":"Feature","properties":{"c":"010503","en":"Kuttasat","km":"គុត្ដសត"},"geometry":{"type":"Polygon","coordinates":[[[102.7777,13.5485],[102.7809,13.5583],[102.7855,13.5979],[102.7321,13.5993],[102.7209,13.5879],[102.7229,13.5775],[102.7173,13.5695],[102.7219,13.5641],[102.7261,13.5633],[102.7407,13.5293],[102.7483,13.5265],[102.7613,13.5161],[102.7619,13.5117],[102.7701,13.5211],[102.7713,13.5333],[102.7777,13.5485]]]}},{"type":"Feature","properties":{"c":"010509","en":"Ou Beichoan","km":"អូរបីជាន់"},"geometry":{"type":"Polygon","coordinates":[[[102.7769,13.7615],[102.7487,13.7687],[102.7483,13.8233],[102.7417,13.8235],[102.7233,13.7933],[102.7239,13.7905],[102.7313,13.7859],[102.7321,13.7757],[102.7165,13.7741],[102.6887,13.7521],[102.6793,13.7499],[102.6557,13.7375],[102.6565,13.7229],[102.7121,13.7235],[102.7127,13.6963],[102.7383,13.6961],[102.7427,13.6903],[102.7593,13.6797],[102.7771,13.6947],[102.7769,13.7615]]]}},{"type":"Feature","properties":{"c":"010505","en":"Samraong","km":"សំរោង"},"geometry":{"type":"Polygon","coordinates":[[[102.8697,13.5845],[102.8567,13.5859],[102.8457,13.5737],[102.8101,13.5857],[102.8091,13.5765],[102.8119,13.5661],[102.8099,13.5591],[102.7777,13.5485],[102.7713,13.5333],[102.7701,13.5211],[102.7619,13.5117],[102.7621,13.5075],[102.7793,13.4967],[102.7879,13.4969],[102.8003,13.4909],[102.8039,13.4915],[102.8105,13.4991],[102.8171,13.4987],[102.8301,13.4857],[102.8467,13.4857],[102.8509,13.4881],[102.8513,13.4933],[102.8581,13.4947],[102.8649,13.4921],[102.8749,13.4933],[102.8759,13.4997],[102.8831,13.5049],[102.8833,13.5087],[102.8775,13.5159],[102.8781,13.5351],[102.8695,13.5443],[102.8697,13.5845]]]}},{"type":"Feature","properties":{"c":"010507","en":"Soengh","km":"សឹង្ហ"},"geometry":{"type":"Polygon","coordinates":[[[102.9137,13.7179],[102.9135,13.7407],[102.8691,13.7407],[102.8439,13.7519],[102.8173,13.7537],[102.7769,13.7615],[102.7771,13.6947],[102.7827,13.6883],[102.8055,13.6865],[102.8207,13.6997],[102.8323,13.7021],[102.8393,13.6999],[102.8569,13.6827],[102.8655,13.6791],[102.8789,13.6865],[102.8887,13.7029],[102.8989,13.7107],[102.9077,13.7125],[102.9137,13.7179]]]}},{"type":"Feature","properties":{"c":"010506","en":"Souphi","km":"សូភី"},"geometry":{"type":"Polygon","coordinates":[[[102.8463,13.6931],[102.8393,13.6999],[102.8323,13.7021],[102.8207,13.6997],[102.8055,13.6865],[102.7827,13.6883],[102.7771,13.6947],[102.7593,13.6797],[102.7903,13.6441],[102.7883,13.6319],[102.7915,13.6205],[102.8487,13.6047],[102.8563,13.6165],[102.8711,13.6309],[102.8745,13.6387],[102.8745,13.6487],[102.8597,13.6571],[102.8519,13.6645],[102.8487,13.6717],[102.8463,13.6931]]]}}]}