{"type":"FeatureCollection","features":[{"type":"Feature","properties":{"c":"010602","en":"Kampong Svay","km":"សង្កាត់កំពង់ស្វាយ"},"geometry":{"type":"Polygon","coordinates":[[[103.0093,13.6497],[102.9625,13.6393],[102.9427,13.6411],[102.9145,13.6649],[102.9147,13.6503],[102.9283,13.6353],[102.9275,13.6169],[102.9245,13.6085],[102.9513,13.6075],[102.9703,13.5895],[103.0025,13.6161],[103.0131,13.6183],[103.0093,13.6497]]]}},{"type":"Feature","properties":{"c":"010603","en":"Kaoh Pong Satv","km":"សង្កាត់កោះពងសត្វ"},"geometry":{"type":"MultiPolygon","coordinates":[[[[103.0731,13.5717],[103.0739,13.5751],[103.0789,13.5713],[103.0739,13.5689],[103.0699,13.5701],[103.0731,13.5717]]],[[[103.0663,13.5685],[102.9999,13.5653],[102.9997,13.5921],[103.0081,13.5921],[103.0079,13.5889],[103.0137,13.5855],[103.0165,13.5921],[103.0193,13.5889],[103.0261,13.5883],[103.0273,13.5837],[103.0331,13.5891],[103.0397,13.5855],[103.0473,13.5881],[103.0515,13.5815],[103.0589,13.5815],[103.0621,13.5729],[103.0697,13.5739],[103.0699,13.5701],[103.0663,13.5685]]]]}},{"type":"Feature","properties":{"c":"010604","en":"Mkak","km":"សង្កាត់ម្កាក់"},"geometry":{"type":"Polygon","coordinates":[[[103.0155,13.7001],[102.9963,13.6991],[102.9137,13.7179],[102.9145,13.6649],[102.9427,13.6411],[102.9625,13.6393],[103.0093,13.6497],[103.0079,13.6691],[103.0105,13.6715],[103.0145,13.6853],[103.0275,13.7005],[103.0155,13.7001]]]}},{"type":"Feature","properties":{"c":"010605","en":"Ou Ambel","km":"សង្កាត់អូរអំបិល"},"geometry":{"type":"Polygon","coordinates":[[[102.9703,13.5895],[102.9513,13.6075],[102.9523,13.5711],[102.9563,13.5693],[102.9583,13.5579],[102.9149,13.5681],[102.9109,13.5663],[102.8977,13.5501],[102.8887,13.5473],[102.8753,13.5383],[102.8781,13.5351],[102.8775,13.5159],[102.8793,13.5125],[102.8833,13.5087],[102.8879,13.5167],[102.9047,13.5329],[102.9125,13.5335],[102.9347,13.5459],[102.9499,13.5501],[102.9725,13.5517],[102.9737,13.5749],[102.9771,13.5767],[102.9733,13.5801],[102.9739,13.5881],[102.9703,13.5895]]]}},{"type":"Feature","properties":{"c":"010606","en":"Phniet","km":"សង្កាត់ភ្នៀត"},"geometry":{"type":"Polygon","coordinates":[[[103.0657,13.6267],[103.0669,13.6357],[103.0113,13.6339],[103.0137,13.6133],[103.0057,13.6109],[102.9959,13.6015],[102.9955,13.5975],[102.9997,13.5921],[103.0081,13.5921],[103.0079,13.5889],[103.0137,13.5855],[103.0165,13.5921],[103.0193,13.5889],[103.0261,13.5883],[103.0273,13.5837],[103.0331,13.5891],[103.0397,13.5855],[103.0473,13.5881],[103.0515,13.5815],[103.0589,13.5815],[103.0621,13.5729],[103.0697,13.5739],[103.0699,13.5701],[103.0731,13.5717],[103.0739,13.5751],[103.0789,13.5713],[103.0837,13.5737],[103.0657,13.6267]]]}},{"type":"Feature","properties":{"c":"010607","en":"Preah Ponlea","km":"សង្កាត់ព្រះពន្លា"},"geometry":{"type":"Polygon","coordinates":[[[102.9997,13.5921],[102.9955,13.5975],[102.9959,13.6015],[103.0057,13.6109],[103.0137,13.6133],[103.0131,13.6183],[103.0025,13.6161],[102.9703,13.5895],[102.9739,13.5881],[102.9733,13.5801],[102.9771,13.5767],[102.9737,13.5749],[102.9725,13.5517],[102.9869,13.5523],[102.9843,13.5643],[102.9999,13.5653],[102.9997,13.5921]]]}},{"type":"Feature","properties":{"c":"010608","en":"Tuek Thla","km":"សង្កាត់ទឹកថ្លា"},"geometry":{"type":"Polygon","coordinates":[[[102.9215,13.6075],[102.9185,13.6105],[102.9095,13.6077],[102.8897,13.6123],[102.8781,13.6063],[102.8707,13.5981],[102.8695,13.5443],[102.8753,13.5383],[102.8887,13.5473],[102.8977,13.5501],[102.9083,13.5647],[102.9149,13.5681],[102.9583,13.5579],[102.9563,13.5693],[102.9523,13.5711],[102.9513,13.6075],[102.9215,13.6075]]]}}]}