{"type":"FeatureCollection","features":[{"type":"Feature","properties":{"c":"010701","en":"Banteay Chhmar","km":"បន្ទាយឆ្មារ"},"geometry":{"type":"Polygon","coordinates":[[[103.1861,14.1069],[103.1753,14.1069],[103.1643,14.1121],[103.1581,14.1087],[103.1519,14.1119],[103.1431,14.1087],[103.1305,14.1119],[103.1243,14.1101],[103.1113,14.1163],[103.0827,14.1411],[103.0761,14.1635],[103.0319,14.2503],[103.0325,14.2387],[103.0227,14.2293],[103.0143,14.2313],[103.0001,14.2151],[102.9837,14.2143],[102.9711,14.2105],[102.9621,14.2119],[102.9519,14.2061],[102.9567,14.1977],[102.9531,14.1963],[102.9455,14.1985],[102.9391,14.1947],[102.9407,14.1863],[102.9305,14.1767],[102.9365,14.1669],[102.9407,14.1497],[102.9249,14.1311],[102.9233,14.1071],[102.9141,14.0979],[102.9083,14.0953],[102.9015,14.0833],[102.9017,14.0667],[102.8977,14.0539],[102.9009,14.0439],[102.9947,14.0391],[103.0167,14.0399],[103.0749,14.0245],[103.1291,14.0251],[103.1641,14.0171],[103.1837,14.0083],[103.1929,14.0233],[103.1957,14.0361],[103.1945,14.0419],[103.1869,14.0505],[103.1869,14.0545],[103.2003,14.0687],[103.2003,14.0837],[103.2063,14.0935],[103.2103,14.1093],[103.1861,14.1069]]]}},{"type":"Feature","properties":{"c":"010705","en":"Kouk Kakthen","km":"គោកកឋិន"},"geometry":{"type":"Polygon","coordinates":[[[103.2041,13.9393],[103.1981,13.9499],[103.1277,13.9363],[103.1235,13.9205],[103.1197,13.9153],[103.0923,13.8911],[103.0865,13.8705],[103.0639,13.8551],[103.0549,13.8351],[103.0517,13.8331],[103.0533,13.8195],[103.0597,13.8173],[103.0653,13.8247],[103.0745,13.8213],[103.0839,13.8227],[103.0895,13.8401],[103.0997,13.8383],[103.1033,13.8479],[103.1137,13.8419],[103.1273,13.8511],[103.1341,13.8451],[103.1471,13.8439],[103.1581,13.8529],[103.1667,13.8565],[103.1859,13.8609],[103.2211,13.8639],[103.2137,13.8861],[103.2043,13.9293],[103.2041,13.9393]]]}},{"type":"Feature","properties":{"c":"010702","en":"Kouk Romiet","km":"គោករមៀត"},"geometry":{"type":"Polygon","coordinates":[[[102.9947,14.0391],[102.9009,14.0439],[102.9107,14.0171],[102.9017,14.0157],[102.8941,14.0079],[102.8843,14.0099],[102.8801,14.0043],[102.8653,14.0027],[102.8497,13.9869],[102.8157,13.9655],[102.8115,13.9539],[102.8039,13.9441],[102.7829,13.9329],[102.9259,13.9327],[102.9569,13.9283],[102.9645,13.9189],[102.9735,13.8917],[102.9823,13.8819],[102.9971,13.8803],[103.0011,13.8841],[103.0089,13.8851],[103.0135,13.8981],[103.0389,13.9217],[103.0367,13.9241],[103.0371,13.9291],[103.0315,13.9351],[103.0219,13.9389],[103.0059,13.9381],[102.9977,13.9507],[102.9911,13.9515],[102.9845,13.9565],[102.9841,13.9679],[102.9997,13.9711],[103.0049,13.9765],[103.0031,13.9955],[102.9995,14.0035],[103.0003,14.0211],[102.9947,14.0391]]]}},{"type":"Feature","properties":{"c":"010706","en":"Kumru","km":"គំរូ"},"geometry":{"type":"Polygon","coordinates":[[[103.0721,14.0251],[103.0167,14.0399],[102.9947,14.0391],[103.0003,14.0211],[102.9995,14.0035],[103.0031,13.9955],[103.0049,13.9765],[102.9997,13.9711],[102.9841,13.9679],[102.9845,13.9565],[102.9911,13.9515],[102.9977,13.9507],[103.0059,13.9381],[103.0219,13.9389],[103.0315,13.9351],[103.0371,13.9291],[103.0367,13.9241],[103.0389,13.9217],[103.0493,13.9333],[103.0487,13.9655],[103.0655,14.0011],[103.0679,14.0163],[103.0721,14.0251]]]}},{"type":"Feature","properties":{"c":"010703","en":"Phum Thmei","km":"ភូមិថ្មី"},"geometry":{"type":"Polygon","coordinates":[[[103.0517,13.8331],[103.0549,13.8351],[103.0639,13.8551],[103.0865,13.8705],[103.0923,13.8911],[103.1219,13.9181],[103.1277,13.9363],[103.0479,13.9203],[103.0389,13.9217],[103.0135,13.8981],[103.0089,13.8851],[103.0141,13.8761],[103.0303,13.8647],[103.0491,13.8581],[103.0517,13.8331]]]}},{"type":"Feature","properties":{"c":"010704","en":"Thma Puok","km":"ថ្មពួក"},"geometry":{"type":"Polygon","coordinates":[[[103.1837,14.0083],[103.1641,14.0171],[103.1291,14.0251],[103.0721,14.0251],[103.0679,14.0163],[103.0655,14.0011],[103.0487,13.9655],[103.0493,13.9333],[103.0389,13.9217],[103.0479,13.9203],[103.0747,13.9267],[103.0849,13.9267],[103.0939,13.9305],[103.1981,13.9499],[103.1711,13.9937],[103.1715,14.0009],[103.1837,14.0083]]]}}]}