{"type":"FeatureCollection","features":[{"type":"Feature","properties":{"c":"010801","en":"Phkoam","km":"ផ្គាំ"},"geometry":{"type":"Polygon","coordinates":[[[103.2211,13.8639],[103.1859,13.8609],[103.1667,13.8565],[103.1581,13.8529],[103.1471,13.8439],[103.1341,13.8451],[103.1273,13.8511],[103.1137,13.8419],[103.1033,13.8479],[103.0997,13.8383],[103.0895,13.8401],[103.0817,13.8083],[103.0973,13.8039],[103.1011,13.7957],[103.1075,13.7955],[103.1089,13.7809],[103.1253,13.7805],[103.1263,13.7857],[103.1355,13.7865],[103.1465,13.7813],[103.1509,13.7835],[103.1605,13.7757],[103.1561,13.7729],[103.1561,13.7673],[103.1669,13.7619],[103.1797,13.7765],[103.1831,13.8255],[103.2061,13.8389],[103.2237,13.8423],[103.2325,13.8491],[103.2291,13.8599],[103.2211,13.8639]]]}},{"type":"Feature","properties":{"c":"010808","en":"Roluos","km":"រលួស"},"geometry":{"type":"Polygon","coordinates":[[[103.0049,13.8071],[103.0051,13.8171],[103.0023,13.8225],[103.0049,13.8345],[102.9909,13.8381],[102.9863,13.8363],[102.9703,13.8143],[102.9665,13.8129],[102.9597,13.7971],[102.9463,13.7909],[102.9459,13.7823],[102.9665,13.7811],[102.9739,13.7901],[102.9781,13.7913],[102.9931,13.7767],[103.0165,13.7643],[103.0173,13.7791],[103.0085,13.7845],[103.0067,13.7881],[103.0049,13.8071]]]}},{"type":"Feature","properties":{"c":"010802","en":"Sarongk","km":"សារង្គ"},"geometry":{"type":"Polygon","coordinates":[[[103.1669,13.7619],[103.1561,13.7673],[103.1561,13.7729],[103.1605,13.7757],[103.1509,13.7835],[103.1465,13.7813],[103.1355,13.7865],[103.1263,13.7857],[103.1253,13.7805],[103.1089,13.7809],[103.1075,13.7955],[103.1011,13.7957],[103.0973,13.8039],[103.0941,13.8013],[103.0909,13.7883],[103.0883,13.7913],[103.0841,13.7907],[103.0755,13.7853],[103.0821,13.7627],[103.0801,13.7421],[103.0885,13.7397],[103.1379,13.7339],[103.1555,13.7463],[103.1651,13.7567],[103.1669,13.7619]]]}},{"type":"Feature","properties":{"c":"010803","en":"Sla Kram","km":"ស្លក្រាម"},"geometry":{"type":"Polygon","coordinates":[[[102.8217,13.8099],[102.8169,13.8091],[102.8081,13.8023],[102.7947,13.7981],[102.7857,13.8055],[102.7863,13.8155],[102.7735,13.8179],[102.7637,13.8251],[102.7601,13.8243],[102.7529,13.8297],[102.7499,13.8359],[102.7417,13.8235],[102.7483,13.8233],[102.7487,13.7687],[102.8173,13.7537],[102.8439,13.7519],[102.8691,13.7407],[102.9135,13.7407],[102.9137,13.7179],[102.9963,13.6991],[103.0155,13.7001],[103.0169,13.7075],[103.0147,13.7163],[103.0219,13.7343],[103.0201,13.7381],[103.0223,13.7455],[103.0083,13.7475],[102.9957,13.7445],[102.9819,13.7501],[102.9765,13.7549],[102.9659,13.7533],[102.9523,13.7563],[102.9515,13.7603],[102.9337,13.7619],[102.9311,13.7783],[102.9159,13.7867],[102.9115,13.7947],[102.9071,13.7969],[102.8899,13.7979],[102.8761,13.7879],[102.8603,13.7893],[102.8429,13.8059],[102.8305,13.8099],[102.8217,13.8099]]]}},{"type":"Feature","properties":{"c":"010804","en":"Svay Chek","km":"ស្វាយចេក"},"geometry":{"type":"Polygon","coordinates":[[[102.8193,13.9325],[102.7829,13.9329],[102.7663,13.8565],[102.7561,13.8467],[102.7499,13.8359],[102.7529,13.8297],[102.7735,13.8179],[102.7863,13.8155],[102.7857,13.8055],[102.7947,13.7981],[102.8081,13.8023],[102.8169,13.8091],[102.8305,13.8099],[102.8471,13.8035],[102.8523,13.7951],[102.8603,13.7893],[102.8761,13.7879],[102.8899,13.7979],[102.9071,13.7969],[102.9115,13.7947],[102.9159,13.7867],[102.9279,13.7797],[102.9379,13.7765],[102.9457,13.7783],[102.9463,13.7909],[102.9597,13.7971],[102.9665,13.8129],[102.9703,13.8143],[102.9833,13.8329],[102.9807,13.8355],[102.9803,13.8427],[102.9771,13.8457],[102.9705,13.8451],[102.9715,13.8481],[102.9669,13.8527],[102.9629,13.8529],[102.9559,13.8477],[102.9501,13.8643],[102.9289,13.8711],[102.9131,13.8669],[102.8987,13.8753],[102.8953,13.8805],[102.8873,13.8831],[102.8809,13.8831],[102.8647,13.8575],[102.8541,13.8579],[102.8333,13.8731],[102.8309,13.8811],[102.8221,13.8883],[102.8157,13.8987],[102.8127,13.9129],[102.8193,13.9325]]]}},{"type":"Feature","properties":{"c":"010805","en":"Ta Baen","km":"តាបែន"},"geometry":{"type":"Polygon","coordinates":[[[103.0165,13.7643],[102.9931,13.7767],[102.9781,13.7913],[102.9739,13.7901],[102.9665,13.7811],[102.9459,13.7823],[102.9457,13.7783],[102.9419,13.7765],[102.9311,13.7783],[102.9337,13.7619],[102.9515,13.7603],[102.9523,13.7563],[102.9659,13.7533],[102.9765,13.7549],[102.9819,13.7501],[102.9957,13.7445],[103.0083,13.7475],[103.0223,13.7455],[103.0219,13.7599],[103.0165,13.7643]]]}},{"type":"Feature","properties":{"c":"010806","en":"Ta Phou","km":"តាផូ"},"geometry":{"type":"Polygon","coordinates":[[[103.0839,13.8227],[103.0745,13.8213],[103.0653,13.8247],[103.0597,13.8173],[103.0533,13.8195],[103.0411,13.8171],[103.0365,13.8195],[103.0319,13.8187],[103.0049,13.8071],[103.0067,13.7881],[103.0085,13.7845],[103.0173,13.7791],[103.0165,13.7643],[103.0219,13.7599],[103.0211,13.7517],[103.0231,13.7495],[103.0201,13.7381],[103.0219,13.7343],[103.0147,13.7163],[103.0169,13.7075],[103.0155,13.7001],[103.0451,13.7015],[103.0451,13.7225],[103.0597,13.7351],[103.0801,13.7421],[103.0821,13.7627],[103.0755,13.7853],[103.0841,13.7907],[103.0883,13.7913],[103.0909,13.7883],[103.0941,13.8013],[103.0973,13.8039],[103.0817,13.8083],[103.0849,13.8161],[103.0839,13.8227]]]}},{"type":"Feature","properties":{"c":"010807","en":"Treas","km":"ទ្រាស"},"geometry":{"type":"Polygon","coordinates":[[[103.0089,13.8851],[103.0011,13.8841],[102.9971,13.8803],[102.9823,13.8819],[102.9735,13.8917],[102.9645,13.9189],[102.9569,13.9283],[102.9445,13.9287],[102.9381,13.9313],[102.8193,13.9325],[102.8127,13.9129],[102.8157,13.8987],[102.8221,13.8883],[102.8309,13.8811],[102.8333,13.8731],[102.8541,13.8579],[102.8647,13.8575],[102.8809,13.8831],[102.8907,13.8827],[102.9031,13.8721],[102.9131,13.8669],[102.9289,13.8711],[102.9501,13.8643],[102.9559,13.8477],[102.9629,13.8529],[102.9669,13.8527],[102.9715,13.8481],[102.9705,13.8451],[102.9771,13.8457],[102.9803,13.8427],[102.9807,13.8355],[102.9833,13.8329],[102.9909,13.8381],[103.0049,13.8345],[103.0023,13.8225],[103.0051,13.8171],[103.0049,13.8071],[103.0319,13.8187],[103.0365,13.8195],[103.0411,13.8171],[103.0533,13.8195],[103.0491,13.8581],[103.0333,13.8633],[103.0195,13.8713],[103.0089,13.8851]]]}}]}