{"type":"FeatureCollection","features":[{"type":"Feature","properties":{"c":"010901","en":"Boeng Beng","km":"បឹងបេង"},"geometry":{"type":"Polygon","coordinates":[[[102.3905,13.4765],[102.3889,13.5221],[102.3633,13.5465],[102.3511,13.5625],[102.3413,13.5593],[102.3387,13.5559],[102.3349,13.5379],[102.3447,13.5307],[102.3629,13.5057],[102.3607,13.5027],[102.3619,13.4919],[102.3573,13.4757],[102.3905,13.4765]]]}},{"type":"Feature","properties":{"c":"010902","en":"Malai","km":"ម៉ាឡៃ"},"geometry":{"type":"Polygon","coordinates":[[[102.3913,13.5679],[102.3759,13.5775],[102.3725,13.5759],[102.3685,13.5775],[102.3645,13.5761],[102.3581,13.5657],[102.3511,13.5625],[102.3633,13.5465],[102.3889,13.5221],[102.3905,13.4765],[102.4203,13.4785],[102.4169,13.4985],[102.4101,13.5183],[102.3983,13.5403],[102.3913,13.5679]]]}},{"type":"Feature","properties":{"c":"010903","en":"Ou Sampoar","km":"អូរសំព័រ"},"geometry":{"type":"Polygon","coordinates":[[[102.5073,13.5687],[102.4799,13.5717],[102.4749,13.5677],[102.4597,13.5627],[102.4449,13.5623],[102.4633,13.5113],[102.4637,13.4771],[102.5947,13.4785],[102.5603,13.4975],[102.5289,13.5265],[102.5197,13.5409],[102.5185,13.5477],[102.5073,13.5687]]]}},{"type":"Feature","properties":{"c":"010904","en":"Ou Sralau","km":"អូរស្រឡៅ"},"geometry":{"type":"Polygon","coordinates":[[[102.4449,13.5623],[102.4387,13.5603],[102.4325,13.5621],[102.4243,13.5695],[102.4193,13.5709],[102.4093,13.5675],[102.3913,13.5679],[102.3983,13.5403],[102.4101,13.5183],[102.4169,13.4985],[102.4203,13.4785],[102.4637,13.4771],[102.4633,13.5113],[102.4449,13.5623]]]}},{"type":"Feature","properties":{"c":"010906","en":"Ta Kong","km":"តាគង់"},"geometry":{"type":"Polygon","coordinates":[[[102.7173,13.5695],[102.7147,13.5733],[102.7085,13.5755],[102.7005,13.5669],[102.6899,13.5627],[102.6669,13.5621],[102.6631,13.5685],[102.6313,13.5609],[102.6937,13.4819],[102.7333,13.4445],[102.7401,13.4441],[102.7523,13.4499],[102.7713,13.4547],[102.8107,13.4727],[102.8229,13.4761],[102.8301,13.4857],[102.8171,13.4987],[102.8105,13.4991],[102.8039,13.4915],[102.8003,13.4909],[102.7879,13.4969],[102.7793,13.4967],[102.7621,13.5075],[102.7613,13.5161],[102.7483,13.5265],[102.7407,13.5293],[102.7261,13.5633],[102.7219,13.5641],[102.7173,13.5695]]]}},{"type":"Feature","properties":{"c":"010905","en":"Tuol Pongro","km":"ទួលពង្រ"},"geometry":{"type":"Polygon","coordinates":[[[102.6261,13.6073],[102.6143,13.6081],[102.6113,13.6057],[102.5947,13.6083],[102.5809,13.6061],[102.5749,13.6037],[102.5705,13.5947],[102.5701,13.5867],[102.5625,13.5793],[102.5463,13.5755],[102.5353,13.5671],[102.5253,13.5653],[102.5073,13.5687],[102.5185,13.5477],[102.5197,13.5409],[102.5289,13.5265],[102.5603,13.4975],[102.5947,13.4785],[102.6961,13.4795],[102.6313,13.5609],[102.6297,13.6045],[102.6261,13.6073]]]}}]}