{"type":"FeatureCollection","features":[{"type":"Feature","properties":{"c":"011001","en":"Nimitt","km":"សង្កាត់និមិត្ដ"},"geometry":{"type":"Polygon","coordinates":[[[102.7229,13.6959],[102.7127,13.6963],[102.7121,13.7235],[102.6565,13.7229],[102.6355,13.6009],[102.6297,13.6045],[102.6313,13.5609],[102.6631,13.5685],[102.6669,13.5621],[102.6899,13.5627],[102.7005,13.5669],[102.7085,13.5755],[102.7147,13.5733],[102.7173,13.5695],[102.7229,13.5775],[102.7209,13.5879],[102.7291,13.5971],[102.7321,13.5993],[102.7543,13.5997],[102.7573,13.6195],[102.7471,13.6291],[102.7441,13.6587],[102.7259,13.6747],[102.7229,13.6959]]]}},{"type":"Feature","properties":{"c":"011002","en":"Paoy Paet","km":"សង្កាត់ប៉ោយប៉ែត"},"geometry":{"type":"Polygon","coordinates":[[[102.5991,13.7073],[102.5917,13.7071],[102.5815,13.7007],[102.5775,13.6949],[102.5685,13.6903],[102.5631,13.6839],[102.5489,13.6597],[102.5581,13.6493],[102.5681,13.6447],[102.5761,13.6519],[102.5807,13.6675],[102.5975,13.6685],[102.5987,13.6825],[102.6103,13.6889],[102.6103,13.6919],[102.5991,13.7073]]]}},{"type":"Feature","properties":{"c":"011003","en":"Phsar Kandal","km":"សង្កាត់ផ្សារកណ្តាល"},"geometry":{"type":"Polygon","coordinates":[[[102.6565,13.7229],[102.6557,13.7375],[102.5991,13.7073],[102.6103,13.6919],[102.6103,13.6889],[102.5987,13.6825],[102.5975,13.6685],[102.5807,13.6675],[102.5761,13.6519],[102.5681,13.6447],[102.5737,13.6323],[102.5775,13.6297],[102.5875,13.6287],[102.6067,13.6171],[102.6215,13.6129],[102.6355,13.6009],[102.6565,13.7229]]]}}]}