{"type":"FeatureCollection","features":[{"type":"Feature","properties":{"c":"020103","en":"Bay Damram","km":"បាយដំរាំ"},"geometry":{"type":"Polygon","coordinates":[[[103.1695,13.0005],[103.1665,12.9973],[103.1633,13.0035],[103.1611,13.0015],[103.1625,12.9955],[103.1567,12.9883],[103.1445,12.9819],[103.1459,12.9783],[103.1517,12.9783],[103.1483,12.9613],[103.1785,12.9315],[103.1817,12.9273],[103.1811,12.9205],[103.1967,12.9215],[103.2197,12.9315],[103.2213,12.9509],[103.2099,12.9479],[103.1973,12.9983],[103.1695,13.0005]]]}},{"type":"Feature","properties":{"c":"020105","en":"Chaeng Mean Chey","km":"ចែងមានជ័យ"},"geometry":{"type":"Polygon","coordinates":[[[103.1169,12.8821],[103.0919,12.9117],[103.0443,12.8615],[103.0303,12.8399],[103.0401,12.7707],[103.1165,12.8083],[103.1175,12.8165],[103.1265,12.8233],[103.1397,12.8497],[103.1405,12.8577],[103.1375,12.8689],[103.1261,12.8711],[103.1169,12.8821]]]}},{"type":"Feature","properties":{"c":"020104","en":"Chheu Teal","km":"ឈើទាល"},"geometry":{"type":"Polygon","coordinates":[[[103.1905,13.0331],[103.1601,13.0349],[103.1469,13.0311],[103.1171,13.0165],[103.1153,12.9771],[103.1047,12.9495],[103.1223,12.9519],[103.1333,12.9593],[103.1463,12.9565],[103.1517,12.9783],[103.1459,12.9783],[103.1445,12.9819],[103.1567,12.9883],[103.1625,12.9955],[103.1611,13.0015],[103.1633,13.0035],[103.1665,12.9973],[103.1695,13.0005],[103.1653,13.0067],[103.1581,13.0091],[103.1639,13.0135],[103.1621,13.0171],[103.1661,13.0171],[103.1677,13.0113],[103.1711,13.0109],[103.1745,13.0251],[103.1837,13.0279],[103.1875,13.0263],[103.1903,13.0289],[103.1905,13.0331]]]}},{"type":"Feature","properties":{"c":"020101","en":"Kantueu Muoy","km":"កន្ទឺ ១"},"geometry":{"type":"Polygon","coordinates":[[[103.2209,12.8925],[103.2197,12.9315],[103.1895,12.9203],[103.1811,12.9205],[103.1529,12.9309],[103.1431,12.9233],[103.1419,12.9199],[103.1349,12.9181],[103.1269,12.9059],[103.1169,12.8821],[103.1261,12.8711],[103.1375,12.8689],[103.1405,12.8577],[103.1397,12.8497],[103.1265,12.8233],[103.1175,12.8165],[103.1165,12.8083],[103.1673,12.8321],[103.2209,12.8925]]]}},{"type":"Feature","properties":{"c":"020102","en":"Kantueu Pir","km":"កន្ទឺ ២"},"geometry":{"type":"Polygon","coordinates":[[[103.1811,12.9205],[103.1817,12.9273],[103.1785,12.9315],[103.1483,12.9613],[103.1463,12.9565],[103.1333,12.9593],[103.1249,12.9549],[103.1185,12.9409],[103.0919,12.9117],[103.1169,12.8821],[103.1269,12.9059],[103.1349,12.9181],[103.1419,12.9199],[103.1431,12.9233],[103.1529,12.9309],[103.1811,12.9205]]]}},{"type":"Feature","properties":{"c":"020106","en":"Phnum Sampov","km":"ភ្នំសំពៅ"},"geometry":{"type":"Polygon","coordinates":[[[103.1411,13.0515],[103.1313,13.0455],[103.1255,13.0525],[103.0849,13.0513],[103.0763,13.0497],[103.0589,13.0401],[103.0383,13.0393],[103.0169,13.0345],[103.0043,13.0299],[102.9999,13.0255],[103.0237,13.0147],[103.0513,13.0135],[103.0691,13.0017],[103.0673,12.9989],[103.0695,12.9957],[103.1153,12.9771],[103.1171,13.0165],[103.1469,13.0311],[103.1411,13.0515]]]}},{"type":"Feature","properties":{"c":"020107","en":"Snoeng","km":"ស្នឹង"},"geometry":{"type":"Polygon","coordinates":[[[102.9999,13.0255],[102.9215,13.0253],[102.8455,13.0017],[102.8617,12.9657],[102.9591,12.9495],[102.9571,12.9421],[102.9963,12.9295],[103.0025,12.9239],[103.0443,12.8615],[103.1153,12.9367],[103.1223,12.9519],[103.1047,12.9495],[103.1153,12.9771],[103.0695,12.9957],[103.0673,12.9989],[103.0691,13.0017],[103.0513,13.0135],[103.0237,13.0147],[102.9999,13.0255]]]}},{"type":"Feature","properties":{"c":"020108","en":"Ta Kream","km":"តាគ្រាម"},"geometry":{"type":"Polygon","coordinates":[[[103.0429,13.1333],[103.0295,13.1351],[102.9057,13.1357],[102.9037,13.1273],[102.9061,13.1165],[102.9251,13.0827],[102.9267,13.0755],[102.8291,13.0379],[102.8455,13.0017],[102.9215,13.0253],[102.9999,13.0255],[103.0043,13.0299],[103.0169,13.0345],[103.0383,13.0393],[103.0589,13.0401],[103.0763,13.0497],[103.0849,13.0513],[103.0807,13.0863],[103.0735,13.0867],[103.0719,13.0943],[103.0587,13.0957],[103.0475,13.1011],[103.0413,13.1069],[103.0383,13.1251],[103.0429,13.1333]]]}}]}