{"type":"FeatureCollection","features":[{"type":"Feature","properties":{"c":"020205","en":"Anlong Run","km":"អន្លង់រុន"},"geometry":{"type":"Polygon","coordinates":[[[103.0593,13.1387],[103.0523,13.1907],[103.0489,13.1907],[102.9961,13.1869],[102.9373,13.1865],[102.9057,13.1357],[103.0295,13.1351],[103.0429,13.1333],[103.0593,13.1387]]]}},{"type":"Feature","properties":{"c":"020209","en":"Bansay Traeng","km":"បន្សាយត្រែង"},"geometry":{"type":"Polygon","coordinates":[[[103.0409,13.3105],[103.0337,13.3201],[103.0079,13.3091],[103.0049,13.3023],[103.0003,13.2789],[103.0057,13.2293],[103.0073,13.1877],[103.0489,13.1907],[103.0433,13.2455],[103.0409,13.3105]]]}},{"type":"Feature","properties":{"c":"020207","en":"Boeng Pring","km":"បឹងព្រីង"},"geometry":{"type":"Polygon","coordinates":[[[103.1497,13.4113],[103.1129,13.4107],[103.1115,13.4067],[103.1053,13.4047],[103.0981,13.4063],[103.0959,13.4017],[103.0905,13.3985],[103.0797,13.3989],[103.0557,13.3923],[103.0441,13.3919],[103.0355,13.3975],[103.0201,13.3935],[103.0133,13.3851],[103.0047,13.3813],[103.0011,13.3757],[102.9915,13.3811],[102.9881,13.3789],[102.9843,13.3611],[102.9989,13.3557],[102.9983,13.3477],[103.0151,13.3539],[103.0245,13.3359],[103.0305,13.3303],[103.0471,13.3497],[103.0625,13.3621],[103.1135,13.3807],[103.1211,13.3821],[103.1295,13.3789],[103.1621,13.3839],[103.2053,13.3849],[103.2169,13.3873],[103.1869,13.4007],[103.1853,13.4055],[103.1787,13.4101],[103.1653,13.4103],[103.1565,13.4035],[103.1497,13.4113]]]}},{"type":"Feature","properties":{"c":"020204","en":"Chrey","km":"ជ្រៃ"},"geometry":{"type":"Polygon","coordinates":[[[103.1577,13.1341],[103.1405,13.1357],[103.1343,13.1309],[103.1243,13.1381],[103.1031,13.1405],[103.0943,13.1391],[103.0873,13.1351],[103.0741,13.1343],[103.0631,13.1419],[103.0429,13.1333],[103.0383,13.1251],[103.0429,13.1041],[103.0587,13.0957],[103.0719,13.0943],[103.0735,13.0867],[103.1403,13.0907],[103.1455,13.0921],[103.1467,13.0961],[103.1447,13.1077],[103.1525,13.1083],[103.1539,13.1117],[103.1577,13.1341]]]}},{"type":"Feature","properties":{"c":"020206","en":"Chrouy Sdau","km":"ជ្រោយស្ដៅ"},"geometry":{"type":"MultiPolygon","coordinates":[[[[103.2651,13.3585],[103.2485,13.3589],[103.2143,13.3645],[103.1963,13.3601],[103.1855,13.3627],[103.1819,13.3483],[103.1643,13.3451],[103.1559,13.3461],[103.1409,13.3413],[103.1151,13.3213],[103.0677,13.3089],[103.0409,13.3105],[103.0337,13.3201],[103.0305,13.3303],[103.0471,13.3497],[103.0625,13.3621],[103.1171,13.3815],[103.1295,13.3789],[103.1621,13.3839],[103.2053,13.3849],[103.2169,13.3873],[103.2535,13.3857],[103.2625,13.3837],[103.2657,13.3807],[103.2645,13.3737],[103.2667,13.3715],[103.2643,13.3697],[103.2649,13.3657],[103.2665,13.3631],[103.2651,13.3585]]],[[[103.2703,13.3629],[103.2731,13.3605],[103.2683,13.3601],[103.2665,13.3631],[103.2703,13.3629]]]]}},{"type":"Feature","properties":{"c":"020208","en":"Kouk Khmum","km":"គោកឃ្មុំ"},"geometry":{"type":"Polygon","coordinates":[[[103.0677,13.3089],[103.0409,13.3105],[103.0433,13.2455],[103.0489,13.1907],[103.0523,13.1907],[103.0805,13.2167],[103.0867,13.2173],[103.0919,13.2225],[103.1001,13.2193],[103.0723,13.3023],[103.0677,13.3089]]]}},{"type":"Feature","properties":{"c":"020203","en":"Ou Ta Ki","km":"អូរតាគី"},"geometry":{"type":"Polygon","coordinates":[[[103.1569,13.2033],[103.1529,13.2019],[103.1487,13.2039],[103.1287,13.2201],[103.1163,13.2225],[103.1037,13.2181],[103.0919,13.2225],[103.0867,13.2173],[103.0769,13.2143],[103.0523,13.1907],[103.0593,13.1387],[103.0631,13.1419],[103.0741,13.1343],[103.0873,13.1351],[103.0987,13.1403],[103.1165,13.1393],[103.1243,13.1381],[103.1343,13.1309],[103.1405,13.1357],[103.1577,13.1341],[103.1587,13.1393],[103.1667,13.1393],[103.1699,13.1553],[103.1743,13.1565],[103.1757,13.1595],[103.1759,13.1677],[103.1569,13.2033]]]}},{"type":"Feature","properties":{"c":"020210","en":"Rung Chrey","km":"រូងជ្រៃ"},"geometry":{"type":"Polygon","coordinates":[[[103.0305,13.3303],[103.0245,13.3359],[103.0151,13.3539],[102.9983,13.3477],[102.9929,13.3481],[102.9925,13.3321],[102.9827,13.3207],[102.9691,13.2699],[102.9621,13.2657],[102.9661,13.2595],[102.9583,13.2523],[102.9561,13.2457],[102.9589,13.2397],[102.9643,13.2353],[102.9373,13.1865],[103.0073,13.1877],[103.0005,13.2853],[103.0079,13.3091],[103.0337,13.3201],[103.0305,13.3303]]]}},{"type":"Feature","properties":{"c":"020202","en":"Ta Meun","km":"តាម៉ឺន"},"geometry":{"type":"Polygon","coordinates":[[[103.2651,13.3585],[103.2485,13.3589],[103.2143,13.3645],[103.1963,13.3601],[103.1855,13.3627],[103.1819,13.3483],[103.1643,13.3451],[103.1559,13.3461],[103.1409,13.3413],[103.1151,13.3213],[103.0677,13.3089],[103.0723,13.3023],[103.0847,13.2665],[103.0889,13.2673],[103.0909,13.2711],[103.1119,13.2731],[103.1559,13.2705],[103.1603,13.2717],[103.1653,13.2779],[103.1965,13.2929],[103.2551,13.3431],[103.2713,13.3493],[103.2651,13.3585]]]}},{"type":"Feature","properties":{"c":"020201","en":"Ta Pung","km":"តាពូង"},"geometry":{"type":"Polygon","coordinates":[[[103.2839,13.2865],[103.2713,13.3493],[103.2551,13.3431],[103.1997,13.2953],[103.1653,13.2779],[103.1603,13.2717],[103.1505,13.2697],[103.1119,13.2731],[103.0909,13.2711],[103.0889,13.2673],[103.0847,13.2665],[103.1001,13.2193],[103.1037,13.2181],[103.1163,13.2225],[103.1287,13.2201],[103.1529,13.2019],[103.1569,13.2033],[103.1589,13.2315],[103.1745,13.2387],[103.2127,13.2763],[103.2839,13.2865]]]}}]}