{"type":"FeatureCollection","features":[{"type":"Feature","properties":{"c":"020304","en":"Chomkar Somraong","km":"សង្កាត់ចំការសំរោង"},"geometry":{"type":"Polygon","coordinates":[[[103.2117,13.1139],[103.1895,13.1193],[103.1909,13.1287],[103.1875,13.1307],[103.1577,13.1341],[103.1551,13.1209],[103.1653,13.1161],[103.1899,13.1143],[103.1943,13.1127],[103.1933,13.1079],[103.1979,13.1067],[103.2063,13.1065],[103.2105,13.1093],[103.2117,13.1139]]]}},{"type":"Feature","properties":{"c":"020306","en":"Kdol Doun Teav","km":"សង្កាត់ក្ដុលដូនទាវ"},"geometry":{"type":"MultiPolygon","coordinates":[[[[103.2163,13.1427],[103.2215,13.1391],[103.2155,13.1391],[103.2163,13.1427]]],[[[103.2141,13.1305],[103.2121,13.1283],[103.2009,13.1269],[103.1997,13.1301],[103.1939,13.1317],[103.1951,13.1407],[103.1677,13.1429],[103.1699,13.1553],[103.1743,13.1565],[103.1757,13.1595],[103.1869,13.1579],[103.1897,13.1541],[103.2053,13.1519],[103.2071,13.1401],[103.2101,13.1371],[103.2155,13.1391],[103.2141,13.1305]]]]}},{"type":"Feature","properties":{"c":"020307","en":"Omal","km":"សង្កាត់អូរម៉ាល់"},"geometry":{"type":"Polygon","coordinates":[[[103.1783,13.0869],[103.1455,13.0921],[103.0807,13.0863],[103.0849,13.0513],[103.1255,13.0525],[103.1313,13.0455],[103.1627,13.0683],[103.1783,13.0755],[103.1813,13.0783],[103.1815,13.0825],[103.1813,13.0859],[103.1783,13.0869]]]}},{"type":"Feature","properties":{"c":"020309","en":"Ou Char","km":"សង្កាត់អូរចារ"},"geometry":{"type":"Polygon","coordinates":[[[103.1933,13.1079],[103.1943,13.1127],[103.1899,13.1143],[103.1653,13.1161],[103.1551,13.1209],[103.1525,13.1083],[103.1447,13.1077],[103.1455,13.0921],[103.1783,13.0869],[103.1801,13.1033],[103.1865,13.1053],[103.1931,13.1039],[103.1933,13.1079]]]}},{"type":"Feature","properties":{"c":"020302","en":"Prek Preah Sdach","km":"សង្កាត់ព្រែកព្រះស្ដេច"},"geometry":{"type":"Polygon","coordinates":[[[103.2235,13.0863],[103.2045,13.0921],[103.2011,13.0907],[103.2027,13.0803],[103.2151,13.0747],[103.2149,13.0789],[103.2271,13.0835],[103.2235,13.0863]]]}},{"type":"Feature","properties":{"c":"020303","en":"Rottanak","km":"សង្កាត់រតនៈ"},"geometry":{"type":"Polygon","coordinates":[[[103.2307,13.1069],[103.2161,13.1121],[103.2131,13.1171],[103.2105,13.1093],[103.2019,13.1067],[103.1991,13.0955],[103.2011,13.0907],[103.2045,13.0921],[103.2235,13.0863],[103.2269,13.0937],[103.2305,13.0959],[103.2261,13.1003],[103.2307,13.1069]]]}},{"type":"Feature","properties":{"c":"020305","en":"Sla Ket","km":"សង្កាត់ស្លាកែត"},"geometry":{"type":"Polygon","coordinates":[[[103.2121,13.1283],[103.2009,13.1269],[103.1997,13.1301],[103.1939,13.1317],[103.1951,13.1407],[103.1677,13.1429],[103.1667,13.1393],[103.1587,13.1393],[103.1577,13.1341],[103.1875,13.1307],[103.1909,13.1287],[103.1895,13.1193],[103.2117,13.1139],[103.2141,13.1253],[103.2121,13.1283]]]}},{"type":"Feature","properties":{"c":"020310","en":"Svay Por","km":"សង្កាត់ស្វាយប៉ោ"},"geometry":{"type":"Polygon","coordinates":[[[103.2019,13.1067],[103.1933,13.1079],[103.1947,13.1003],[103.1923,13.0849],[103.2027,13.0803],[103.1991,13.0955],[103.2019,13.1067]]]}},{"type":"Feature","properties":{"c":"020301","en":"Tuol Ta Ek","km":"សង្កាត់ទួលតាឯក"},"geometry":{"type":"Polygon","coordinates":[[[103.1931,13.1039],[103.1865,13.1053],[103.1801,13.1033],[103.1783,13.0869],[103.1813,13.0859],[103.1813,13.0783],[103.1923,13.0849],[103.1947,13.1003],[103.1931,13.1039]]]}},{"type":"Feature","properties":{"c":"020308","en":"Wat Kor","km":"សង្កាត់វត្ដគរ"},"geometry":{"type":"Polygon","coordinates":[[[103.2027,13.0803],[103.1923,13.0849],[103.1877,13.0835],[103.1783,13.0755],[103.1687,13.0719],[103.1457,13.0559],[103.1411,13.0515],[103.1469,13.0311],[103.1601,13.0349],[103.1905,13.0331],[103.1875,13.0373],[103.1943,13.0417],[103.2009,13.0387],[103.1933,13.0531],[103.1967,13.0621],[103.2037,13.0667],[103.2027,13.0803]]]}}]}