{"type":"FeatureCollection","features":[{"type":"Feature","properties":{"c":"020405","en":"Ampil Pram Daeum","km":"អំពិលប្រាំដើម"},"geometry":{"type":"Polygon","coordinates":[[[102.8561,13.2929],[102.8553,13.2969],[102.7453,13.3381],[102.7411,13.3323],[102.7259,13.3295],[102.7231,13.3033],[102.6885,13.3113],[102.6891,13.2365],[102.8359,13.2309],[102.8373,13.2375],[102.8569,13.2549],[102.8545,13.2663],[102.8577,13.2699],[102.8493,13.2767],[102.8515,13.2831],[102.8497,13.2901],[102.8557,13.2893],[102.8561,13.2929]]]}},{"type":"Feature","properties":{"c":"020401","en":"Bavel","km":"បវេល"},"geometry":{"type":"Polygon","coordinates":[[[102.9331,13.2935],[102.9163,13.2933],[102.8911,13.2855],[102.8723,13.2825],[102.8671,13.2823],[102.8561,13.2929],[102.8557,13.2893],[102.8497,13.2901],[102.8515,13.2831],[102.8493,13.2767],[102.8577,13.2699],[102.8545,13.2663],[102.8569,13.2549],[102.8373,13.2375],[102.8359,13.2309],[102.8499,13.2299],[102.8525,13.2331],[102.8611,13.2315],[102.8613,13.2357],[102.8647,13.2305],[102.9017,13.2085],[102.9209,13.2395],[102.9307,13.2615],[102.9331,13.2935]]]}},{"type":"Feature","properties":{"c":"020408","en":"Boeung Pram","km":"បឹងប្រាំ"},"geometry":{"type":"Polygon","coordinates":[[[102.7707,13.4043],[102.7457,13.4117],[102.7415,13.4109],[102.7157,13.3997],[102.6881,13.3809],[102.6885,13.3113],[102.7231,13.3033],[102.7259,13.3295],[102.7411,13.3323],[102.7525,13.3547],[102.7663,13.3735],[102.7707,13.4043]]]}},{"type":"Feature","properties":{"c":"020406","en":"Kdol Ta Haen","km":"ក្ដុលតាហែន"},"geometry":{"type":"Polygon","coordinates":[[[102.8359,13.2309],[102.6891,13.2365],[102.6895,13.1993],[102.7085,13.1995],[102.7653,13.1179],[102.7729,13.1205],[102.7703,13.1291],[102.7775,13.1365],[102.7819,13.1357],[102.7831,13.1271],[102.7877,13.1251],[102.7893,13.1309],[102.7871,13.1331],[102.7967,13.1341],[102.7983,13.1413],[102.8049,13.1493],[102.8131,13.1447],[102.8125,13.1481],[102.8187,13.1573],[102.8255,13.1571],[102.8477,13.1301],[102.9011,13.1311],[102.9057,13.1357],[102.8975,13.1547],[102.8953,13.1673],[102.9017,13.2085],[102.8647,13.2305],[102.8613,13.2357],[102.8611,13.2315],[102.8525,13.2331],[102.8499,13.2299],[102.8359,13.2309]]]}},{"type":"Feature","properties":{"c":"020407","en":"Khlaeng Meas","km":"ឃ្លាំងមាស"},"geometry":{"type":"MultiPolygon","coordinates":[[[[102.7057,13.0957],[102.7117,13.0971],[102.7115,13.0927],[102.7057,13.0957]]],[[[102.7195,13.0979],[102.7329,13.0939],[102.7355,13.0951],[102.7355,13.0989],[102.7317,13.1007],[102.7341,13.1047],[102.7439,13.1011],[102.7439,13.1097],[102.7469,13.1133],[102.7541,13.1117],[102.7601,13.1219],[102.7653,13.1179],[102.7729,13.1205],[102.7703,13.1291],[102.7775,13.1365],[102.7819,13.1357],[102.7831,13.1271],[102.7877,13.1251],[102.7893,13.1309],[102.7871,13.1331],[102.7967,13.1341],[102.7983,13.1413],[102.8049,13.1493],[102.8131,13.1447],[102.8125,13.1481],[102.8187,13.1573],[102.8255,13.1571],[102.8477,13.1301],[102.9011,13.1311],[102.9057,13.1357],[102.9037,13.1273],[102.9061,13.1165],[102.9251,13.0827],[102.9267,13.0755],[102.8291,13.0379],[102.7901,13.0391],[102.7115,13.0927],[102.7195,13.0979]]]]}},{"type":"Feature","properties":{"c":"020402","en":"Khnach Romeas","km":"ខ្នាចរមាស"},"geometry":{"type":"Polygon","coordinates":[[[102.9373,13.1865],[102.9643,13.2353],[102.9589,13.2397],[102.9561,13.2457],[102.9583,13.2523],[102.9661,13.2595],[102.9621,13.2657],[102.9691,13.2699],[102.9827,13.3207],[102.9595,13.3101],[102.9433,13.3067],[102.9331,13.2935],[102.9307,13.2615],[102.9209,13.2395],[102.9017,13.2085],[102.8955,13.1639],[102.9057,13.1357],[102.9373,13.1865]]]}},{"type":"Feature","properties":{"c":"020403","en":"Lvea","km":"ល្វា"},"geometry":{"type":"Polygon","coordinates":[[[102.9843,13.3611],[102.9215,13.3655],[102.9203,13.3681],[102.9165,13.3667],[102.9185,13.3577],[102.9167,13.3549],[102.9143,13.3585],[102.9103,13.3567],[102.9109,13.3535],[102.9073,13.3545],[102.9035,13.3491],[102.8951,13.3465],[102.8983,13.3407],[102.8947,13.3393],[102.8949,13.3357],[102.8905,13.3359],[102.8901,13.3323],[102.8859,13.3325],[102.8863,13.3283],[102.8763,13.3247],[102.8775,13.3215],[102.8855,13.3179],[102.8831,13.3093],[102.8937,13.3077],[102.8979,13.2879],[102.9211,13.2941],[102.9331,13.2935],[102.9399,13.3045],[102.9595,13.3101],[102.9827,13.3207],[102.9925,13.3321],[102.9929,13.3481],[102.9983,13.3477],[102.9989,13.3557],[102.9843,13.3611]]]}},{"type":"Feature","properties":{"c":"020404","en":"Prey Khpos","km":"ព្រៃខ្ពស់"},"geometry":{"type":"Polygon","coordinates":[[[102.9203,13.3681],[102.8601,13.3879],[102.8493,13.3827],[102.7707,13.4043],[102.7663,13.3735],[102.7525,13.3547],[102.7453,13.3381],[102.8553,13.2969],[102.8561,13.2929],[102.8671,13.2823],[102.8873,13.2847],[102.8979,13.2879],[102.8959,13.2999],[102.8937,13.3077],[102.8831,13.3093],[102.8855,13.3179],[102.8775,13.3215],[102.8763,13.3247],[102.8863,13.3283],[102.8859,13.3325],[102.8901,13.3323],[102.8905,13.3359],[102.8949,13.3357],[102.8947,13.3393],[102.8983,13.3407],[102.8951,13.3465],[102.9035,13.3491],[102.9073,13.3545],[102.9109,13.3535],[102.9103,13.3567],[102.9143,13.3585],[102.9167,13.3549],[102.9185,13.3577],[102.9165,13.3667],[102.9203,13.3681]]]}}]}