{"type":"FeatureCollection","features":[{"type":"Feature","properties":{"c":"020507","en":"Kaoh Chiveang","km":"កោះជីវាំង"},"geometry":{"type":"Polygon","coordinates":[[[103.5801,13.3139],[103.5687,13.3129],[103.5665,13.3105],[103.5607,13.3115],[103.5567,13.3165],[103.5531,13.3319],[103.5429,13.3373],[103.5285,13.3409],[103.5269,13.3481],[103.5183,13.3509],[103.4751,13.2529],[103.4683,13.1969],[103.6241,13.1073],[103.6415,13.1147],[103.6517,13.1115],[103.6739,13.1153],[103.6843,13.1115],[103.6899,13.1145],[103.6971,13.1129],[103.7055,13.1149],[103.7017,13.1633],[103.7027,13.1763],[103.6913,13.2117],[103.6851,13.2165],[103.6879,13.2243],[103.6875,13.2319],[103.6933,13.2471],[103.7067,13.2605],[103.7077,13.2643],[103.7041,13.2713],[103.6833,13.2861],[103.6779,13.2847],[103.6783,13.2813],[103.6695,13.2747],[103.6617,13.2833],[103.6461,13.2933],[103.6357,13.2933],[103.6277,13.2979],[103.6137,13.2953],[103.6105,13.2923],[103.6033,13.2955],[103.5929,13.2941],[103.5869,13.3005],[103.5801,13.3139]]]}},{"type":"Feature","properties":{"c":"020505","en":"Peam Aek","km":"ពាមឯក"},"geometry":{"type":"Polygon","coordinates":[[[103.2163,13.1427],[103.2183,13.1467],[103.2173,13.1567],[103.2331,13.2047],[103.2299,13.2279],[103.2315,13.2369],[103.2453,13.2513],[103.2505,13.2641],[103.2707,13.2733],[103.2813,13.2815],[103.2839,13.2865],[103.2127,13.2763],[103.1745,13.2387],[103.1589,13.2315],[103.1569,13.2033],[103.1749,13.1727],[103.1757,13.1595],[103.1869,13.1579],[103.1897,13.1541],[103.2053,13.1519],[103.2071,13.1401],[103.2101,13.1371],[103.2155,13.1391],[103.2163,13.1427]]]}},{"type":"Feature","properties":{"c":"020503","en":"Preaek Khpob","km":"ព្រែកខ្ពប"},"geometry":{"type":"Polygon","coordinates":[[[103.3149,13.1653],[103.3065,13.1789],[103.3059,13.1905],[103.2951,13.1885],[103.2915,13.1901],[103.2687,13.1765],[103.2569,13.1583],[103.2427,13.1553],[103.2289,13.1577],[103.2285,13.1517],[103.2197,13.1417],[103.2215,13.1391],[103.2357,13.1399],[103.2449,13.1431],[103.2767,13.1431],[103.2787,13.1497],[103.3031,13.1525],[103.3149,13.1653]]]}},{"type":"Feature","properties":{"c":"020504","en":"Preaek Luong","km":"ព្រែកហ្លួង"},"geometry":{"type":"Polygon","coordinates":[[[103.3749,13.2425],[103.3715,13.2527],[103.3565,13.2633],[103.3521,13.2645],[103.3463,13.2595],[103.3409,13.2625],[103.3317,13.2477],[103.3197,13.2391],[103.3191,13.2285],[103.3105,13.2161],[103.3071,13.2149],[103.3077,13.2111],[103.3045,13.2077],[103.2955,13.2145],[103.2941,13.2109],[103.2839,13.2073],[103.2723,13.1993],[103.2667,13.1913],[103.2603,13.1879],[103.2595,13.1839],[103.2451,13.1823],[103.2431,13.1701],[103.2351,13.1581],[103.2427,13.1553],[103.2569,13.1583],[103.2687,13.1765],[103.2915,13.1901],[103.2951,13.1885],[103.3059,13.1905],[103.3065,13.1789],[103.3149,13.1653],[103.3339,13.1817],[103.3477,13.1861],[103.3749,13.2425]]]}},{"type":"Feature","properties":{"c":"020501","en":"Preaek Norint","km":"ព្រែកនរិន្ទ"},"geometry":{"type":"Polygon","coordinates":[[[103.3409,13.2625],[103.3363,13.2685],[103.3169,13.2817],[103.3049,13.2857],[103.2869,13.2867],[103.2839,13.2865],[103.2813,13.2815],[103.2707,13.2733],[103.2505,13.2641],[103.2453,13.2513],[103.2299,13.2329],[103.2331,13.2047],[103.2173,13.1567],[103.2183,13.1467],[103.2163,13.1427],[103.2197,13.1417],[103.2285,13.1517],[103.2289,13.1577],[103.2351,13.1581],[103.2381,13.1621],[103.2431,13.1701],[103.2451,13.1823],[103.2595,13.1839],[103.2603,13.1879],[103.2667,13.1913],[103.2723,13.1993],[103.2839,13.2073],[103.2941,13.2109],[103.2955,13.2145],[103.3045,13.2077],[103.3077,13.2111],[103.3071,13.2149],[103.3105,13.2161],[103.3191,13.2285],[103.3197,13.2391],[103.3317,13.2477],[103.3409,13.2625]]]}},{"type":"Feature","properties":{"c":"020506","en":"Prey Chas","km":"ព្រៃចាស់"},"geometry":{"type":"Polygon","coordinates":[[[103.2649,13.3657],[103.2731,13.3605],[103.2683,13.3601],[103.2665,13.3631],[103.2651,13.3585],[103.2713,13.3493],[103.2839,13.2865],[103.3049,13.2857],[103.3169,13.2817],[103.3463,13.2595],[103.3521,13.2645],[103.3565,13.2633],[103.3715,13.2527],[103.3749,13.2425],[103.4683,13.1969],[103.4751,13.2529],[103.5183,13.3509],[103.5061,13.3527],[103.4937,13.3445],[103.4771,13.3537],[103.4671,13.3463],[103.4631,13.3465],[103.4559,13.3533],[103.4455,13.3559],[103.4405,13.3601],[103.4373,13.3585],[103.4267,13.3627],[103.4195,13.3683],[103.4161,13.3683],[103.4141,13.3647],[103.3989,13.3617],[103.3955,13.3585],[103.3745,13.3731],[103.3527,13.3813],[103.3263,13.3807],[103.3167,13.3833],[103.3027,13.3819],[103.2787,13.3869],[103.2625,13.3837],[103.2657,13.3807],[103.2645,13.3737],[103.2667,13.3715],[103.2643,13.3697],[103.2649,13.3657]]]}},{"type":"Feature","properties":{"c":"020502","en":"Samraong Knong","km":"សំរោងក្នុង"},"geometry":{"type":"Polygon","coordinates":[[[103.2777,13.1141],[103.2807,13.1231],[103.2807,13.1381],[103.2853,13.1465],[103.2847,13.1499],[103.2787,13.1497],[103.2767,13.1431],[103.2449,13.1431],[103.2357,13.1399],[103.2155,13.1391],[103.2163,13.1347],[103.2121,13.1283],[103.2137,13.1207],[103.2283,13.1169],[103.2777,13.1141]]]}}]}