{"type":"FeatureCollection","features":[{"type":"Feature","properties":{"c":"020605","en":"Chrey","km":"ជ្រៃ"},"geometry":{"type":"Polygon","coordinates":[[[103.7525,13.0105],[103.7693,13.0163],[103.7721,13.0263],[103.7615,13.0367],[103.7429,13.0417],[103.7363,13.0501],[103.7395,13.0513],[103.7263,13.0599],[103.7115,13.0807],[103.7057,13.1011],[103.7017,13.0993],[103.6917,13.0799],[103.6857,13.0769],[103.6839,13.0729],[103.6807,13.0605],[103.6793,13.0351],[103.6771,13.0315],[103.6719,13.0329],[103.6661,13.0301],[103.6583,13.0333],[103.6521,13.0267],[103.6459,13.0273],[103.6365,13.0091],[103.6335,13.0069],[103.6235,13.0069],[103.6155,12.9995],[103.6051,13.0025],[103.5881,13.0023],[103.5729,12.9963],[103.5031,12.8971],[103.5033,12.8269],[103.4989,12.8117],[103.4819,12.7911],[103.4739,12.7867],[103.4577,12.7849],[103.4563,12.7781],[103.4665,12.7717],[103.4837,12.7679],[103.4899,12.7629],[103.4981,12.7747],[103.5171,12.7907],[103.5593,12.7949],[103.5791,12.7987],[103.5819,12.8019],[103.5945,12.8051],[103.6153,12.8209],[103.6213,12.8229],[103.6223,12.8295],[103.6189,12.8313],[103.6201,12.8377],[103.6333,12.8451],[103.6435,12.8545],[103.6685,12.8635],[103.6889,12.8633],[103.6965,12.8747],[103.6977,12.8913],[103.6959,12.8957],[103.7009,12.9017],[103.7011,12.9149],[103.7123,12.9263],[103.7293,12.9291],[103.7321,12.9327],[103.7293,12.9481],[103.7223,12.9507],[103.7189,12.9577],[103.7189,12.9741],[103.7305,12.9843],[103.7321,12.9951],[103.7389,12.9995],[103.7409,13.0073],[103.7481,13.0115],[103.7525,13.0105]]]}},{"type":"Feature","properties":{"c":"020607","en":"Kakaoh","km":"កកោះ"},"geometry":{"type":"Polygon","coordinates":[[[103.4503,12.8251],[103.4553,12.8403],[103.4537,12.8547],[103.4593,12.8703],[103.4591,12.9079],[103.4663,12.9409],[103.4563,12.9373],[103.4533,12.9295],[103.4449,12.9221],[103.4379,12.9115],[103.4303,12.8897],[103.4149,12.8755],[103.4039,12.8709],[103.4019,12.8583],[103.3991,12.8597],[103.3825,12.8511],[103.3581,12.8453],[103.3459,12.8369],[103.3251,12.8321],[103.3559,12.8061],[103.3817,12.7907],[103.4135,12.8219],[103.4109,12.8251],[103.4503,12.8251]]]}},{"type":"Feature","properties":{"c":"020602","en":"Kear","km":"គារ"},"geometry":{"type":"Polygon","coordinates":[[[103.4503,12.8251],[103.4109,12.8251],[103.4465,12.7773],[103.4451,12.7669],[103.4387,12.7649],[103.4383,12.7585],[103.4549,12.7427],[103.4637,12.7283],[103.4525,12.7261],[103.4407,12.7179],[103.4407,12.7127],[103.4347,12.7045],[103.4347,12.7001],[103.4181,12.6863],[103.4371,12.6713],[103.4257,12.6353],[103.4261,12.6017],[103.4355,12.6079],[103.4443,12.6203],[103.4439,12.6243],[103.4485,12.6277],[103.4615,12.6299],[103.4807,12.6489],[103.4751,12.6925],[103.4945,12.7405],[103.4949,12.7515],[103.4879,12.7651],[103.4801,12.7695],[103.4665,12.7717],[103.4563,12.7781],[103.4575,12.8061],[103.4503,12.8251]]]}},{"type":"Feature","properties":{"c":"020601","en":"Moung","km":"មោង"},"geometry":{"type":"Polygon","coordinates":[[[103.4383,12.7585],[103.4387,12.7649],[103.4451,12.7669],[103.4465,12.7773],[103.4135,12.8219],[103.3817,12.7907],[103.3559,12.8061],[103.3537,12.8031],[103.3527,12.7803],[103.3461,12.7671],[103.3347,12.7583],[103.3299,12.7469],[103.3547,12.7413],[103.3653,12.7545],[103.3821,12.7615],[103.3879,12.7665],[103.4035,12.7653],[103.4113,12.7681],[103.4313,12.7593],[103.4383,12.7585]]]}},{"type":"Feature","properties":{"c":"020603","en":"Prey Svay","km":"ព្រៃស្វាយ"},"geometry":{"type":"Polygon","coordinates":[[[103.5265,12.6357],[103.5799,12.7235],[103.5791,12.7987],[103.5171,12.7907],[103.4981,12.7747],[103.4899,12.7629],[103.4949,12.7515],[103.4945,12.7405],[103.4751,12.6925],[103.4807,12.6489],[103.5265,12.6357]]]}},{"type":"Feature","properties":{"c":"020608","en":"Prey Touch","km":"ព្រៃតូច"},"geometry":{"type":"Polygon","coordinates":[[[103.4663,12.9409],[103.4705,12.9707],[103.3947,12.9325],[103.3055,12.9089],[103.3277,12.8771],[103.3165,12.8389],[103.3251,12.8321],[103.3459,12.8369],[103.3581,12.8453],[103.3825,12.8511],[103.3991,12.8597],[103.4019,12.8583],[103.4039,12.8709],[103.4149,12.8755],[103.4303,12.8897],[103.4379,12.9115],[103.4449,12.9221],[103.4533,12.9295],[103.4563,12.9373],[103.4663,12.9409]]]}},{"type":"Feature","properties":{"c":"020609","en":"Robas Mongkol","km":"របស់មង្គល"},"geometry":{"type":"Polygon","coordinates":[[[103.4383,12.7585],[103.4313,12.7593],[103.4113,12.7681],[103.4035,12.7653],[103.3879,12.7665],[103.3821,12.7615],[103.3653,12.7545],[103.3547,12.7413],[103.3299,12.7469],[103.3235,12.7357],[103.3195,12.6931],[103.3135,12.6887],[103.3107,12.6703],[103.3049,12.6599],[103.3039,12.6487],[103.3073,12.6347],[103.3053,12.6047],[103.3575,12.6843],[103.4181,12.6863],[103.4347,12.7001],[103.4347,12.7045],[103.4407,12.7127],[103.4407,12.7179],[103.4525,12.7261],[103.4637,12.7283],[103.4549,12.7427],[103.4383,12.7585]]]}},{"type":"Feature","properties":{"c":"020604","en":"Ruessei Krang","km":"ឫស្សីក្រាំង"},"geometry":{"type":"Polygon","coordinates":[[[103.6227,12.7639],[103.6199,12.7663],[103.6237,12.7741],[103.6231,12.7777],[103.6331,12.7861],[103.6365,12.8033],[103.6445,12.8163],[103.6425,12.8205],[103.6323,12.8231],[103.6299,12.8325],[103.6333,12.8451],[103.6201,12.8377],[103.6189,12.8313],[103.6223,12.8295],[103.6213,12.8229],[103.6039,12.8133],[103.5989,12.8073],[103.5819,12.8019],[103.5791,12.7987],[103.5799,12.7235],[103.5265,12.6357],[103.6365,12.6029],[103.6399,12.6047],[103.6405,12.6081],[103.6357,12.6131],[103.6369,12.6295],[103.6399,12.6305],[103.6387,12.6331],[103.6485,12.6395],[103.6483,12.6439],[103.6461,12.6479],[103.6451,12.6633],[103.6421,12.6665],[103.6395,12.6645],[103.6193,12.6771],[103.6355,12.6999],[103.6345,12.7079],[103.6313,12.7101],[103.6307,12.7149],[103.6237,12.7211],[103.6233,12.7375],[103.6199,12.7481],[103.6229,12.7555],[103.6201,12.7627],[103.6227,12.7639]]]}},{"type":"Feature","properties":{"c":"020606","en":"Ta Loas","km":"តាលាស់"},"geometry":{"type":"Polygon","coordinates":[[[103.5729,12.9963],[103.5473,12.9979],[103.5073,12.9929],[103.4705,12.9707],[103.4639,12.9243],[103.4591,12.9079],[103.4593,12.8703],[103.4537,12.8547],[103.4553,12.8403],[103.4503,12.8251],[103.4575,12.8061],[103.4577,12.7849],[103.4739,12.7867],[103.4819,12.7911],[103.4989,12.8117],[103.5033,12.8269],[103.5031,12.8971],[103.5729,12.9963]]]}}]}