{"type":"FeatureCollection","features":[{"type":"Feature","properties":{"c":"020702","en":"Andaeuk Haeb","km":"អណ្ដើកហែប"},"geometry":{"type":"Polygon","coordinates":[[[103.0007,12.8677],[102.9823,12.8699],[102.9799,12.8727],[102.9805,12.8771],[102.9695,12.8767],[102.9675,12.8675],[102.9599,12.8675],[102.9601,12.8523],[102.9503,12.8513],[102.9533,12.8475],[102.9539,12.8357],[102.9607,12.8185],[102.9559,12.8053],[102.9511,12.8041],[102.9515,12.7511],[102.9675,12.7477],[102.9767,12.7523],[102.9871,12.7513],[103.0385,12.7331],[103.0353,12.7397],[103.0371,12.7529],[103.0355,12.7607],[103.0403,12.7669],[103.0401,12.7707],[103.0303,12.8399],[103.0443,12.8615],[103.0401,12.8679],[103.0007,12.8677]]]}},{"type":"Feature","properties":{"c":"020703","en":"Phlov Meas","km":"ផ្លូវមាស"},"geometry":{"type":"Polygon","coordinates":[[[102.9503,12.7731],[102.9431,12.7713],[102.9363,12.7765],[102.9103,12.7809],[102.9135,12.7955],[102.9089,12.7975],[102.9083,12.8017],[102.9117,12.8045],[102.9007,12.8161],[102.8899,12.8125],[102.8863,12.8191],[102.8755,12.8249],[102.8595,12.8185],[102.8403,12.8031],[102.8383,12.7939],[102.7533,12.7933],[102.7533,12.7495],[102.7315,12.7337],[102.7583,12.7317],[102.8671,12.7591],[102.9515,12.7511],[102.9503,12.7731]]]}},{"type":"Feature","properties":{"c":"020705","en":"Reaksmei Songha","km":"រស្មីសង្ហារ"},"geometry":{"type":"Polygon","coordinates":[[[102.7057,13.0957],[102.7039,13.1061],[102.6945,13.1023],[102.7355,13.0445],[102.7513,13.0267],[102.7517,12.9651],[102.8115,12.9655],[102.8409,12.9529],[102.8483,12.9493],[102.8489,12.9269],[102.8859,12.9029],[102.9121,12.9107],[102.9211,12.9255],[102.9327,12.9287],[102.9321,12.9399],[102.9385,12.9521],[102.8617,12.9657],[102.8291,13.0379],[102.7901,13.0391],[102.7057,13.0957]]]}},{"type":"Feature","properties":{"c":"020701","en":"Sdau","km":"ស្ដៅ"},"geometry":{"type":"Polygon","coordinates":[[[103.0401,12.8679],[103.0025,12.9239],[102.9963,12.9295],[102.9571,12.9421],[102.9591,12.9495],[102.9385,12.9521],[102.9321,12.9399],[102.9327,12.9287],[102.9211,12.9255],[102.9121,12.9107],[102.8917,12.9039],[102.9101,12.9029],[102.9103,12.9063],[102.9471,12.9061],[102.9573,12.9029],[102.9681,12.9043],[103.0007,12.8677],[103.0401,12.8679]]]}},{"type":"Feature","properties":{"c":"020704","en":"Traeng","km":"ត្រែង"},"geometry":{"type":"Polygon","coordinates":[[[102.8859,12.9029],[102.8489,12.9269],[102.8483,12.9493],[102.8409,12.9529],[102.8115,12.9655],[102.7517,12.9651],[102.7533,12.7933],[102.8383,12.7939],[102.8403,12.8031],[102.8595,12.8185],[102.8755,12.8249],[102.8863,12.8191],[102.8899,12.8125],[102.9007,12.8161],[102.9117,12.8045],[102.9083,12.8017],[102.9089,12.7975],[102.9135,12.7955],[102.9103,12.7809],[102.9363,12.7765],[102.9431,12.7713],[102.9503,12.7731],[102.9511,12.8041],[102.9559,12.8053],[102.9607,12.8185],[102.9539,12.8357],[102.9533,12.8475],[102.9503,12.8513],[102.9601,12.8523],[102.9599,12.8675],[102.9675,12.8675],[102.9695,12.8767],[102.9805,12.8771],[102.9799,12.8727],[102.9823,12.8699],[103.0007,12.8677],[102.9681,12.9043],[102.9573,12.9029],[102.9471,12.9061],[102.9103,12.9063],[102.9101,12.9029],[102.8859,12.9029]]]}}]}