{"type":"FeatureCollection","features":[{"type":"Feature","properties":{"c":"020801","en":"Anlong Vil","km":"អន្លង់វិល"},"geometry":{"type":"Polygon","coordinates":[[[103.2731,13.1057],[103.2307,13.1069],[103.2261,13.1003],[103.2305,13.0959],[103.2269,13.0937],[103.2235,13.0863],[103.2353,13.0733],[103.2385,13.0611],[103.2367,13.0575],[103.2403,13.0495],[103.2445,13.0495],[103.2469,13.0529],[103.2481,13.0651],[103.2507,13.0671],[103.2801,13.0451],[103.3011,13.0539],[103.3373,13.0625],[103.3329,13.0787],[103.3255,13.0895],[103.3191,13.0901],[103.3119,13.0789],[103.2641,13.0727],[103.2577,13.0809],[103.2641,13.0877],[103.2687,13.1019],[103.2731,13.1057]]]}},{"type":"Feature","properties":{"c":"020805","en":"Kampong Preah","km":"កំពង់ព្រះ"},"geometry":{"type":"Polygon","coordinates":[[[103.7055,13.1149],[103.6971,13.1129],[103.6899,13.1145],[103.6843,13.1115],[103.6739,13.1153],[103.6517,13.1115],[103.6415,13.1147],[103.6241,13.1073],[103.5703,13.1381],[103.4649,13.0921],[103.3011,13.0539],[103.2801,13.0451],[103.2769,13.0391],[103.2841,13.0335],[103.2865,13.0261],[103.2923,13.0215],[103.2895,13.0197],[103.2911,13.0061],[103.2991,12.9981],[103.3157,12.9975],[103.3265,12.9829],[103.3433,13.0011],[103.3665,13.0199],[103.3739,13.0179],[103.3775,13.0201],[103.3901,13.0193],[103.4049,13.0323],[103.4123,13.0345],[103.4253,13.0333],[103.4331,13.0379],[103.4467,13.0375],[103.4591,13.0435],[103.4727,13.0453],[103.4879,13.0557],[103.6827,13.0685],[103.6857,13.0769],[103.6917,13.0799],[103.6989,13.0959],[103.7057,13.1011],[103.7045,13.1081],[103.7077,13.1075],[103.7055,13.1149]]]}},{"type":"Feature","properties":{"c":"020806","en":"Kampong Prieng","km":"កំពង់ព្រៀង"},"geometry":{"type":"Polygon","coordinates":[[[103.5729,12.9963],[103.5881,13.0023],[103.6051,13.0025],[103.6155,12.9995],[103.6235,13.0069],[103.6335,13.0069],[103.6365,13.0091],[103.6459,13.0273],[103.6521,13.0267],[103.6583,13.0333],[103.6661,13.0301],[103.6719,13.0329],[103.6771,13.0315],[103.6793,13.0351],[103.6827,13.0685],[103.4967,13.0575],[103.4879,13.0557],[103.4727,13.0453],[103.4591,13.0435],[103.4467,13.0375],[103.4331,13.0379],[103.4253,13.0333],[103.4123,13.0345],[103.4049,13.0323],[103.3901,13.0193],[103.3775,13.0201],[103.3739,13.0179],[103.3665,13.0199],[103.3433,13.0011],[103.3265,12.9829],[103.3291,12.9685],[103.2933,12.9453],[103.2779,12.9019],[103.3947,12.9325],[103.4705,12.9707],[103.5073,12.9929],[103.5473,12.9979],[103.5729,12.9963]]]}},{"type":"Feature","properties":{"c":"020802","en":"Norea","km":"នរា"},"geometry":{"type":"Polygon","coordinates":[[[103.2777,13.1141],[103.2283,13.1169],[103.2137,13.1207],[103.2131,13.1171],[103.2195,13.1105],[103.2397,13.1053],[103.2763,13.1061],[103.2811,13.1121],[103.2777,13.1141]]]}},{"type":"Feature","properties":{"c":"020808","en":"Ou Dambang Muoy","km":"អូរដំបង ១"},"geometry":{"type":"Polygon","coordinates":[[[103.2151,13.0747],[103.2027,13.0803],[103.2037,13.0667],[103.2013,13.0635],[103.2045,13.0623],[103.2127,13.0369],[103.2281,13.0097],[103.2297,12.9869],[103.2427,12.9889],[103.2461,12.9905],[103.2455,12.9991],[103.2575,12.9997],[103.2609,13.0019],[103.2595,13.0097],[103.2551,13.0159],[103.2549,13.0229],[103.2489,13.0267],[103.2485,13.0327],[103.2383,13.0301],[103.2151,13.0747]]]}},{"type":"Feature","properties":{"c":"020809","en":"Ou Dambang Pir","km":"អូរដំបង ២"},"geometry":{"type":"Polygon","coordinates":[[[103.2801,13.0451],[103.2507,13.0671],[103.2481,13.0651],[103.2469,13.0529],[103.2445,13.0495],[103.2403,13.0495],[103.2367,13.0575],[103.2385,13.0611],[103.2367,13.0691],[103.2309,13.0803],[103.2271,13.0835],[103.2149,13.0789],[103.2171,13.0693],[103.2383,13.0301],[103.2485,13.0327],[103.2489,13.0267],[103.2549,13.0229],[103.2551,13.0159],[103.2579,13.0145],[103.2609,13.0019],[103.2911,13.0061],[103.2895,13.0197],[103.2923,13.0215],[103.2865,13.0261],[103.2841,13.0335],[103.2769,13.0391],[103.2801,13.0451]]]}},{"type":"Feature","properties":{"c":"020807","en":"Reang Kesei","km":"រាំងកេសី"},"geometry":{"type":"Polygon","coordinates":[[[103.3265,12.9829],[103.3157,12.9975],[103.2991,12.9981],[103.2911,13.0061],[103.2455,12.9991],[103.2461,12.9905],[103.2297,12.9869],[103.2291,12.9555],[103.2213,12.9509],[103.2209,12.8925],[103.2473,12.8947],[103.2779,12.9019],[103.2933,12.9453],[103.3291,12.9685],[103.3265,12.9829]]]}},{"type":"Feature","properties":{"c":"020804","en":"Roka","km":"រកា"},"geometry":{"type":"Polygon","coordinates":[[[103.5703,13.1381],[103.5353,13.1585],[103.3931,13.1255],[103.3055,13.1125],[103.2811,13.1121],[103.2793,13.1075],[103.2687,13.1019],[103.2657,13.0903],[103.2577,13.0809],[103.2641,13.0727],[103.2917,13.0757],[103.3119,13.0789],[103.3191,13.0901],[103.3255,13.0895],[103.3329,13.0787],[103.3373,13.0625],[103.3413,13.0623],[103.4649,13.0921],[103.5703,13.1381]]]}},{"type":"Feature","properties":{"c":"020803","en":"Ta Pon","km":"តាប៉ុន"},"geometry":{"type":"Polygon","coordinates":[[[103.4683,13.1969],[103.3749,13.2425],[103.3477,13.1861],[103.3309,13.1797],[103.3031,13.1525],[103.2847,13.1499],[103.2853,13.1465],[103.2807,13.1381],[103.2807,13.1231],[103.2777,13.1141],[103.2839,13.1113],[103.3055,13.1125],[103.3931,13.1255],[103.5353,13.1585],[103.4683,13.1969]]]}},{"type":"Feature","properties":{"c":"020810","en":"Vaot Ta Muem","km":"វត្ដតាមិម"},"geometry":{"type":"Polygon","coordinates":[[[103.2297,12.9869],[103.2269,13.0125],[103.2127,13.0369],[103.2045,13.0623],[103.1967,13.0621],[103.1933,13.0531],[103.2009,13.0387],[103.1943,13.0417],[103.1901,13.0393],[103.1875,13.0373],[103.1903,13.0289],[103.1875,13.0263],[103.1837,13.0279],[103.1745,13.0251],[103.1711,13.0109],[103.1677,13.0113],[103.1661,13.0171],[103.1621,13.0171],[103.1639,13.0135],[103.1581,13.0091],[103.1653,13.0067],[103.1695,13.0005],[103.1973,12.9983],[103.2099,12.9479],[103.2291,12.9555],[103.2297,12.9869]]]}}]}