{"type":"FeatureCollection","features":[{"type":"Feature","properties":{"c":"020902","en":"Kampong Lpov","km":"កំពង់ល្ពៅ"},"geometry":{"type":"Polygon","coordinates":[[[102.9957,12.4847],[103.0053,12.5077],[103.0343,12.5245],[103.0325,12.5275],[103.0379,12.5453],[103.0391,12.5595],[103.0469,12.5629],[103.0553,12.5743],[103.0569,12.5821],[103.0621,12.5901],[103.0721,12.5959],[103.0793,12.6041],[103.0845,12.6203],[103.0895,12.6267],[103.0911,12.6357],[103.0825,12.6585],[103.0757,12.6575],[103.0691,12.6491],[103.0577,12.6445],[103.0421,12.6513],[103.0299,12.6461],[103.0267,12.6385],[102.9669,12.6335],[102.9519,12.6397],[102.9335,12.6399],[102.9239,12.6315],[102.9161,12.6287],[102.9149,12.6185],[102.9083,12.6061],[102.9101,12.5989],[102.8949,12.5851],[102.8793,12.5757],[102.8707,12.5765],[102.8547,12.5707],[102.8207,12.5545],[102.8117,12.5319],[102.8141,12.5143],[102.8561,12.5163],[102.8585,12.5057],[102.8657,12.4957],[102.8771,12.4865],[102.8787,12.4781],[102.8865,12.4761],[102.8907,12.4723],[102.8913,12.4617],[102.8959,12.4581],[102.8957,12.4513],[102.9069,12.4421],[102.9067,12.4333],[102.9125,12.4289],[102.9241,12.4345],[102.9427,12.4315],[102.9471,12.4333],[102.9549,12.4429],[102.9747,12.4509],[102.9737,12.4577],[102.9823,12.4723],[102.9957,12.4847]]]}},{"type":"Feature","properties":{"c":"020906","en":"Mean Chey","km":"មានជ័យ"},"geometry":{"type":"Polygon","coordinates":[[[102.8543,12.7077],[102.8561,12.7149],[102.8715,12.7217],[102.8727,12.7279],[102.8671,12.7591],[102.7583,12.7317],[102.7315,12.7337],[102.6667,12.6899],[102.5195,12.6629],[102.5297,12.6549],[102.5391,12.6521],[102.5449,12.6561],[102.5567,12.6533],[102.5665,12.6575],[102.5725,12.6535],[102.5791,12.6535],[102.5819,12.6465],[102.5895,12.6397],[102.5999,12.6455],[102.6125,12.6453],[102.6209,12.6547],[102.6399,12.6591],[102.6443,12.6589],[102.6445,12.6553],[102.6503,12.6557],[102.6581,12.6619],[102.6747,12.6613],[102.6827,12.6691],[102.6873,12.6685],[102.6931,12.6621],[102.7079,12.6627],[102.7091,12.6701],[102.7117,12.6721],[102.7159,12.6709],[102.7185,12.6735],[102.7239,12.6733],[102.7251,12.6769],[102.7427,12.6813],[102.7491,12.6881],[102.7737,12.6693],[102.8071,12.6729],[102.8143,12.6767],[102.8227,12.6771],[102.8263,12.6751],[102.8341,12.6769],[102.8477,12.6891],[102.8505,12.7035],[102.8543,12.7077]]]}},{"type":"Feature","properties":{"c":"020903","en":"Ou Samril","km":"អូរសំរិល"},"geometry":{"type":"Polygon","coordinates":[[[102.9515,12.7511],[102.8671,12.7591],[102.8727,12.7279],[102.8715,12.7217],[102.8561,12.7149],[102.8543,12.7077],[102.8807,12.6935],[102.9193,12.6843],[102.9293,12.6781],[102.9481,12.6825],[102.9573,12.6769],[102.9755,12.6755],[102.9863,12.6877],[102.9911,12.6895],[103.0051,12.6847],[103.0213,12.6875],[103.0403,12.6855],[103.0433,12.6983],[103.0503,12.7069],[103.0447,12.7153],[103.0481,12.7237],[103.0453,12.7303],[102.9871,12.7513],[102.9767,12.7523],[102.9675,12.7477],[102.9515,12.7511]]]}},{"type":"Feature","properties":{"c":"020905","en":"Samlout","km":"សំឡូត"},"geometry":{"type":"Polygon","coordinates":[[[102.8263,12.6751],[102.8227,12.6771],[102.8143,12.6767],[102.8071,12.6729],[102.7737,12.6693],[102.7491,12.6881],[102.7427,12.6813],[102.7251,12.6769],[102.7239,12.6733],[102.7185,12.6735],[102.7159,12.6709],[102.7117,12.6721],[102.7091,12.6701],[102.7079,12.6627],[102.6931,12.6621],[102.6873,12.6685],[102.6827,12.6691],[102.6747,12.6613],[102.6581,12.6619],[102.6503,12.6557],[102.6445,12.6553],[102.6443,12.6589],[102.6399,12.6591],[102.6209,12.6547],[102.6125,12.6453],[102.5999,12.6455],[102.5895,12.6397],[102.5989,12.6307],[102.6059,12.6277],[102.6155,12.6171],[102.6281,12.6141],[102.6297,12.6105],[102.6445,12.6113],[102.6479,12.5981],[102.6451,12.5951],[102.6459,12.5849],[102.6625,12.5815],[102.6673,12.5733],[102.6683,12.5631],[102.6813,12.5531],[102.6841,12.5489],[102.6807,12.5453],[102.6899,12.5415],[102.7071,12.5547],[102.7149,12.5561],[102.7157,12.5605],[102.7193,12.5625],[102.7353,12.5637],[102.7393,12.5593],[102.7557,12.5653],[102.7547,12.6015],[102.7749,12.6137],[102.7859,12.6235],[102.8027,12.6305],[102.8041,12.6391],[102.7987,12.6455],[102.7981,12.6501],[102.8057,12.6577],[102.8235,12.6667],[102.8263,12.6751]]]}},{"type":"Feature","properties":{"c":"020904","en":"Sung","km":"ស៊ុង"},"geometry":{"type":"Polygon","coordinates":[[[102.8207,12.5545],[102.8063,12.5585],[102.8125,12.5839],[102.8085,12.5915],[102.8133,12.6121],[102.8253,12.6129],[102.8299,12.6209],[102.8317,12.6465],[102.8391,12.6673],[102.8371,12.6699],[102.8383,12.6825],[102.8341,12.6769],[102.8263,12.6751],[102.8235,12.6667],[102.8163,12.6645],[102.8003,12.6533],[102.7981,12.6501],[102.7987,12.6455],[102.8041,12.6391],[102.8027,12.6305],[102.7859,12.6235],[102.7749,12.6137],[102.7547,12.6015],[102.7557,12.5653],[102.7393,12.5593],[102.7353,12.5637],[102.7193,12.5625],[102.7157,12.5605],[102.7149,12.5561],[102.7071,12.5547],[102.6899,12.5415],[102.6807,12.5453],[102.6779,12.5413],[102.6795,12.5375],[102.6909,12.5333],[102.6967,12.5269],[102.6965,12.5199],[102.7055,12.5185],[102.7051,12.5149],[102.7113,12.5091],[102.7153,12.5071],[102.7221,12.5119],[102.7279,12.5125],[102.7291,12.5095],[102.7239,12.4999],[102.7255,12.4967],[102.7351,12.4969],[102.7447,12.5005],[102.7505,12.5089],[102.7631,12.5151],[102.7847,12.5139],[102.7859,12.5171],[102.7921,12.5179],[102.8015,12.5119],[102.8141,12.5143],[102.8117,12.5319],[102.8207,12.5545]]]}},{"type":"Feature","properties":{"c":"020907","en":"Ta Sanh","km":"តាសាញ"},"geometry":{"type":"Polygon","coordinates":[[[103.0503,12.7069],[103.0433,12.6983],[103.0403,12.6855],[103.0213,12.6875],[103.0051,12.6847],[102.9911,12.6895],[102.9863,12.6877],[102.9755,12.6755],[102.9573,12.6769],[102.9481,12.6825],[102.9293,12.6781],[102.9193,12.6843],[102.8807,12.6935],[102.8543,12.7077],[102.8505,12.7035],[102.8477,12.6891],[102.8383,12.6825],[102.8371,12.6699],[102.8391,12.6673],[102.8317,12.6465],[102.8299,12.6209],[102.8253,12.6129],[102.8133,12.6121],[102.8117,12.6093],[102.8085,12.5915],[102.8125,12.5839],[102.8063,12.5585],[102.8207,12.5545],[102.8547,12.5707],[102.8707,12.5765],[102.8793,12.5757],[102.8949,12.5851],[102.9101,12.5989],[102.9083,12.6061],[102.9149,12.6185],[102.9161,12.6287],[102.9239,12.6315],[102.9335,12.6399],[102.9519,12.6397],[102.9669,12.6335],[103.0267,12.6385],[103.0299,12.6461],[103.0421,12.6513],[103.0577,12.6445],[103.0691,12.6491],[103.0757,12.6575],[103.0825,12.6585],[103.0897,12.6685],[103.0893,12.6727],[103.0765,12.6889],[103.0605,12.6833],[103.0503,12.7069]]]}},{"type":"Feature","properties":{"c":"020901","en":"Ta Taok","km":"តាតោក"},"geometry":{"type":"Polygon","coordinates":[[[102.8141,12.5143],[102.8015,12.5119],[102.7921,12.5179],[102.7859,12.5171],[102.7847,12.5139],[102.7581,12.5139],[102.7505,12.5089],[102.7447,12.5005],[102.7351,12.4969],[102.7255,12.4967],[102.7203,12.4909],[102.7213,12.4865],[102.7309,12.4903],[102.7341,12.4885],[102.7395,12.4813],[102.7369,12.4673],[102.7429,12.4645],[102.7463,12.4587],[102.7503,12.4615],[102.7535,12.4577],[102.7661,12.4553],[102.7719,12.4385],[102.7743,12.4351],[102.7811,12.4337],[102.7839,12.4271],[102.7871,12.4145],[102.7849,12.4003],[102.7977,12.3811],[102.8095,12.3715],[102.8189,12.3769],[102.8175,12.3857],[102.8205,12.3927],[102.8361,12.4117],[102.8475,12.4091],[102.8531,12.4037],[102.8705,12.3975],[102.8735,12.3983],[102.8771,12.4071],[102.8815,12.4079],[102.8831,12.4123],[102.8945,12.4207],[102.9031,12.4321],[102.9067,12.4333],[102.9077,12.4383],[102.9019,12.4475],[102.8957,12.4513],[102.8959,12.4581],[102.8913,12.4617],[102.8907,12.4723],[102.8865,12.4761],[102.8787,12.4781],[102.8771,12.4865],[102.8657,12.4957],[102.8585,12.5057],[102.8561,12.5163],[102.8141,12.5143]]]}}]}