{"type":"FeatureCollection","features":[{"type":"Feature","properties":{"c":"021002","en":"Angkor Ban","km":"អង្គរបាន"},"geometry":{"type":"Polygon","coordinates":[[[102.5959,13.3611],[102.4755,13.3965],[102.3567,13.3937],[102.3549,13.3867],[102.3925,13.3861],[102.3927,13.3589],[102.5959,13.3611]]]}},{"type":"Feature","properties":{"c":"021006","en":"Chrey Seima","km":"ជ្រៃសីមា"},"geometry":{"type":"Polygon","coordinates":[[[102.6873,13.4611],[102.6869,13.4795],[102.4637,13.4771],[102.4203,13.4785],[102.3573,13.4757],[102.3561,13.4615],[102.6873,13.4611]]]}},{"type":"Feature","properties":{"c":"021001","en":"Sampov Lun","km":"សំពៅលូន"},"geometry":{"type":"Polygon","coordinates":[[[102.6875,13.4017],[102.6875,13.4125],[102.3597,13.4097],[102.3601,13.4019],[102.3567,13.3937],[102.4755,13.3965],[102.5959,13.3611],[102.6879,13.3619],[102.6875,13.4017]]]}},{"type":"Feature","properties":{"c":"021004","en":"Santepheap","km":"សន្ដិភាព"},"geometry":{"type":"Polygon","coordinates":[[[102.6873,13.4307],[102.6873,13.4469],[102.3601,13.4427],[102.3585,13.4353],[102.3611,13.4277],[102.6873,13.4307]]]}},{"type":"Feature","properties":{"c":"021005","en":"Serei Mean Chey","km":"សេរីមានជ័យ"},"geometry":{"type":"Polygon","coordinates":[[[102.6873,13.4611],[102.3561,13.4615],[102.3561,13.4489],[102.3601,13.4427],[102.6873,13.4469],[102.6873,13.4611]]]}},{"type":"Feature","properties":{"c":"021003","en":"Ta Sda","km":"តាស្ដា"},"geometry":{"type":"Polygon","coordinates":[[[102.6875,13.4125],[102.6873,13.4307],[102.3611,13.4277],[102.3597,13.4097],[102.6875,13.4125]]]}}]}