{"type":"FeatureCollection","features":[{"type":"Feature","properties":{"c":"021104","en":"Barang Thleak","km":"បារាំងធ្លាក់"},"geometry":{"type":"Polygon","coordinates":[[[102.6881,13.3523],[102.3829,13.3489],[102.3833,13.3691],[102.3501,13.3667],[102.3453,13.3463],[102.3519,13.3403],[102.3521,13.3335],[102.6883,13.3377],[102.6881,13.3523]]]}},{"type":"Feature","properties":{"c":"021103","en":"Bour","km":"បួរ"},"geometry":{"type":"Polygon","coordinates":[[[102.3925,13.3861],[102.3549,13.3867],[102.3557,13.3795],[102.3501,13.3667],[102.3833,13.3691],[102.3829,13.3489],[102.6881,13.3523],[102.6879,13.3619],[102.3927,13.3589],[102.3925,13.3861]]]}},{"type":"Feature","properties":{"c":"021105","en":"Ou Rumduol","km":"អូររំដួល"},"geometry":{"type":"Polygon","coordinates":[[[102.6891,13.2365],[102.6887,13.2937],[102.3501,13.2907],[102.3495,13.2869],[102.3515,13.2733],[102.3623,13.2685],[102.3671,13.2617],[102.3721,13.2353],[102.6891,13.2365]]]}},{"type":"Feature","properties":{"c":"021102","en":"Pech Chenda","km":"ពេជ្រចិន្ដា"},"geometry":{"type":"Polygon","coordinates":[[[102.6895,13.1993],[102.6891,13.2365],[102.3721,13.2353],[102.3807,13.2215],[102.3859,13.2179],[102.3933,13.1975],[102.6895,13.1993]]]}},{"type":"Feature","properties":{"c":"021101","en":"Phnum Proek","km":"ភ្នំព្រឹក"},"geometry":{"type":"Polygon","coordinates":[[[102.6885,13.3113],[102.6883,13.3377],[102.3521,13.3335],[102.3571,13.3245],[102.3591,13.3107],[102.3501,13.2907],[102.6887,13.2937],[102.6885,13.3113]]]}}]}