{"type":"FeatureCollection","features":[{"type":"Feature","properties":{"c":"021202","en":"Boeng Reang","km":"បឹងរាំង"},"geometry":{"type":"Polygon","coordinates":[[[102.5011,13.0529],[102.4915,13.0609],[102.4893,13.0679],[102.4901,13.0769],[102.4795,13.0867],[102.4873,13.0953],[102.4891,13.1055],[102.5117,13.1161],[102.5035,13.1373],[102.4331,13.0973],[102.4333,13.0929],[102.4371,13.0877],[102.4591,13.0825],[102.4809,13.0431],[102.4843,13.0475],[102.4891,13.0457],[102.4941,13.0505],[102.5011,13.0529]]]}},{"type":"Feature","properties":{"c":"021201","en":"Kamrieng","km":"កំរៀង"},"geometry":{"type":"Polygon","coordinates":[[[102.5859,13.0233],[102.5823,13.0249],[102.5853,13.0289],[102.5809,13.0303],[102.5841,13.0353],[102.5823,13.0415],[102.5837,13.0485],[102.5811,13.0499],[102.5773,13.0605],[102.5749,13.0583],[102.5735,13.0623],[102.5699,13.0613],[102.5679,13.0573],[102.5587,13.0597],[102.5547,13.0573],[102.5349,13.0601],[102.5269,13.0561],[102.5011,13.0529],[102.4941,13.0505],[102.4891,13.0457],[102.4843,13.0475],[102.4809,13.0431],[102.4951,13.0133],[102.5059,13.0059],[102.5233,13.0057],[102.5289,13.0025],[102.5169,12.9961],[102.5151,12.9925],[102.5093,12.9959],[102.5015,12.9917],[102.5007,12.9885],[102.4873,12.9825],[102.5625,12.9807],[102.5793,13.0083],[102.5801,13.0141],[102.5845,13.0153],[102.5833,13.0195],[102.5859,13.0233]]]}},{"type":"Feature","properties":{"c":"021203","en":"Ou Da","km":"អូរដា"},"geometry":{"type":"Polygon","coordinates":[[[102.6331,13.1137],[102.6115,13.1229],[102.6087,13.1261],[102.6069,13.1289],[102.6095,13.1499],[102.5035,13.1373],[102.5117,13.1161],[102.4891,13.1055],[102.4873,13.0953],[102.4795,13.0867],[102.4901,13.0769],[102.4893,13.0679],[102.4915,13.0609],[102.5011,13.0529],[102.5269,13.0561],[102.5349,13.0601],[102.5547,13.0573],[102.5587,13.0597],[102.5679,13.0573],[102.5699,13.0613],[102.5773,13.0655],[102.5797,13.0739],[102.5881,13.0759],[102.5925,13.0807],[102.5919,13.0835],[102.5873,13.0821],[102.5875,13.0865],[102.5991,13.0865],[102.6011,13.0899],[102.5981,13.0939],[102.6021,13.0953],[102.6027,13.0993],[102.6063,13.1005],[102.6099,13.0975],[102.6139,13.0993],[102.6143,13.1023],[102.6219,13.1017],[102.6249,13.1043],[102.6337,13.1053],[102.6351,13.1099],[102.6331,13.1137]]]}},{"type":"Feature","properties":{"c":"021206","en":"Ta Krei","km":"តាក្រី"},"geometry":{"type":"Polygon","coordinates":[[[102.7635,13.1211],[102.7085,13.1995],[102.5601,13.1981],[102.5605,13.1447],[102.6095,13.1499],[102.6069,13.1289],[102.6115,13.1229],[102.6271,13.1155],[102.6433,13.1147],[102.6451,13.1125],[102.6515,13.1159],[102.6631,13.1135],[102.6659,13.1155],[102.6727,13.1113],[102.6805,13.1101],[102.6871,13.1011],[102.6897,13.1037],[102.6945,13.1023],[102.7039,13.1061],[102.7057,13.0957],[102.7117,13.0971],[102.7115,13.0927],[102.7195,13.0979],[102.7329,13.0939],[102.7355,13.0951],[102.7355,13.0989],[102.7317,13.1007],[102.7341,13.1047],[102.7439,13.1011],[102.7439,13.1097],[102.7469,13.1133],[102.7541,13.1117],[102.7601,13.1219],[102.7635,13.1211]]]}},{"type":"Feature","properties":{"c":"021205","en":"Ta Saen","km":"តាសែន"},"geometry":{"type":"Polygon","coordinates":[[[102.5603,13.1763],[102.5601,13.1981],[102.3933,13.1975],[102.3919,13.1853],[102.3935,13.1781],[102.3977,13.1731],[102.4021,13.1513],[102.4063,13.1451],[102.4133,13.1423],[102.4181,13.1357],[102.5603,13.1763]]]}},{"type":"Feature","properties":{"c":"021204","en":"Trang","km":"ត្រាង"},"geometry":{"type":"Polygon","coordinates":[[[102.5605,13.1447],[102.5603,13.1763],[102.4181,13.1357],[102.4171,13.1261],[102.4177,13.1219],[102.4327,13.1021],[102.4331,13.0973],[102.5035,13.1373],[102.5605,13.1447]]]}}]}