{"type":"FeatureCollection","features":[{"type":"Feature","properties":{"c":"021306","en":"Chhnal Moan","km":"ឆ្នាល់មាន់"},"geometry":{"type":"Polygon","coordinates":[[[103.2253,12.7435],[103.2143,12.7607],[103.0355,12.7607],[103.0371,12.7529],[103.0353,12.7397],[103.0385,12.7331],[103.0453,12.7303],[103.0467,12.7275],[103.0481,12.7237],[103.0447,12.7153],[103.0605,12.6833],[103.0765,12.6889],[103.0893,12.6727],[103.0897,12.6685],[103.0825,12.6585],[103.0911,12.6357],[103.0895,12.6267],[103.0845,12.6203],[103.0793,12.6041],[103.0721,12.5959],[103.0621,12.5901],[103.0569,12.5821],[103.0553,12.5743],[103.0469,12.5629],[103.0391,12.5595],[103.0379,12.5453],[103.0325,12.5275],[103.0343,12.5245],[103.0263,12.5211],[103.0211,12.5155],[103.0119,12.5125],[103.0015,12.5021],[102.9957,12.4847],[102.9989,12.4847],[103.0063,12.4777],[103.0225,12.4475],[103.0667,12.4375],[103.0711,12.4401],[103.0723,12.4597],[103.0831,12.4645],[103.1033,12.4637],[103.1053,12.4681],[103.1283,12.4827],[103.1359,12.4849],[103.1367,12.4887],[103.1407,12.4895],[103.1557,12.4813],[103.1597,12.4813],[103.1829,12.5049],[103.2071,12.5113],[103.2271,12.5265],[103.2381,12.5243],[103.2371,12.7209],[103.2253,12.7435]]]}},{"type":"Feature","properties":{"c":"021305","en":"Doun Ba","km":"ដូនបា"},"geometry":{"type":"Polygon","coordinates":[[[103.2557,12.7965],[103.2541,12.8047],[103.1479,12.8225],[103.0401,12.7707],[103.0403,12.7669],[103.0355,12.7607],[103.2143,12.7607],[103.2253,12.7435],[103.2553,12.7607],[103.2557,12.7965]]]}},{"type":"Feature","properties":{"c":"021303","en":"Hab","km":"ហប់"},"geometry":{"type":"Polygon","coordinates":[[[103.3165,12.8389],[103.3125,12.8397],[103.2831,12.8187],[103.2781,12.8101],[103.2787,12.7775],[103.2843,12.7815],[103.2957,12.7703],[103.3489,12.7719],[103.3527,12.7803],[103.3537,12.8031],[103.3559,12.8061],[103.3165,12.8389]]]}},{"type":"Feature","properties":{"c":"021302","en":"Kaos Krala","km":"គាស់ក្រឡ"},"geometry":{"type":"Polygon","coordinates":[[[103.2957,12.7703],[103.2843,12.7815],[103.2787,12.7775],[103.2781,12.8101],[103.2599,12.8041],[103.2589,12.7975],[103.2557,12.7965],[103.2553,12.7607],[103.2253,12.7435],[103.2371,12.7209],[103.2957,12.7703]]]}},{"type":"Feature","properties":{"c":"021304","en":"Preah Phos","km":"ព្រះផុស"},"geometry":{"type":"Polygon","coordinates":[[[103.3299,12.7469],[103.3347,12.7583],[103.3461,12.7671],[103.3489,12.7719],[103.2957,12.7703],[103.2371,12.7209],[103.2381,12.6041],[103.3053,12.6047],[103.3073,12.6347],[103.3039,12.6487],[103.3049,12.6599],[103.3107,12.6703],[103.3135,12.6887],[103.3195,12.6931],[103.3235,12.7357],[103.3299,12.7469]]]}},{"type":"Feature","properties":{"c":"021301","en":"Thipakdei","km":"ធិបតី"},"geometry":{"type":"Polygon","coordinates":[[[103.3165,12.8389],[103.3277,12.8771],[103.3055,12.9089],[103.2473,12.8947],[103.2209,12.8925],[103.1673,12.8321],[103.1479,12.8225],[103.2541,12.8047],[103.2557,12.7965],[103.2589,12.7975],[103.2599,12.8041],[103.2781,12.8101],[103.2831,12.8187],[103.3125,12.8397],[103.3165,12.8389]]]}}]}