{"type":"FeatureCollection","features":[{"type":"Feature","properties":{"c":"021405","en":"Basak","km":"បាសាក់"},"geometry":{"type":"Polygon","coordinates":[[[103.3657,12.6035],[103.3431,12.6057],[103.3427,12.6087],[103.3089,12.6083],[103.3053,12.6047],[103.2381,12.6041],[103.2381,12.5243],[103.2481,12.5197],[103.2555,12.5285],[103.2683,12.5341],[103.2745,12.5429],[103.2813,12.5429],[103.2859,12.5497],[103.3019,12.5461],[103.3035,12.5585],[103.3113,12.5607],[103.3145,12.5587],[103.3277,12.5605],[103.3247,12.5667],[103.3279,12.5677],[103.3601,12.5603],[103.3619,12.5523],[103.3697,12.5505],[103.3857,12.5579],[103.3863,12.5769],[103.3931,12.5823],[103.3657,12.6035]]]}},{"type":"Feature","properties":{"c":"021403","en":"Mukh Reah","km":"មុខរាហ៍"},"geometry":{"type":"Polygon","coordinates":[[[103.6365,12.6029],[103.5593,12.6259],[103.5595,12.5723],[103.5641,12.5699],[103.5489,12.5297],[103.5233,12.5223],[103.5247,12.5053],[103.5393,12.5137],[103.5627,12.5211],[103.6087,12.5247],[103.6149,12.5335],[103.6155,12.5401],[103.6185,12.5417],[103.6233,12.5559],[103.6227,12.5601],[103.6343,12.5667],[103.6339,12.5703],[103.6425,12.5781],[103.6379,12.5903],[103.6343,12.5919],[103.6327,12.5959],[103.6365,12.6029]]]}},{"type":"Feature","properties":{"c":"021401","en":"Preaek Chik","km":"ព្រែកជីក"},"geometry":{"type":"Polygon","coordinates":[[[103.4261,12.6017],[103.4257,12.6353],[103.4371,12.6713],[103.4181,12.6863],[103.3575,12.6843],[103.3089,12.6083],[103.3427,12.6087],[103.3431,12.6057],[103.3657,12.6035],[103.3931,12.5823],[103.3999,12.5845],[103.4083,12.5955],[103.4261,12.6017]]]}},{"type":"Feature","properties":{"c":"021402","en":"Prey Tralach","km":"ព្រៃត្រឡាច"},"geometry":{"type":"Polygon","coordinates":[[[103.4775,12.5217],[103.4889,12.5315],[103.4659,12.5597],[103.4737,12.5763],[103.4717,12.5831],[103.4767,12.5889],[103.4807,12.6489],[103.4615,12.6299],[103.4485,12.6277],[103.4439,12.6243],[103.4443,12.6203],[103.4355,12.6079],[103.4261,12.6017],[103.4083,12.5955],[103.3999,12.5845],[103.3863,12.5769],[103.3853,12.5689],[103.3857,12.5579],[103.3931,12.5597],[103.3997,12.5581],[103.4409,12.5393],[103.4587,12.5355],[103.4685,12.5263],[103.4775,12.5217]]]}},{"type":"Feature","properties":{"c":"021404","en":"Sdok Pravoek","km":"ស្តុកប្រវឹក"},"geometry":{"type":"Polygon","coordinates":[[[103.5265,12.6357],[103.4807,12.6489],[103.4767,12.5889],[103.4717,12.5831],[103.4737,12.5763],[103.4659,12.5597],[103.4889,12.5315],[103.4775,12.5217],[103.4863,12.5147],[103.5139,12.5043],[103.5247,12.5053],[103.5233,12.5223],[103.5489,12.5297],[103.5641,12.5699],[103.5595,12.5723],[103.5593,12.6259],[103.5265,12.6357]]]}}]}