{"type":"FeatureCollection","features":[{"type":"Feature","properties":{"c":"030101","en":"Batheay","km":"បាធាយ"},"geometry":{"type":"Polygon","coordinates":[[[104.9733,11.9715],[104.9713,11.9903],[104.9623,12.0027],[104.9531,12.0103],[104.9359,12.0037],[104.9223,12.0033],[104.9025,11.9975],[104.8889,11.9987],[104.8843,11.9877],[104.8779,11.9873],[104.8785,11.9901],[104.8697,11.9877],[104.8599,11.9825],[104.8527,11.9733],[104.8453,11.9511],[104.8313,11.9429],[104.8287,11.9333],[104.8283,11.9169],[104.8969,11.9337],[104.9077,11.9345],[104.9203,11.9397],[104.9255,11.9371],[104.9365,11.9407],[104.9421,11.9377],[104.9535,11.9497],[104.9537,11.9583],[104.9567,11.9621],[104.9643,11.9655],[104.9687,11.9707],[104.9733,11.9715]]]}},{"type":"Feature","properties":{"c":"030102","en":"Chbar Ampov","km":"ច្បារអំពៅ"},"geometry":{"type":"Polygon","coordinates":[[[104.9899,11.9693],[104.9867,11.9657],[104.9733,11.9715],[104.9687,11.9707],[104.9537,11.9583],[104.9535,11.9497],[104.9445,11.9401],[104.9651,11.9211],[104.9649,11.9075],[104.9897,11.8931],[105.0025,11.9195],[105.0031,11.9321],[105.0073,11.9333],[105.0243,11.9583],[105.0107,11.9663],[104.9971,11.9699],[104.9899,11.9693]]]}},{"type":"Feature","properties":{"c":"030103","en":"Chealea","km":"ជាលា"},"geometry":{"type":"Polygon","coordinates":[[[104.9445,11.9401],[104.9421,11.9377],[104.9365,11.9407],[104.9255,11.9371],[104.9203,11.9397],[104.9077,11.9345],[104.8969,11.9337],[104.9195,11.8911],[104.9227,11.8933],[104.9269,11.8925],[104.9633,11.8743],[104.9671,11.8597],[104.9757,11.8655],[104.9853,11.8779],[104.9897,11.8931],[104.9649,11.9075],[104.9651,11.9211],[104.9445,11.9401]]]}},{"type":"Feature","properties":{"c":"030104","en":"Cheung Prey","km":"ជើងព្រៃ"},"geometry":{"type":"Polygon","coordinates":[[[104.9597,12.0743],[104.9471,12.0747],[104.9331,12.0651],[104.9375,12.0427],[104.9521,12.0277],[104.9529,12.0321],[104.9659,12.0467],[104.9709,12.0485],[104.9817,12.0473],[104.9793,12.0605],[104.9809,12.0687],[104.9783,12.0719],[104.9695,12.0743],[104.9597,12.0743]]]}},{"type":"Feature","properties":{"c":"030105","en":"Me Pring","km":"មេព្រីង"},"geometry":{"type":"Polygon","coordinates":[[[104.9331,12.0651],[104.8845,12.0657],[104.8881,12.0605],[104.8927,12.0405],[104.8877,12.0323],[104.8943,12.0187],[104.8925,12.0127],[104.8887,12.0107],[104.8889,11.9987],[104.8993,11.9971],[104.9223,12.0033],[104.9359,12.0037],[104.9531,12.0103],[104.9565,12.0151],[104.9521,12.0277],[104.9375,12.0427],[104.9331,12.0651]]]}},{"type":"Feature","properties":{"c":"030106","en":"Ph'av","km":"ផ្អាវ"},"geometry":{"type":"Polygon","coordinates":[[[104.9817,12.0473],[104.9709,12.0485],[104.9659,12.0467],[104.9555,12.0357],[104.9521,12.0277],[104.9565,12.0151],[104.9531,12.0103],[104.9623,12.0027],[104.9713,11.9903],[104.9733,11.9715],[104.9867,11.9657],[104.9899,11.9693],[104.9817,11.9797],[104.9757,11.9987],[104.9783,12.0087],[104.9783,12.0367],[104.9817,12.0473]]]}},{"type":"Feature","properties":{"c":"030107","en":"Sambour","km":"សំបូរ"},"geometry":{"type":"Polygon","coordinates":[[[104.9269,11.8925],[104.9227,11.8933],[104.9195,11.8911],[104.8969,11.9337],[104.8283,11.9169],[104.8199,11.8969],[104.8229,11.8851],[104.8369,11.8685],[104.8319,11.8461],[104.8335,11.8373],[104.8309,11.8267],[104.8343,11.8243],[104.8463,11.8247],[104.8519,11.8269],[104.8537,11.8331],[104.8663,11.8275],[104.8737,11.8207],[104.8819,11.8201],[104.9269,11.8925]]]}},{"type":"Feature","properties":{"c":"030108","en":"Sandaek","km":"សណ្ដែក"},"geometry":{"type":"Polygon","coordinates":[[[105.0221,12.2185],[105.0155,12.2227],[105.0121,12.2205],[104.9993,12.2325],[104.9683,12.1357],[104.9663,12.1327],[104.9561,12.1307],[104.9507,12.1243],[104.9497,12.1203],[104.9613,12.1123],[104.9731,12.1081],[104.9889,12.1123],[105.0093,12.1089],[105.0111,12.1117],[105.0127,12.1303],[105.0215,12.1445],[105.0183,12.1497],[105.0193,12.1549],[105.0271,12.1583],[105.0271,12.1619],[105.0209,12.1697],[105.0197,12.1807],[105.0191,12.1947],[105.0259,12.2083],[105.0255,12.2167],[105.0221,12.2185]]]}},{"type":"Feature","properties":{"c":"030109","en":"Tang Krang","km":"តាំងក្រាំង"},"geometry":{"type":"Polygon","coordinates":[[[104.9671,11.8597],[104.9633,11.8743],[104.9269,11.8925],[104.8841,11.8237],[104.8907,11.8223],[104.8995,11.8159],[104.9035,11.8091],[104.9181,11.8093],[104.9217,11.8187],[104.9279,11.8235],[104.9323,11.8311],[104.9395,11.8343],[104.9455,11.8481],[104.9449,11.8523],[104.9539,11.8649],[104.9557,11.8747],[104.9597,11.8619],[104.9641,11.8569],[104.9671,11.8597]]]}},{"type":"Feature","properties":{"c":"030110","en":"Tang Krasang","km":"តាំងក្រសាំង"},"geometry":{"type":"Polygon","coordinates":[[[104.9731,12.1081],[104.9613,12.1123],[104.9497,12.1203],[104.9287,12.1061],[104.9193,12.0935],[104.8823,12.1105],[104.8685,12.0733],[104.8777,12.0741],[104.8819,12.0713],[104.8845,12.0657],[104.9331,12.0651],[104.9471,12.0747],[104.9597,12.0743],[104.9695,12.0913],[104.9697,12.1007],[104.9731,12.1081]]]}},{"type":"Feature","properties":{"c":"030111","en":"Trab","km":"ត្រប់"},"geometry":{"type":"Polygon","coordinates":[[[104.9993,12.2325],[104.9871,12.2433],[104.9819,12.2555],[104.9677,12.2667],[104.9635,12.2653],[104.9629,12.2581],[104.9481,12.2617],[104.9461,12.2593],[104.9379,12.2605],[104.9309,12.2587],[104.9185,12.2623],[104.9163,12.2583],[104.9059,12.2569],[104.9021,12.2517],[104.9017,12.2465],[104.8835,12.2381],[104.8727,12.2381],[104.8773,12.2285],[104.8873,12.2239],[104.8883,12.2203],[104.8853,12.2185],[104.8827,12.2093],[104.8863,12.2063],[104.8975,12.2083],[104.8997,12.2047],[104.9013,12.1893],[104.9019,12.1591],[104.8861,12.1347],[104.8861,12.1215],[104.8823,12.1105],[104.9193,12.0935],[104.9287,12.1061],[104.9497,12.1203],[104.9527,12.1283],[104.9663,12.1327],[104.9993,12.2325]]]}},{"type":"Feature","properties":{"c":"030112","en":"Tumnob","km":"ទំនប់"},"geometry":{"type":"Polygon","coordinates":[[[105.0093,12.1089],[104.9889,12.1123],[104.9731,12.1081],[104.9697,12.1007],[104.9695,12.0913],[104.9597,12.0743],[104.9695,12.0743],[104.9783,12.0719],[104.9809,12.0687],[104.9873,12.0731],[104.9983,12.0723],[105.0087,12.0841],[105.0121,12.0913],[105.0093,12.1089]]]}}]}