{"type":"FeatureCollection","features":[{"type":"Feature","properties":{"c":"030201","en":"Bos Khnor","km":"បុសខ្នុរ"},"geometry":{"type":"Polygon","coordinates":[[[105.4057,12.2063],[105.4037,12.2161],[105.3589,12.2107],[105.2979,12.2095],[105.2159,12.2005],[105.2231,12.1901],[105.2425,12.1777],[105.2833,12.1565],[105.2927,12.1559],[105.3149,12.1411],[105.3463,12.1017],[105.3505,12.1009],[105.3561,12.1061],[105.3769,12.1115],[105.3837,12.1307],[105.3865,12.1347],[105.3911,12.1359],[105.3933,12.1473],[105.4023,12.1621],[105.4233,12.1879],[105.4159,12.1957],[105.4083,12.1997],[105.4057,12.2063]]]}},{"type":"Feature","properties":{"c":"030202","en":"Chamkar Andoung","km":"ចំការអណ្ដូង"},"geometry":{"type":"Polygon","coordinates":[[[105.1993,12.3925],[105.1889,12.3935],[105.1827,12.3977],[105.1735,12.3973],[105.1695,12.4005],[105.1667,12.3975],[105.1679,12.3905],[105.1603,12.3815],[105.1473,12.3789],[105.1293,12.3655],[105.1477,12.3455],[105.1495,12.3375],[105.1527,12.3345],[105.1693,12.3295],[105.1655,12.3191],[105.1655,12.3141],[105.1697,12.3077],[105.1675,12.2995],[105.1725,12.2847],[105.1795,12.2789],[105.1917,12.2857],[105.2169,12.2853],[105.2173,12.3233],[105.2505,12.3233],[105.2665,12.3303],[105.2687,12.3335],[105.2619,12.3395],[105.2653,12.3473],[105.2529,12.3577],[105.2567,12.3679],[105.2717,12.3685],[105.2799,12.3827],[105.2761,12.3843],[105.2673,12.3965],[105.2471,12.3811],[105.2373,12.3645],[105.2297,12.3603],[105.2129,12.3591],[105.2125,12.3685],[105.2239,12.3685],[105.2173,12.3777],[105.1985,12.3813],[105.1993,12.3925]]]}},{"type":"Feature","properties":{"c":"030203","en":"Cheyyou","km":"ជយោ"},"geometry":{"type":"Polygon","coordinates":[[[105.3765,12.2881],[105.3943,12.3029],[105.3991,12.3223],[105.3979,12.3363],[105.3939,12.3433],[105.3773,12.3453],[105.3729,12.3467],[105.3709,12.3505],[105.3615,12.3403],[105.3567,12.3293],[105.3539,12.3279],[105.3461,12.3309],[105.3311,12.3275],[105.3255,12.3303],[105.3181,12.3293],[105.3177,12.3129],[105.3083,12.3111],[105.3095,12.3005],[105.3149,12.3005],[105.3173,12.2963],[105.3167,12.2917],[105.3207,12.2895],[105.3335,12.2903],[105.3489,12.2811],[105.3623,12.2833],[105.3647,12.2867],[105.3731,12.2861],[105.3765,12.2881]]]}},{"type":"Feature","properties":{"c":"030204","en":"Lvea Leu","km":"ល្វាលើ"},"geometry":{"type":"Polygon","coordinates":[[[105.3087,12.3831],[105.2835,12.3847],[105.2799,12.3827],[105.2717,12.3685],[105.2567,12.3679],[105.2529,12.3577],[105.2653,12.3473],[105.2619,12.3395],[105.2687,12.3335],[105.2641,12.3279],[105.2717,12.3203],[105.2843,12.3187],[105.2995,12.3257],[105.2981,12.3489],[105.3081,12.3505],[105.3087,12.3831]]]}},{"type":"Feature","properties":{"c":"030205","en":"Spueu","km":"ស្ពឺ"},"geometry":{"type":"Polygon","coordinates":[[[105.3609,12.3639],[105.3469,12.3569],[105.3319,12.3577],[105.3285,12.3717],[105.3195,12.3759],[105.3147,12.3829],[105.3087,12.3831],[105.3081,12.3505],[105.2981,12.3489],[105.3009,12.3119],[105.3177,12.3129],[105.3181,12.3293],[105.3255,12.3303],[105.3311,12.3275],[105.3461,12.3309],[105.3539,12.3279],[105.3567,12.3293],[105.3615,12.3403],[105.3709,12.3505],[105.3609,12.3639]]]}},{"type":"Feature","properties":{"c":"030206","en":"Svay Teab","km":"ស្វាយទាប"},"geometry":{"type":"Polygon","coordinates":[[[105.2995,12.3257],[105.2795,12.3181],[105.2717,12.3203],[105.2641,12.3279],[105.2467,12.3229],[105.2173,12.3233],[105.2169,12.2853],[105.1917,12.2857],[105.1795,12.2789],[105.1945,12.2659],[105.1957,12.2629],[105.1905,12.2503],[105.2065,12.2533],[105.2413,12.2533],[105.2919,12.2585],[105.3123,12.2655],[105.3155,12.2693],[105.3159,12.2841],[105.3207,12.2895],[105.3167,12.2917],[105.3173,12.2963],[105.3149,12.3005],[105.3095,12.3005],[105.3083,12.3111],[105.3009,12.3119],[105.2995,12.3257]]]}},{"type":"Feature","properties":{"c":"030207","en":"Ta Ong","km":"តាអុង"},"geometry":{"type":"Polygon","coordinates":[[[105.3731,12.2861],[105.3647,12.2867],[105.3623,12.2833],[105.3489,12.2811],[105.3335,12.2903],[105.3235,12.2911],[105.3159,12.2841],[105.3155,12.2693],[105.3123,12.2655],[105.2919,12.2585],[105.2413,12.2533],[105.2065,12.2533],[105.1905,12.2503],[105.1907,12.2381],[105.1973,12.2151],[105.1991,12.2117],[105.2093,12.2079],[105.2159,12.2005],[105.2199,12.2001],[105.2979,12.2095],[105.3589,12.2107],[105.4037,12.2161],[105.3983,12.2373],[105.3931,12.2443],[105.3627,12.2633],[105.3627,12.2693],[105.3731,12.2861]]]}},{"type":"Feature","properties":{"c":"030208","en":"Ta Prok","km":"តាប្រុក"},"geometry":{"type":"Polygon","coordinates":[[[105.2359,12.3945],[105.2179,12.4011],[105.2133,12.4003],[105.2081,12.3945],[105.1993,12.3925],[105.1985,12.3813],[105.2173,12.3777],[105.2239,12.3685],[105.2125,12.3685],[105.2129,12.3591],[105.2297,12.3603],[105.2373,12.3645],[105.2471,12.3811],[105.2673,12.3965],[105.2613,12.3999],[105.2359,12.3945]]]}}]}