{"type":"FeatureCollection","features":[{"type":"Feature","properties":{"c":"030301","en":"Khnor Dambang","km":"ខ្នុរដំបង"},"geometry":{"type":"Polygon","coordinates":[[[105.0269,11.9653],[105.0249,11.9925],[105.0313,12.0575],[105.0311,12.0795],[105.0211,12.0779],[105.0061,12.0701],[104.9969,12.0323],[104.9971,11.9699],[105.0107,11.9663],[105.0243,11.9583],[105.0269,11.9653]]]}},{"type":"Feature","properties":{"c":"030302","en":"Kouk Rovieng","km":"គោករវៀង"},"geometry":{"type":"Polygon","coordinates":[[[105.0253,12.0791],[105.0121,12.0913],[105.0087,12.0841],[104.9983,12.0723],[104.9873,12.0731],[104.9809,12.0687],[104.9793,12.0605],[104.9817,12.0473],[104.9783,12.0367],[104.9783,12.0087],[104.9757,11.9987],[104.9817,11.9797],[104.9899,11.9693],[104.9971,11.9699],[104.9969,12.0323],[105.0039,12.0665],[105.0061,12.0701],[105.0253,12.0791]]]}},{"type":"Feature","properties":{"c":"030303","en":"Pdau Chum","km":"ផ្ដៅជុំ"},"geometry":{"type":"Polygon","coordinates":[[[105.0573,12.0805],[105.0595,12.0893],[105.0577,12.0927],[105.0311,12.0795],[105.0313,12.0575],[105.0249,11.9925],[105.0269,11.9653],[105.0479,11.9709],[105.0473,11.9747],[105.0517,11.9755],[105.0583,11.9813],[105.0577,11.9889],[105.0641,12.0073],[105.0537,12.0291],[105.0543,12.0421],[105.0497,12.0693],[105.0535,12.0781],[105.0573,12.0805]]]}},{"type":"Feature","properties":{"c":"030304","en":"Prey Char","km":"ព្រៃចារ"},"geometry":{"type":"Polygon","coordinates":[[[105.1107,12.0499],[105.0997,12.0567],[105.0833,12.0591],[105.0777,12.0501],[105.0771,12.0301],[105.0811,12.0191],[105.0787,11.9929],[105.0831,11.9791],[105.0853,11.9833],[105.0975,11.9869],[105.0991,11.9899],[105.1053,11.9867],[105.1089,11.9887],[105.1085,12.0009],[105.1051,12.0023],[105.1063,12.0199],[105.1035,12.0417],[105.1037,12.0449],[105.1107,12.0499]]]}},{"type":"Feature","properties":{"c":"030305","en":"Pring Chrum","km":"ព្រីងជ្រុំ"},"geometry":{"type":"Polygon","coordinates":[[[105.0825,12.2219],[105.0535,12.2259],[105.0221,12.2185],[105.0255,12.2167],[105.0255,12.2045],[105.0213,12.2015],[105.0191,12.1947],[105.0209,12.1697],[105.0271,12.1619],[105.0271,12.1583],[105.0239,12.1575],[105.0365,12.1543],[105.0449,12.1567],[105.0671,12.1547],[105.0849,12.1563],[105.0809,12.1899],[105.0825,12.2219]]]}},{"type":"Feature","properties":{"c":"030306","en":"Sampong Chey","km":"សំពងជ័យ"},"geometry":{"type":"Polygon","coordinates":[[[105.1171,12.2063],[105.1127,12.2041],[105.1017,12.2057],[105.0999,12.2221],[105.0825,12.2219],[105.0809,12.1899],[105.0849,12.1563],[105.0935,12.1453],[105.1015,12.1403],[105.1149,12.1365],[105.1281,12.1361],[105.1367,12.1417],[105.1511,12.1441],[105.1563,12.1529],[105.1545,12.1617],[105.1417,12.1753],[105.1393,12.1811],[105.1431,12.1949],[105.1403,12.2031],[105.1501,12.2181],[105.1363,12.2199],[105.1273,12.2131],[105.1261,12.2091],[105.1171,12.2063]]]}},{"type":"Feature","properties":{"c":"030307","en":"Sdaeung Chey","km":"ស្ដើងជ័យ"},"geometry":{"type":"Polygon","coordinates":[[[105.0849,12.1563],[105.0671,12.1547],[105.0449,12.1567],[105.0365,12.1543],[105.0239,12.1575],[105.0193,12.1549],[105.0183,12.1497],[105.0215,12.1445],[105.0127,12.1303],[105.0093,12.1089],[105.0121,12.0913],[105.0215,12.0809],[105.0311,12.0795],[105.0611,12.0949],[105.0827,12.0955],[105.0833,12.0985],[105.0753,12.1081],[105.0765,12.1113],[105.1015,12.1403],[105.0935,12.1453],[105.0849,12.1563]]]}},{"type":"Feature","properties":{"c":"030308","en":"Soutib","km":"សូទិព្វ"},"geometry":{"type":"Polygon","coordinates":[[[105.0833,12.0591],[105.0821,12.0643],[105.0783,12.0669],[105.0613,12.0679],[105.0573,12.0805],[105.0509,12.0737],[105.0537,12.0291],[105.0641,12.0073],[105.0575,11.9851],[105.0643,11.9745],[105.0681,11.9737],[105.0693,11.9777],[105.0729,11.9791],[105.0793,11.9735],[105.0843,11.9741],[105.0787,11.9929],[105.0811,12.0191],[105.0771,12.0301],[105.0769,12.0457],[105.0833,12.0591]]]}},{"type":"Feature","properties":{"c":"030309","en":"Sramar","km":"ស្រម៉រ"},"geometry":{"type":"Polygon","coordinates":[[[105.1247,12.0863],[105.1131,12.0879],[105.1061,12.0971],[105.1023,12.0977],[105.0867,12.0939],[105.0645,12.0957],[105.0577,12.0927],[105.0595,12.0893],[105.0573,12.0805],[105.0613,12.0679],[105.0783,12.0669],[105.0821,12.0643],[105.0833,12.0591],[105.0997,12.0567],[105.1107,12.0499],[105.1121,12.0575],[105.1209,12.0673],[105.1247,12.0863]]]}},{"type":"Feature","properties":{"c":"030310","en":"Trapeang Kor","km":"ត្រពាំងគរ"},"geometry":{"type":"Polygon","coordinates":[[[105.1317,12.1369],[105.1187,12.1359],[105.1015,12.1403],[105.0765,12.1113],[105.0753,12.1081],[105.0833,12.0985],[105.0827,12.0955],[105.0915,12.0943],[105.1023,12.0977],[105.1061,12.0971],[105.1131,12.0879],[105.1199,12.0861],[105.1311,12.0881],[105.1307,12.1089],[105.1393,12.1097],[105.1321,12.1265],[105.1317,12.1369]]]}}]}