{"type":"FeatureCollection","features":[{"type":"Feature","properties":{"c":"030501","en":"Boeng Kok","km":"សង្កាត់បឹងកុក"},"geometry":{"type":"Polygon","coordinates":[[[105.4731,12.0035],[105.4715,12.0077],[105.4729,12.0179],[105.4643,12.0155],[105.4537,12.0045],[105.4457,12.0043],[105.4455,11.9981],[105.4579,12.0007],[105.4711,11.9933],[105.4731,12.0035]]]}},{"type":"Feature","properties":{"c":"030502","en":"Kampong Cham","km":"សង្កាត់កំពង់ចាម"},"geometry":{"type":"Polygon","coordinates":[[[105.4711,11.9933],[105.4579,12.0007],[105.4545,12.0001],[105.4537,11.9967],[105.4711,11.9843],[105.4711,11.9933]]]}},{"type":"Feature","properties":{"c":"030503","en":"Sambuor Meas","km":"សង្កាត់សំបួរមាស"},"geometry":{"type":"Polygon","coordinates":[[[105.4621,11.9761],[105.4519,11.9829],[105.4515,11.9933],[105.4477,11.9941],[105.4455,11.9909],[105.4381,11.9917],[105.4371,11.9877],[105.4235,11.9915],[105.4007,11.9857],[105.4003,11.9705],[105.4307,11.9703],[105.4311,11.9607],[105.4621,11.9761]]]}},{"type":"Feature","properties":{"c":"030504","en":"Veal Vong","km":"សង្កាត់វាលវង់"},"geometry":{"type":"Polygon","coordinates":[[[105.4711,11.9843],[105.4537,11.9967],[105.4545,12.0001],[105.4455,11.9981],[105.4477,11.9941],[105.4515,11.9933],[105.4519,11.9829],[105.4621,11.9761],[105.4705,11.9789],[105.4711,11.9843]]]}}]}