{"type":"FeatureCollection","features":[{"type":"Feature","properties":{"c":"030601","en":"Ampil","km":"អំពិល"},"geometry":{"type":"Polygon","coordinates":[[[105.4457,12.0043],[105.4457,12.0089],[105.4381,12.0253],[105.4309,12.0261],[105.4285,12.0301],[105.4295,12.0361],[105.4243,12.0397],[105.4207,12.0393],[105.4141,12.0271],[105.4019,12.0179],[105.3899,12.0195],[105.3783,11.9747],[105.4041,11.9877],[105.4235,11.9915],[105.4371,11.9877],[105.4381,11.9917],[105.4455,11.9909],[105.4477,11.9941],[105.4457,12.0043]]]}},{"type":"Feature","properties":{"c":"030602","en":"Hanchey","km":"ហាន់ជ័យ"},"geometry":{"type":"Polygon","coordinates":[[[105.4923,12.1761],[105.4837,12.1773],[105.4813,12.1663],[105.4889,12.1303],[105.4925,12.1315],[105.5037,12.1277],[105.5299,12.1153],[105.5341,12.1313],[105.5369,12.1641],[105.5287,12.1675],[105.5075,12.1679],[105.4923,12.1761]]]}},{"type":"Feature","properties":{"c":"030605","en":"Kaoh Mitt","km":"កោះមិត្ដ"},"geometry":{"type":"Polygon","coordinates":[[[105.4693,11.9465],[105.4705,11.9789],[105.4311,11.9607],[105.4223,11.9415],[105.4071,11.9377],[105.4059,11.9287],[105.4185,11.9269],[105.4693,11.9465]]]}},{"type":"Feature","properties":{"c":"030606","en":"Kaoh Roka","km":"កោះរកា"},"geometry":{"type":"Polygon","coordinates":[[[105.4311,11.9607],[105.4307,11.9703],[105.4003,11.9705],[105.4007,11.9857],[105.3753,11.9731],[105.3899,11.9417],[105.3981,11.9435],[105.4071,11.9377],[105.4223,11.9415],[105.4311,11.9607]]]}},{"type":"Feature","properties":{"c":"030607","en":"Kaoh Samraong","km":"កោះសំរោង"},"geometry":{"type":"Polygon","coordinates":[[[105.5421,12.0701],[105.5305,12.1019],[105.5189,12.0917],[105.5073,12.0701],[105.4931,12.0573],[105.4857,12.0387],[105.4907,12.0247],[105.5037,12.0319],[105.5263,12.0309],[105.5369,12.0339],[105.5445,12.0439],[105.5483,12.0563],[105.5421,12.0701]]]}},{"type":"Feature","properties":{"c":"030608","en":"Kaoh Tontuem","km":"កោះទន្ទឹម"},"geometry":{"type":"Polygon","coordinates":[[[105.4071,11.9377],[105.4043,11.9411],[105.3941,11.9435],[105.3619,11.9317],[105.3563,11.9273],[105.3777,11.9219],[105.3927,11.9283],[105.4059,11.9287],[105.4071,11.9377]]]}},{"type":"Feature","properties":{"c":"030603","en":"Kien Chrey","km":"កៀនជ្រៃ"},"geometry":{"type":"Polygon","coordinates":[[[105.5123,12.0801],[105.4895,12.1047],[105.4891,12.1247],[105.4625,12.1195],[105.4617,12.1119],[105.4681,12.0821],[105.4661,12.0687],[105.4789,12.0687],[105.4845,12.0665],[105.4931,12.0573],[105.5073,12.0701],[105.5123,12.0801]]]}},{"type":"Feature","properties":{"c":"030604","en":"Kokor","km":"គគរ"},"geometry":{"type":"Polygon","coordinates":[[[105.3753,11.9731],[105.3343,11.9725],[105.3379,11.9645],[105.3381,11.9507],[105.3431,11.9413],[105.3445,11.9303],[105.3563,11.9273],[105.3619,11.9317],[105.3899,11.9417],[105.3753,11.9731]]]}},{"type":"Feature","properties":{"c":"030609","en":"Krala","km":"ក្រឡា"},"geometry":{"type":"Polygon","coordinates":[[[105.3971,12.0845],[105.3879,12.0829],[105.3761,12.0711],[105.3701,12.0605],[105.3553,12.0537],[105.3557,12.0497],[105.3643,12.0389],[105.3759,12.0345],[105.3899,12.0195],[105.4019,12.0179],[105.4141,12.0271],[105.4207,12.0393],[105.4243,12.0397],[105.4239,12.0435],[105.4165,12.0463],[105.4115,12.0517],[105.3971,12.0845]]]}},{"type":"Feature","properties":{"c":"030610","en":"Ou Svay","km":"អូរស្វាយ"},"geometry":{"type":"Polygon","coordinates":[[[105.4079,12.1037],[105.3911,12.1359],[105.3865,12.1347],[105.3787,12.1199],[105.3769,12.1115],[105.3561,12.1061],[105.3505,12.1009],[105.3463,12.1017],[105.3519,12.0831],[105.3465,12.0545],[105.3553,12.0537],[105.3701,12.0605],[105.3761,12.0711],[105.3879,12.0829],[105.3971,12.0845],[105.3975,12.0933],[105.4019,12.1001],[105.4079,12.1037]]]}},{"type":"Feature","properties":{"c":"030611","en":"Ro'ang","km":"រអាង"},"geometry":{"type":"Polygon","coordinates":[[[105.4931,12.0573],[105.4845,12.0665],[105.4789,12.0687],[105.4561,12.0679],[105.4509,12.0667],[105.4469,12.0599],[105.4305,12.0511],[105.4287,12.0465],[105.4239,12.0435],[105.4243,12.0397],[105.4295,12.0361],[105.4285,12.0301],[105.4309,12.0261],[105.4381,12.0253],[105.4457,12.0089],[105.4457,12.0043],[105.4537,12.0045],[105.4643,12.0155],[105.4729,12.0179],[105.4881,12.0419],[105.4931,12.0573]]]}},{"type":"Feature","properties":{"c":"030612","en":"Rumchek","km":"រំចេក"},"geometry":{"type":"Polygon","coordinates":[[[105.5299,12.1153],[105.5037,12.1277],[105.4925,12.1315],[105.4889,12.1303],[105.4895,12.1047],[105.5123,12.0801],[105.5189,12.0917],[105.5305,12.1019],[105.5299,12.1153]]]}},{"type":"Feature","properties":{"c":"030613","en":"Srak","km":"ស្រក"},"geometry":{"type":"Polygon","coordinates":[[[105.4837,12.1773],[105.4233,12.1879],[105.4087,12.1723],[105.3925,12.1443],[105.3911,12.1359],[105.4013,12.1189],[105.4049,12.1063],[105.4079,12.1037],[105.4227,12.1121],[105.4375,12.1129],[105.4499,12.1187],[105.4891,12.1247],[105.4817,12.1621],[105.4837,12.1773]]]}},{"type":"Feature","properties":{"c":"030614","en":"Trean","km":"ទ្រាន"},"geometry":{"type":"Polygon","coordinates":[[[105.4661,12.0687],[105.4681,12.0821],[105.4617,12.1119],[105.4625,12.1195],[105.4499,12.1187],[105.4375,12.1129],[105.4191,12.1109],[105.4019,12.1001],[105.3975,12.0933],[105.3971,12.0845],[105.4033,12.0739],[105.4077,12.0583],[105.4137,12.0489],[105.4195,12.0447],[105.4239,12.0435],[105.4287,12.0465],[105.4339,12.0545],[105.4469,12.0599],[105.4509,12.0667],[105.4661,12.0687]]]}},{"type":"Feature","properties":{"c":"030615","en":"Vihear Thum","km":"វិហារធំ"},"geometry":{"type":"Polygon","coordinates":[[[105.3899,12.0195],[105.3759,12.0345],[105.3643,12.0389],[105.3557,12.0497],[105.3529,12.0469],[105.3541,12.0351],[105.3481,12.0189],[105.3277,11.9975],[105.3343,11.9725],[105.3783,11.9747],[105.3899,12.0195]]]}}]}