{"type":"FeatureCollection","features":[{"type":"Feature","properties":{"c":"030701","en":"Angkor Ban","km":"អង្គរបាន"},"geometry":{"type":"Polygon","coordinates":[[[105.2381,11.9669],[105.2335,11.9791],[105.2193,11.9897],[105.2129,11.9919],[105.2033,11.9809],[105.1979,11.9699],[105.1961,11.9507],[105.2371,11.9425],[105.2381,11.9669]]]}},{"type":"Feature","properties":{"c":"030702","en":"Kang Ta Noeng","km":"កងតាណឹង"},"geometry":{"type":"Polygon","coordinates":[[[105.0877,11.9035],[105.0767,11.9045],[105.0585,11.9119],[105.0437,11.9005],[105.0445,11.8897],[105.0413,11.8725],[105.0437,11.8629],[105.0383,11.8503],[105.0657,11.8455],[105.0897,11.8481],[105.0877,11.9035]]]}},{"type":"Feature","properties":{"c":"030703","en":"Khchau","km":"ខ្ចៅ"},"geometry":{"type":"Polygon","coordinates":[[[105.1697,11.9339],[105.1675,11.9417],[105.1541,11.9569],[105.1371,11.9457],[105.0969,11.9111],[105.1131,11.9013],[105.1371,11.8963],[105.1481,11.9137],[105.1697,11.9339]]]}},{"type":"Feature","properties":{"c":"030704","en":"Peam Chi Kang","km":"ពាមជីកង"},"geometry":{"type":"Polygon","coordinates":[[[105.2689,11.9665],[105.2569,11.9683],[105.2381,11.9669],[105.2371,11.9425],[105.2127,11.9481],[105.2137,11.9291],[105.2287,11.9221],[105.2475,11.9253],[105.2509,11.9267],[105.2535,11.9317],[105.2727,11.9353],[105.2709,11.9445],[105.2725,11.9517],[105.2687,11.9569],[105.2689,11.9665]]]}},{"type":"Feature","properties":{"c":"030705","en":"Preaek Koy","km":"ព្រែកកុយ"},"geometry":{"type":"Polygon","coordinates":[[[105.0585,11.9119],[105.0457,11.9485],[105.0389,11.9591],[105.0361,11.9685],[105.0269,11.9653],[105.0073,11.9333],[105.0031,11.9321],[105.0025,11.9195],[104.9915,11.8997],[104.9871,11.8819],[104.9937,11.8775],[104.9989,11.8671],[105.0027,11.8679],[105.0051,11.8727],[105.0115,11.8715],[105.0183,11.8795],[105.0227,11.8803],[105.0297,11.8867],[105.0391,11.8991],[105.0475,11.9027],[105.0585,11.9119]]]}},{"type":"Feature","properties":{"c":"030706","en":"Preaek Krabau","km":"ព្រែកក្របៅ"},"geometry":{"type":"Polygon","coordinates":[[[105.2709,12.0187],[105.2571,12.0183],[105.2343,12.0231],[105.2345,11.9993],[105.2233,11.9989],[105.2211,11.9957],[105.2023,11.9921],[105.2041,11.9887],[105.2161,11.9911],[105.2309,11.9817],[105.2367,11.9737],[105.2381,11.9669],[105.2903,11.9687],[105.3049,11.9777],[105.3131,11.9861],[105.3163,11.9971],[105.3067,12.0047],[105.2953,12.0059],[105.2709,12.0187]]]}},{"type":"Feature","properties":{"c":"030707","en":"Reay Pay","km":"រាយប៉ាយ"},"geometry":{"type":"Polygon","coordinates":[[[105.1277,12.0035],[105.1157,12.0037],[105.1085,12.0009],[105.1089,11.9887],[105.1053,11.9867],[105.0991,11.9899],[105.0975,11.9869],[105.0853,11.9833],[105.0831,11.9791],[105.0843,11.9741],[105.0793,11.9735],[105.0729,11.9791],[105.0693,11.9777],[105.0681,11.9737],[105.0643,11.9745],[105.0583,11.9813],[105.0517,11.9755],[105.0473,11.9747],[105.0479,11.9709],[105.0361,11.9685],[105.0389,11.9591],[105.0457,11.9485],[105.0585,11.9119],[105.0767,11.9045],[105.0877,11.9035],[105.1371,11.9457],[105.1541,11.9569],[105.1277,12.0035]]]}},{"type":"Feature","properties":{"c":"030708","en":"Roka Ar","km":"រកាអារ"},"geometry":{"type":"Polygon","coordinates":[[[105.1371,11.8963],[105.1131,11.9013],[105.0969,11.9111],[105.0877,11.9035],[105.0897,11.8481],[105.1035,11.8455],[105.1235,11.8559],[105.1325,11.8695],[105.1371,11.8963]]]}},{"type":"Feature","properties":{"c":"030709","en":"Roka Koy","km":"រកាគយ"},"geometry":{"type":"Polygon","coordinates":[[[105.3277,11.9975],[105.3163,11.9971],[105.3131,11.9861],[105.2943,11.9705],[105.2689,11.9665],[105.2687,11.9569],[105.2725,11.9517],[105.2709,11.9445],[105.2727,11.9353],[105.3445,11.9303],[105.3431,11.9413],[105.3381,11.9507],[105.3379,11.9645],[105.3347,11.9685],[105.3277,11.9975]]]}},{"type":"Feature","properties":{"c":"030710","en":"Sdau","km":"ស្ដៅ"},"geometry":{"type":"Polygon","coordinates":[[[105.0383,11.8503],[105.0437,11.8629],[105.0413,11.8725],[105.0445,11.8897],[105.0437,11.9005],[105.0391,11.8991],[105.0297,11.8867],[105.0227,11.8803],[105.0183,11.8795],[105.0115,11.8715],[105.0051,11.8727],[105.0027,11.8679],[104.9989,11.8671],[105.0055,11.8545],[105.0383,11.8503]]]}},{"type":"Feature","properties":{"c":"030711","en":"Sour Kong","km":"សូរគង"},"geometry":{"type":"Polygon","coordinates":[[[105.1923,12.0031],[105.1749,12.0099],[105.1687,12.0089],[105.1659,12.0035],[105.1619,12.0017],[105.1619,12.0135],[105.1525,12.0173],[105.1431,12.0081],[105.1331,12.0023],[105.1277,12.0035],[105.1541,11.9569],[105.1675,11.9417],[105.1697,11.9339],[105.1737,11.9347],[105.1807,11.9443],[105.1961,11.9507],[105.1979,11.9699],[105.2095,11.9887],[105.2041,11.9887],[105.2023,11.9921],[105.1963,11.9933],[105.1923,12.0031]]]}}]}