{"type":"FeatureCollection","features":[{"type":"Feature","properties":{"c":"030801","en":"Kampong Reab","km":"កំពង់រាប"},"geometry":{"type":"Polygon","coordinates":[[[105.3563,11.9273],[105.3479,11.9285],[105.3445,11.9227],[105.3449,11.9081],[105.3411,11.8823],[105.3513,11.8809],[105.3727,11.8827],[105.3839,11.8801],[105.3941,11.8961],[105.3999,11.8989],[105.4009,11.9031],[105.3777,11.9219],[105.3563,11.9273]]]}},{"type":"Feature","properties":{"c":"030802","en":"Kaoh Sotin","km":"កោះសូទិន"},"geometry":{"type":"Polygon","coordinates":[[[105.4549,11.9137],[105.4637,11.9269],[105.4693,11.9465],[105.4185,11.9269],[105.4001,11.9295],[105.3777,11.9219],[105.4009,11.9031],[105.4179,11.8965],[105.4269,11.8989],[105.4549,11.9137]]]}},{"type":"Feature","properties":{"c":"030803","en":"Lve","km":"ល្វេ"},"geometry":{"type":"Polygon","coordinates":[[[105.3411,11.8823],[105.3373,11.8803],[105.3283,11.8847],[105.3193,11.8847],[105.3209,11.8709],[105.3297,11.8679],[105.3393,11.8559],[105.3503,11.8521],[105.3621,11.8565],[105.3729,11.8491],[105.3737,11.8443],[105.3811,11.8447],[105.3913,11.8387],[105.4013,11.8465],[105.4051,11.8449],[105.4111,11.8495],[105.4161,11.8443],[105.4199,11.8445],[105.4223,11.8579],[105.4061,11.8621],[105.4041,11.8705],[105.3971,11.8741],[105.3727,11.8827],[105.3513,11.8809],[105.3411,11.8823]]]}},{"type":"Feature","properties":{"c":"030805","en":"Moha Khnhoung","km":"មហាខ្ញូង"},"geometry":{"type":"Polygon","coordinates":[[[105.3445,11.9303],[105.3087,11.9339],[105.2881,11.9339],[105.2899,11.9259],[105.3125,11.8995],[105.3147,11.8939],[105.3123,11.8863],[105.3283,11.8847],[105.3373,11.8803],[105.3411,11.8823],[105.3449,11.9081],[105.3445,11.9227],[105.3479,11.9285],[105.3445,11.9303]]]}},{"type":"Feature","properties":{"c":"030804","en":"Moha Leaph","km":"មហាលាភ"},"geometry":{"type":"Polygon","coordinates":[[[105.4499,11.8653],[105.4395,11.8695],[105.4213,11.8687],[105.4197,11.8643],[105.4223,11.8579],[105.4199,11.8445],[105.4161,11.8443],[105.4111,11.8495],[105.4051,11.8449],[105.4049,11.8417],[105.4093,11.8401],[105.4117,11.8333],[105.4187,11.8277],[105.4443,11.8335],[105.4469,11.8363],[105.4499,11.8653]]]}},{"type":"Feature","properties":{"c":"030806","en":"Peam Prathnuoh","km":"ពាមប្រធ្នោះ"},"geometry":{"type":"Polygon","coordinates":[[[105.4601,11.9079],[105.4549,11.9137],[105.4269,11.8989],[105.4179,11.8965],[105.4009,11.9031],[105.3999,11.8989],[105.3941,11.8961],[105.3839,11.8801],[105.4041,11.8705],[105.4061,11.8621],[105.4223,11.8579],[105.4197,11.8643],[105.4273,11.8845],[105.4333,11.8893],[105.4375,11.8865],[105.4409,11.8919],[105.4535,11.8903],[105.4559,11.8919],[105.4509,11.8981],[105.4577,11.9025],[105.4601,11.9079]]]}},{"type":"Feature","properties":{"c":"030807","en":"Pongro","km":"ពង្រ"},"geometry":{"type":"MultiPolygon","coordinates":[[[[105.4535,11.8763],[105.4499,11.8653],[105.4395,11.8695],[105.4213,11.8687],[105.4251,11.8811],[105.4333,11.8893],[105.4375,11.8865],[105.4409,11.8919],[105.4535,11.8903],[105.4535,11.8763]]],[[[105.4559,11.8919],[105.4509,11.8981],[105.4577,11.9025],[105.4601,11.9079],[105.4669,11.9009],[105.4591,11.8939],[105.4559,11.8919]]]]}},{"type":"Feature","properties":{"c":"030808","en":"Preaek Ta Nong","km":"ព្រែកតានង់"},"geometry":{"type":"Polygon","coordinates":[[[105.3193,11.8847],[105.3123,11.8863],[105.3147,11.8939],[105.3125,11.8995],[105.2899,11.9259],[105.2889,11.9231],[105.2755,11.9173],[105.2645,11.8985],[105.2635,11.8929],[105.2683,11.8839],[105.2625,11.8619],[105.2681,11.8425],[105.2757,11.8411],[105.2793,11.8475],[105.2871,11.8461],[105.2885,11.8509],[105.2843,11.8571],[105.2885,11.8559],[105.3147,11.8643],[105.3221,11.8641],[105.3265,11.8701],[105.3209,11.8709],[105.3193,11.8847]]]}}]}