{"type":"FeatureCollection","features":[{"type":"Feature","properties":{"c":"031301","en":"Baray","km":"បារាយណ៍"},"geometry":{"type":"Polygon","coordinates":[[[105.2603,12.0703],[105.2709,12.0789],[105.2791,12.1015],[105.2783,12.1305],[105.2567,12.1249],[105.2513,12.1197],[105.2513,12.1161],[105.2313,12.1003],[105.2125,12.0957],[105.2137,12.0919],[105.2089,12.0851],[105.2095,12.0811],[105.2215,12.0809],[105.2223,12.0747],[105.2329,12.0733],[105.2351,12.0695],[105.2603,12.0703]]]}},{"type":"Feature","properties":{"c":"031302","en":"Boeng Nay","km":"បឹងណាយ"},"geometry":{"type":"Polygon","coordinates":[[[105.1991,12.2117],[105.2019,12.1997],[105.1933,12.1901],[105.1857,12.1955],[105.1739,12.1953],[105.1655,12.2031],[105.1639,12.2107],[105.1547,12.2123],[105.1501,12.2181],[105.1403,12.2031],[105.1431,12.1949],[105.1393,12.1811],[105.1417,12.1753],[105.1545,12.1617],[105.1563,12.1529],[105.1511,12.1441],[105.1401,12.1429],[105.1337,12.1393],[105.1313,12.1305],[105.1413,12.1055],[105.1491,12.0971],[105.1777,12.0969],[105.1813,12.1469],[105.1851,12.1537],[105.2039,12.1621],[105.2167,12.1723],[105.2131,12.1783],[105.2217,12.1861],[105.2231,12.1901],[105.2093,12.2079],[105.1991,12.2117]]]}},{"type":"Feature","properties":{"c":"031303","en":"Chrey Vien","km":"ជ្រៃវៀន"},"geometry":{"type":"Polygon","coordinates":[[[105.2603,12.0703],[105.2351,12.0695],[105.2323,12.0553],[105.2279,12.0483],[105.2249,12.0473],[105.2233,11.9989],[105.2345,11.9993],[105.2343,12.0231],[105.2571,12.0183],[105.2747,12.0179],[105.2741,12.0267],[105.2811,12.0327],[105.2745,12.0397],[105.2661,12.0403],[105.2589,12.0459],[105.2639,12.0629],[105.2603,12.0703]]]}},{"type":"Feature","properties":{"c":"031304","en":"Khvet Thum","km":"ខ្វិតធំ"},"geometry":{"type":"Polygon","coordinates":[[[105.2095,12.0811],[105.2001,12.0813],[105.1985,12.0751],[105.1945,12.0737],[105.1875,12.0619],[105.1969,12.0585],[105.1999,12.0467],[105.2077,12.0467],[105.2107,12.0441],[105.2245,12.0443],[105.2323,12.0553],[105.2351,12.0695],[105.2329,12.0733],[105.2223,12.0747],[105.2215,12.0809],[105.2095,12.0811]]]}},{"type":"Feature","properties":{"c":"031305","en":"Kor","km":"គរ"},"geometry":{"type":"Polygon","coordinates":[[[105.2513,12.1197],[105.2337,12.1337],[105.2275,12.1537],[105.2185,12.1695],[105.2097,12.1509],[105.1975,12.1355],[105.1995,12.1255],[105.1947,12.0927],[105.2313,12.1003],[105.2513,12.1161],[105.2513,12.1197]]]}},{"type":"Feature","properties":{"c":"031306","en":"Krouch","km":"ក្រូច"},"geometry":{"type":"Polygon","coordinates":[[[105.2185,12.1695],[105.2167,12.1723],[105.2039,12.1621],[105.1851,12.1537],[105.1813,12.1469],[105.1773,12.1087],[105.1777,12.0969],[105.1801,12.0931],[105.1947,12.0927],[105.1995,12.1255],[105.1975,12.1355],[105.2097,12.1509],[105.2185,12.1695]]]}},{"type":"Feature","properties":{"c":"031307","en":"Lvea","km":"ល្វា"},"geometry":{"type":"Polygon","coordinates":[[[105.1875,12.0619],[105.1847,12.0645],[105.1761,12.0653],[105.1733,12.0717],[105.1697,12.0691],[105.1703,12.0583],[105.1673,12.0505],[105.1619,12.0447],[105.1513,12.0431],[105.1525,12.0173],[105.1619,12.0135],[105.1619,12.0017],[105.1659,12.0035],[105.1687,12.0089],[105.1749,12.0099],[105.1923,12.0031],[105.1903,12.0153],[105.1933,12.0195],[105.1943,12.0301],[105.1999,12.0467],[105.1969,12.0585],[105.1875,12.0619]]]}},{"type":"Feature","properties":{"c":"031308","en":"Mien","km":"មៀន"},"geometry":{"type":"Polygon","coordinates":[[[105.3465,12.0545],[105.3101,12.0525],[105.2793,12.0553],[105.2635,12.0597],[105.2585,12.0493],[105.2605,12.0431],[105.2745,12.0397],[105.2811,12.0327],[105.2741,12.0267],[105.2747,12.0179],[105.2953,12.0059],[105.3067,12.0047],[105.3163,11.9971],[105.3205,11.9969],[105.3277,11.9975],[105.3497,12.0223],[105.3541,12.0351],[105.3529,12.0469],[105.3557,12.0497],[105.3553,12.0537],[105.3465,12.0545]]]}},{"type":"Feature","properties":{"c":"031309","en":"Prey Chhor","km":"ព្រៃឈរ"},"geometry":{"type":"Polygon","coordinates":[[[105.1947,12.0927],[105.1833,12.0923],[105.1777,12.0969],[105.1727,12.0963],[105.1719,12.0751],[105.1761,12.0653],[105.1847,12.0645],[105.1875,12.0619],[105.1945,12.0737],[105.1985,12.0751],[105.2001,12.0813],[105.2095,12.0811],[105.2105,12.0897],[105.2137,12.0919],[105.2125,12.0957],[105.1947,12.0927]]]}},{"type":"Feature","properties":{"c":"031311","en":"Samraong","km":"សំរោង"},"geometry":{"type":"Polygon","coordinates":[[[105.1513,12.0353],[105.1425,12.0361],[105.1409,12.0507],[105.1107,12.0499],[105.1061,12.0469],[105.1035,12.0417],[105.1063,12.0199],[105.1051,12.0023],[105.1331,12.0023],[105.1431,12.0081],[105.1525,12.0173],[105.1513,12.0353]]]}},{"type":"Feature","properties":{"c":"031310","en":"Sour Saen","km":"សូរ្យសែន"},"geometry":{"type":"Polygon","coordinates":[[[105.1491,12.0971],[105.1449,12.0999],[105.1393,12.1097],[105.1307,12.1089],[105.1311,12.0881],[105.1247,12.0863],[105.1209,12.0673],[105.1227,12.0651],[105.1393,12.0655],[105.1401,12.0695],[105.1697,12.0691],[105.1733,12.0717],[105.1727,12.0963],[105.1491,12.0971]]]}},{"type":"Feature","properties":{"c":"031312","en":"Sragnae","km":"ស្រង៉ែ"},"geometry":{"type":"Polygon","coordinates":[[[105.1619,12.0693],[105.1401,12.0695],[105.1393,12.0655],[105.1227,12.0651],[105.1209,12.0673],[105.1121,12.0575],[105.1107,12.0499],[105.1409,12.0507],[105.1425,12.0361],[105.1513,12.0353],[105.1513,12.0431],[105.1619,12.0447],[105.1673,12.0505],[105.1703,12.0583],[105.1697,12.0691],[105.1619,12.0693]]]}},{"type":"Feature","properties":{"c":"031313","en":"Thma Pun","km":"ថ្មពូន"},"geometry":{"type":"Polygon","coordinates":[[[105.2867,12.1563],[105.2587,12.1685],[105.2231,12.1901],[105.2217,12.1861],[105.2131,12.1783],[105.2275,12.1537],[105.2337,12.1337],[105.2513,12.1197],[105.2567,12.1249],[105.2783,12.1305],[105.2811,12.1443],[105.2867,12.1563]]]}},{"type":"Feature","properties":{"c":"031314","en":"Tong Rong","km":"តុងរ៉ុង"},"geometry":{"type":"Polygon","coordinates":[[[105.2245,12.0443],[105.2107,12.0441],[105.2077,12.0467],[105.1999,12.0467],[105.1943,12.0301],[105.1933,12.0195],[105.1903,12.0153],[105.1963,11.9933],[105.2023,11.9921],[105.2211,11.9957],[105.2233,11.9989],[105.2245,12.0443]]]}},{"type":"Feature","properties":{"c":"031315","en":"Trapeang Preah","km":"ត្រពាំងព្រះ"},"geometry":{"type":"Polygon","coordinates":[[[105.3463,12.1017],[105.3149,12.1411],[105.2927,12.1559],[105.2867,12.1563],[105.2811,12.1443],[105.2783,12.1305],[105.2791,12.1015],[105.2709,12.0789],[105.2603,12.0703],[105.2635,12.0597],[105.2793,12.0553],[105.3101,12.0525],[105.3465,12.0545],[105.3519,12.0831],[105.3463,12.1017]]]}}]}