{"type":"FeatureCollection","features":[{"type":"Feature","properties":{"c":"031401","en":"Baray","km":"បារាយណ៍"},"geometry":{"type":"Polygon","coordinates":[[[105.2357,11.8013],[105.2363,11.8695],[105.2227,11.8791],[105.2189,11.8855],[105.2085,11.8939],[105.2075,11.8895],[105.1967,11.8781],[105.1875,11.8729],[105.1855,11.8691],[105.1797,11.8671],[105.1745,11.8603],[105.1723,11.8563],[105.1717,11.8343],[105.1981,11.8023],[105.1967,11.7831],[105.2171,11.7911],[105.2235,11.7985],[105.2289,11.7979],[105.2357,11.8013]]]}},{"type":"Feature","properties":{"c":"031402","en":"Chi Bal","km":"ជីបាល"},"geometry":{"type":"Polygon","coordinates":[[[105.0879,11.7679],[105.0849,11.7683],[105.0849,11.7629],[105.0485,11.7629],[105.0481,11.7521],[105.0881,11.7501],[105.0967,11.7367],[105.1013,11.7347],[105.1061,11.7347],[105.1211,11.7419],[105.1431,11.7349],[105.1431,11.7529],[105.1247,11.7539],[105.1249,11.7629],[105.1053,11.7631],[105.1039,11.7669],[105.0879,11.7679]]]}},{"type":"Feature","properties":{"c":"031404","en":"Kaoh Andaet","km":"កោះអណ្ដែត"},"geometry":{"type":"Polygon","coordinates":[[[105.2881,11.9339],[105.2727,11.9353],[105.2535,11.9317],[105.2509,11.9267],[105.2405,11.9239],[105.2399,11.9171],[105.2457,11.9083],[105.2645,11.8985],[105.2755,11.9173],[105.2889,11.9231],[105.2881,11.9339]]]}},{"type":"Feature","properties":{"c":"031403","en":"Khnar Sa","km":"ខ្នារស"},"geometry":{"type":"Polygon","coordinates":[[[105.1431,11.7873],[105.1431,11.8079],[105.0973,11.8079],[105.0971,11.7899],[105.0879,11.7899],[105.0879,11.7679],[105.1039,11.7669],[105.1019,11.7873],[105.1431,11.7873]]]}},{"type":"Feature","properties":{"c":"031405","en":"Mean Chey","km":"មានជ័យ"},"geometry":{"type":"Polygon","coordinates":[[[105.0787,11.8465],[105.0657,11.8455],[105.0383,11.8503],[105.0485,11.8325],[105.0655,11.8159],[105.0671,11.8087],[105.0805,11.8133],[105.0773,11.8203],[105.0787,11.8465]]]}},{"type":"Feature","properties":{"c":"031406","en":"Phteah Kandal","km":"ផ្ទះកណ្ដាល"},"geometry":{"type":"Polygon","coordinates":[[[105.1723,11.8563],[105.1713,11.8643],[105.1535,11.8667],[105.1371,11.8963],[105.1325,11.8695],[105.1195,11.8525],[105.1431,11.8187],[105.1717,11.8343],[105.1723,11.8563]]]}},{"type":"Feature","properties":{"c":"031407","en":"Pram Yam","km":"ប្រាំយ៉ាម"},"geometry":{"type":"Polygon","coordinates":[[[105.1967,11.7831],[105.1981,11.8023],[105.1717,11.8343],[105.1431,11.8187],[105.1431,11.7631],[105.1571,11.7597],[105.1607,11.7625],[105.1679,11.7625],[105.1741,11.7681],[105.1821,11.7683],[105.1859,11.7709],[105.1967,11.7831]]]}},{"type":"Feature","properties":{"c":"031408","en":"Preaek Dambouk","km":"ព្រែកដំបូក"},"geometry":{"type":"Polygon","coordinates":[[[105.2019,11.8833],[105.1863,11.9001],[105.1663,11.9083],[105.1537,11.9199],[105.1407,11.9045],[105.1371,11.8963],[105.1535,11.8667],[105.1713,11.8643],[105.1723,11.8563],[105.1797,11.8671],[105.1855,11.8691],[105.1875,11.8729],[105.2019,11.8833]]]}},{"type":"Feature","properties":{"c":"031409","en":"Preaek Pou","km":"ព្រែកពោធិ"},"geometry":{"type":"Polygon","coordinates":[[[105.1431,11.8187],[105.1195,11.8525],[105.1035,11.8455],[105.0897,11.8481],[105.0787,11.8465],[105.0773,11.8203],[105.0805,11.8133],[105.0879,11.8077],[105.1431,11.8079],[105.1431,11.8187]]]}},{"type":"Feature","properties":{"c":"031410","en":"Preaek Rumdeng","km":"ព្រែករំដេង"},"geometry":{"type":"Polygon","coordinates":[[[105.2645,11.8985],[105.2457,11.9083],[105.2399,11.9171],[105.2405,11.9239],[105.2287,11.9221],[105.2091,11.9057],[105.2085,11.8939],[105.2189,11.8855],[105.2227,11.8791],[105.2363,11.8695],[105.2357,11.8013],[105.2441,11.8069],[105.2473,11.8139],[105.2537,11.8127],[105.2681,11.8425],[105.2625,11.8619],[105.2681,11.8795],[105.2683,11.8839],[105.2635,11.8929],[105.2645,11.8985]]]}},{"type":"Feature","properties":{"c":"031411","en":"Ruessei Srok","km":"ឫស្សីស្រុក"},"geometry":{"type":"Polygon","coordinates":[[[105.2127,11.9481],[105.1907,11.9497],[105.1761,11.9403],[105.1737,11.9347],[105.1907,11.9219],[105.1951,11.9111],[105.2015,11.9057],[105.2091,11.9057],[105.2287,11.9221],[105.2137,11.9291],[105.2127,11.9481]]]}},{"type":"Feature","properties":{"c":"031413","en":"Svay Khsach Phnum","km":"ស្វាយខ្សាច់ភ្នំ"},"geometry":{"type":"Polygon","coordinates":[[[105.2091,11.9057],[105.1979,11.9075],[105.1907,11.9219],[105.1737,11.9347],[105.1697,11.9339],[105.1537,11.9199],[105.1663,11.9083],[105.1863,11.9001],[105.2019,11.8833],[105.2075,11.8895],[105.2091,11.9057]]]}},{"type":"Feature","properties":{"c":"031412","en":"Svay Pou","km":"ស្វាយពោធិ"},"geometry":{"type":"Polygon","coordinates":[[[105.0973,11.8079],[105.0879,11.8077],[105.0805,11.8133],[105.0671,11.8087],[105.0595,11.8023],[105.0529,11.8011],[105.0471,11.7761],[105.0485,11.7629],[105.0849,11.7629],[105.0849,11.7683],[105.0879,11.7679],[105.0879,11.7899],[105.0971,11.7899],[105.0973,11.8079]]]}},{"type":"Feature","properties":{"c":"031414","en":"Tong Tralach","km":"ទងត្រឡាច"},"geometry":{"type":"Polygon","coordinates":[[[105.1571,11.7597],[105.1431,11.7631],[105.1431,11.7873],[105.1019,11.7873],[105.1053,11.7631],[105.1249,11.7629],[105.1247,11.7539],[105.1431,11.7529],[105.1431,11.7349],[105.1593,11.7355],[105.1639,11.7425],[105.1625,11.7519],[105.1571,11.7597]]]}}]}