{"type":"FeatureCollection","features":[{"type":"Feature","properties":{"c":"031501","en":"Areaks Tnot","km":"អារក្សត្នោត"},"geometry":{"type":"Polygon","coordinates":[[[105.6591,12.3425],[105.6589,12.3501],[105.6643,12.3605],[105.6639,12.3641],[105.6609,12.3675],[105.6463,12.3655],[105.6429,12.3671],[105.6451,12.3775],[105.6415,12.4031],[105.6347,12.4185],[105.6213,12.4327],[105.6055,12.4413],[105.6033,12.4369],[105.6065,12.4299],[105.6059,12.4031],[105.6097,12.3869],[105.6077,12.3799],[105.6155,12.3701],[105.6225,12.3539],[105.6301,12.3471],[105.6591,12.3425]]]}},{"type":"Feature","properties":{"c":"031503","en":"Dang Kdar","km":"ដងក្ដារ"},"geometry":{"type":"Polygon","coordinates":[[[105.4757,12.4619],[105.4765,12.4679],[105.4701,12.4727],[105.4659,12.4693],[105.4573,12.4789],[105.4535,12.4765],[105.4489,12.4863],[105.4447,12.4905],[105.4409,12.4909],[105.4407,12.4945],[105.4311,12.4883],[105.4169,12.4879],[105.4163,12.4843],[105.4133,12.4825],[105.4023,12.4871],[105.3989,12.4857],[105.3975,12.4819],[105.4017,12.4765],[105.3991,12.4745],[105.4015,12.4681],[105.3921,12.4553],[105.3921,12.4457],[105.3885,12.4343],[105.3829,12.4261],[105.3827,12.4201],[105.3753,12.4119],[105.3777,12.4079],[105.3643,12.3665],[105.3609,12.3639],[105.3709,12.3505],[105.3749,12.3529],[105.3869,12.3507],[105.3933,12.3537],[105.4089,12.3521],[105.4201,12.3427],[105.4407,12.3369],[105.4499,12.3295],[105.4687,12.3239],[105.4723,12.3259],[105.4841,12.3389],[105.4965,12.3585],[105.5103,12.3685],[105.5085,12.3719],[105.5137,12.3819],[105.5085,12.3865],[105.5069,12.3993],[105.5025,12.4029],[105.4939,12.4177],[105.4993,12.4303],[105.5005,12.4501],[105.4871,12.4545],[105.4901,12.4571],[105.4831,12.4629],[105.4757,12.4619]]]}},{"type":"Feature","properties":{"c":"031504","en":"Khpob Ta Nguon","km":"ខ្ពបតាងួន"},"geometry":{"type":"Polygon","coordinates":[[[105.7211,12.2775],[105.7453,12.2881],[105.7425,12.3013],[105.7531,12.3059],[105.7593,12.3127],[105.7637,12.3115],[105.7705,12.3157],[105.7733,12.3237],[105.7759,12.3363],[105.7743,12.3655],[105.7683,12.4015],[105.7627,12.4189],[105.7547,12.4133],[105.7477,12.4037],[105.7033,12.3969],[105.6951,12.3877],[105.6963,12.3785],[105.6901,12.3573],[105.6891,12.3309],[105.6953,12.3173],[105.6951,12.3083],[105.6997,12.3001],[105.6985,12.2819],[105.7211,12.2775]]]}},{"type":"Feature","properties":{"c":"031505","en":"Me Sar Chrey","km":"មេសរជ្រៃ"},"geometry":{"type":"Polygon","coordinates":[[[105.4499,12.3295],[105.4407,12.3369],[105.4201,12.3427],[105.4089,12.3521],[105.3933,12.3537],[105.3839,12.3505],[105.3749,12.3529],[105.3709,12.3505],[105.3729,12.3467],[105.3939,12.3433],[105.3965,12.3401],[105.3991,12.3223],[105.3943,12.3029],[105.3765,12.2881],[105.4143,12.2865],[105.4289,12.2899],[105.4367,12.2993],[105.4511,12.3073],[105.4525,12.3187],[105.4499,12.3295]]]}},{"type":"Feature","properties":{"c":"031506","en":"Ou Mlu","km":"អូរម្លូ"},"geometry":{"type":"Polygon","coordinates":[[[105.6013,12.4935],[105.5485,12.4919],[105.5315,12.4733],[105.5241,12.4565],[105.5069,12.4541],[105.5005,12.4501],[105.4993,12.4303],[105.4939,12.4177],[105.5025,12.4029],[105.5069,12.3993],[105.5085,12.3865],[105.5137,12.3819],[105.5085,12.3719],[105.5159,12.3633],[105.5439,12.3621],[105.5439,12.3671],[105.5819,12.3671],[105.6077,12.3799],[105.6097,12.3869],[105.6059,12.4031],[105.6065,12.4299],[105.6033,12.4369],[105.6105,12.4563],[105.6119,12.4679],[105.6067,12.4851],[105.6013,12.4935]]]}},{"type":"Feature","properties":{"c":"031507","en":"Peam Kaoh Snar","km":"ពាមកោះស្នា"},"geometry":{"type":"Polygon","coordinates":[[[105.6591,12.3425],[105.6301,12.3471],[105.6149,12.3285],[105.6091,12.3273],[105.6059,12.3143],[105.6107,12.3005],[105.6211,12.2987],[105.6491,12.2863],[105.6853,12.2853],[105.6881,12.3027],[105.6835,12.3163],[105.6907,12.3285],[105.6805,12.3355],[105.6591,12.3425]]]}},{"type":"Feature","properties":{"c":"031509","en":"Preaek Bak","km":"ព្រែកបាក់"},"geometry":{"type":"Polygon","coordinates":[[[105.5369,12.2237],[105.5225,12.2253],[105.5121,12.2087],[105.5027,12.1989],[105.4923,12.1761],[105.5075,12.1679],[105.5287,12.1675],[105.5369,12.1641],[105.5411,12.1783],[105.5353,12.2061],[105.5369,12.2237]]]}},{"type":"Feature","properties":{"c":"031508","en":"Preah Andoung","km":"ព្រះអណ្ដូង"},"geometry":{"type":"Polygon","coordinates":[[[105.6985,12.2819],[105.6997,12.3001],[105.6951,12.3083],[105.6953,12.3173],[105.6907,12.3285],[105.6835,12.3163],[105.6881,12.3027],[105.6853,12.2853],[105.6985,12.2819]]]}},{"type":"Feature","properties":{"c":"031510","en":"Preak Kak","km":"ព្រែកកក់"},"geometry":{"type":"Polygon","coordinates":[[[105.6301,12.3471],[105.6225,12.3539],[105.6155,12.3701],[105.6077,12.3799],[105.5819,12.3671],[105.5439,12.3671],[105.5439,12.3621],[105.5159,12.3633],[105.5103,12.3685],[105.5061,12.3673],[105.4965,12.3585],[105.4841,12.3389],[105.4723,12.3259],[105.4687,12.3239],[105.4499,12.3295],[105.4523,12.3225],[105.4525,12.2983],[105.4599,12.2799],[105.4607,12.2687],[105.4717,12.2661],[105.4735,12.2637],[105.4871,12.2633],[105.5029,12.2573],[105.5101,12.2573],[105.5153,12.2517],[105.5137,12.2449],[105.5219,12.2317],[105.5225,12.2253],[105.5369,12.2237],[105.5449,12.2569],[105.5547,12.2743],[105.5657,12.2861],[105.5837,12.2973],[105.6107,12.3005],[105.6059,12.3143],[105.6091,12.3273],[105.6149,12.3285],[105.6301,12.3471]]]}},{"type":"Feature","properties":{"c":"031512","en":"Soupheas","km":"សូភាស"},"geometry":{"type":"Polygon","coordinates":[[[105.4607,12.2687],[105.4599,12.2799],[105.4535,12.2941],[105.4511,12.3073],[105.4367,12.2993],[105.4323,12.2925],[105.4255,12.2881],[105.4143,12.2865],[105.3765,12.2881],[105.3731,12.2861],[105.3615,12.2665],[105.3691,12.2577],[105.3897,12.2475],[105.3959,12.2411],[105.4057,12.2063],[105.4187,12.2137],[105.4449,12.2377],[105.4529,12.2489],[105.4607,12.2687]]]}},{"type":"Feature","properties":{"c":"031513","en":"Tuol Preah Khleang","km":"ទួលព្រះឃ្លាំង"},"geometry":{"type":"Polygon","coordinates":[[[105.5225,12.2253],[105.5219,12.2317],[105.5137,12.2449],[105.5153,12.2517],[105.5135,12.2551],[105.4871,12.2633],[105.4735,12.2637],[105.4717,12.2661],[105.4607,12.2687],[105.4529,12.2489],[105.4449,12.2377],[105.4187,12.2137],[105.4057,12.2063],[105.4083,12.1997],[105.4159,12.1957],[105.4233,12.1879],[105.4923,12.1761],[105.5027,12.1989],[105.5121,12.2087],[105.5225,12.2253]]]}},{"type":"Feature","properties":{"c":"031514","en":"Tuol Sambuor","km":"ទួលសំបួរ"},"geometry":{"type":"Polygon","coordinates":[[[105.7335,12.5013],[105.7159,12.5009],[105.7049,12.4947],[105.6905,12.4947],[105.6719,12.4903],[105.6343,12.4949],[105.6013,12.4935],[105.6115,12.4725],[105.6113,12.4603],[105.6055,12.4413],[105.6213,12.4327],[105.6347,12.4185],[105.6415,12.4031],[105.6451,12.3775],[105.6429,12.3671],[105.6463,12.3655],[105.6609,12.3675],[105.6643,12.3605],[105.6589,12.3501],[105.6591,12.3425],[105.6891,12.3309],[105.6901,12.3573],[105.6953,12.3705],[105.6951,12.3877],[105.6973,12.3915],[105.7077,12.3981],[105.7439,12.4021],[105.7627,12.4189],[105.7499,12.4595],[105.7387,12.4779],[105.7335,12.5013]]]}}]}