{"type":"FeatureCollection","features":[{"type":"Feature","properties":{"c":"040101","en":"Anhchanh Rung","km":"អញ្ចាញរូង"},"geometry":{"type":"Polygon","coordinates":[[[104.4579,12.3469],[104.4611,12.3777],[104.4525,12.3917],[104.4487,12.3935],[104.4245,12.3929],[104.4065,12.3903],[104.4039,12.3885],[104.4073,12.3865],[104.4183,12.3869],[104.4201,12.3785],[104.4177,12.3701],[104.4061,12.3549],[104.4003,12.3511],[104.3841,12.3509],[104.3735,12.3457],[104.3621,12.3347],[104.3609,12.3309],[104.3635,12.3181],[104.3675,12.3109],[104.3671,12.3005],[104.3703,12.2919],[104.3813,12.2897],[104.3969,12.2903],[104.4037,12.2967],[104.4109,12.2973],[104.4235,12.3135],[104.4257,12.3207],[104.4373,12.3263],[104.4379,12.3299],[104.4513,12.3449],[104.4579,12.3469]]]}},{"type":"Feature","properties":{"c":"040103","en":"Chak","km":"ចក"},"geometry":{"type":"Polygon","coordinates":[[[104.4727,12.4695],[104.4565,12.4815],[104.4461,12.4841],[104.4417,12.4813],[104.4331,12.4707],[104.4303,12.4533],[104.4251,12.4491],[104.4173,12.4327],[104.4181,12.4293],[104.4281,12.4311],[104.4453,12.4397],[104.4515,12.4443],[104.4543,12.4559],[104.4727,12.4695]]]}},{"type":"Feature","properties":{"c":"040102","en":"Chhnok Tru","km":"ឆ្នុកទ្រូ"},"geometry":{"type":"MultiPolygon","coordinates":[[[[104.4753,12.5077],[104.4787,12.5091],[104.4723,12.5133],[104.4789,12.5139],[104.4949,12.5025],[104.4987,12.4911],[104.5041,12.4865],[104.5063,12.4763],[104.4727,12.4695],[104.4615,12.4795],[104.4461,12.4841],[104.4457,12.4947],[104.4357,12.4999],[104.3879,12.5007],[104.3867,12.5085],[104.3889,12.5119],[104.3969,12.5069],[104.4021,12.5071],[104.4089,12.5125],[104.4249,12.5123],[104.4217,12.5159],[104.4233,12.5197],[104.4187,12.5235],[104.4063,12.5187],[104.3889,12.5223],[104.3881,12.5265],[104.3847,12.5285],[104.3931,12.5325],[104.3893,12.5383],[104.3895,12.5443],[104.3915,12.5465],[104.3947,12.5435],[104.4019,12.5525],[104.4071,12.5413],[104.4243,12.5343],[104.4197,12.5325],[104.4259,12.5277],[104.4261,12.5247],[104.4429,12.5145],[104.4375,12.5145],[104.4457,12.5099],[104.4615,12.5131],[104.4753,12.5077]]],[[[104.4479,12.5123],[104.4457,12.5099],[104.4429,12.5145],[104.4479,12.5123]]],[[[104.4553,12.5169],[104.4459,12.5161],[104.4443,12.5191],[104.4487,12.5193],[104.4553,12.5169]]],[[[104.4405,12.5225],[104.4329,12.5245],[104.4277,12.5309],[104.4307,12.5311],[104.4405,12.5225]]]]}},{"type":"Feature","properties":{"c":"040105","en":"Kampong Preah Kokir","km":"កំពង់ព្រះគគីរ"},"geometry":{"type":"Polygon","coordinates":[[[104.5705,12.4361],[104.5713,12.4249],[104.5665,12.4261],[104.5509,12.4391],[104.5419,12.4413],[104.5337,12.4467],[104.5293,12.4459],[104.5209,12.4569],[104.5157,12.4583],[104.5119,12.4471],[104.5113,12.4415],[104.5387,12.4159],[104.5553,12.3857],[104.5705,12.3671],[104.5767,12.3631],[104.5799,12.3695],[104.5837,12.3695],[104.5903,12.3611],[104.5969,12.3575],[104.6093,12.3591],[104.6365,12.3497],[104.6263,12.3593],[104.6211,12.3679],[104.6109,12.3751],[104.6103,12.3969],[104.6151,12.4067],[104.6129,12.4141],[104.5747,12.4403],[104.5801,12.4323],[104.5793,12.4221],[104.5705,12.4361]]]}},{"type":"Feature","properties":{"c":"040104","en":"Khon Rang","km":"ខុនរ៉ង"},"geometry":{"type":"Polygon","coordinates":[[[104.5157,12.4583],[104.5063,12.4763],[104.4727,12.4695],[104.4667,12.4643],[104.4713,12.4459],[104.4645,12.4333],[104.4689,12.4183],[104.4757,12.4065],[104.4977,12.4069],[104.5095,12.4305],[104.5157,12.4583]]]}},{"type":"Feature","properties":{"c":"040106","en":"Melum","km":"មេលំ"},"geometry":{"type":"Polygon","coordinates":[[[104.5767,12.3631],[104.5631,12.3745],[104.5387,12.4159],[104.5305,12.4233],[104.5059,12.4075],[104.4953,12.3863],[104.5059,12.3635],[104.5587,12.3205],[104.5575,12.3269],[104.5703,12.3373],[104.5681,12.3407],[104.5729,12.3457],[104.5729,12.3607],[104.5767,12.3631]]]}},{"type":"Feature","properties":{"c":"040108","en":"Pech Changvar","km":"ពេជចង្វារ"},"geometry":{"type":"Polygon","coordinates":[[[104.4173,12.4327],[104.4073,12.4371],[104.3929,12.4351],[104.3891,12.4367],[104.3873,12.4295],[104.3919,12.4203],[104.3763,12.4165],[104.3697,12.4081],[104.3525,12.3979],[104.3389,12.3553],[104.3407,12.3527],[104.3643,12.3375],[104.3735,12.3457],[104.3841,12.3509],[104.4033,12.3519],[104.4197,12.3745],[104.4183,12.3869],[104.4073,12.3865],[104.4017,12.3927],[104.4019,12.3967],[104.4105,12.4087],[104.4107,12.4197],[104.4181,12.4293],[104.4173,12.4327]]]}},{"type":"Feature","properties":{"c":"040107","en":"Phsar","km":"ផ្សារ"},"geometry":{"type":"Polygon","coordinates":[[[104.5305,12.4233],[104.5113,12.4415],[104.5095,12.4305],[104.4977,12.4069],[104.4757,12.4065],[104.4487,12.3935],[104.4525,12.3917],[104.4611,12.3777],[104.4579,12.3469],[104.4723,12.3403],[104.4893,12.3449],[104.4957,12.3511],[104.5027,12.3537],[104.5059,12.3635],[104.4953,12.3863],[104.4991,12.3963],[104.5059,12.4075],[104.5305,12.4233]]]}},{"type":"Feature","properties":{"c":"040110","en":"Ponley","km":"ពន្លៃ"},"geometry":{"type":"Polygon","coordinates":[[[104.4645,12.4333],[104.4713,12.4459],[104.4667,12.4643],[104.4543,12.4559],[104.4515,12.4443],[104.4453,12.4397],[104.4577,12.4315],[104.4645,12.4333]]]}},{"type":"Feature","properties":{"c":"040109","en":"Popel","km":"ពពេល"},"geometry":{"type":"Polygon","coordinates":[[[104.4645,12.4333],[104.4577,12.4315],[104.4453,12.4397],[104.4281,12.4311],[104.4181,12.4293],[104.4107,12.4197],[104.4105,12.4087],[104.4019,12.3967],[104.4039,12.3885],[104.4103,12.3923],[104.4439,12.3923],[104.4757,12.4065],[104.4689,12.4183],[104.4645,12.4333]]]}},{"type":"Feature","properties":{"c":"040111","en":"Trapeang Chan","km":"ត្រពាំងចាន់"},"geometry":{"type":"Polygon","coordinates":[[[104.4461,12.4841],[104.4457,12.4947],[104.4357,12.4999],[104.3879,12.5007],[104.3869,12.4859],[104.3811,12.4721],[104.3807,12.4559],[104.3891,12.4367],[104.3929,12.4351],[104.4073,12.4371],[104.4173,12.4327],[104.4251,12.4491],[104.4303,12.4533],[104.4331,12.4707],[104.4461,12.4841]]]}}]}