{"type":"FeatureCollection","features":[{"type":"Feature","properties":{"c":"040201","en":"Chol Sar","km":"ជលសា"},"geometry":{"type":"Polygon","coordinates":[[[104.8829,12.1163],[104.8733,12.1269],[104.8597,12.1277],[104.8611,12.1507],[104.8517,12.1591],[104.8465,12.1831],[104.8421,12.1929],[104.8249,12.1775],[104.8121,12.1513],[104.8233,12.1527],[104.8295,12.1489],[104.8299,12.1459],[104.8223,12.1347],[104.8595,12.1191],[104.8591,12.1099],[104.8505,12.0995],[104.8551,12.0789],[104.8607,12.0795],[104.8685,12.0733],[104.8829,12.1163]]]}},{"type":"Feature","properties":{"c":"040203","en":"Kampong Ous","km":"កំពង់អុស"},"geometry":{"type":"Polygon","coordinates":[[[104.7947,12.2029],[104.7885,12.2101],[104.7717,12.2199],[104.7473,12.2293],[104.7457,12.2331],[104.7155,12.2531],[104.7123,12.2277],[104.7061,12.2249],[104.7049,12.2211],[104.7089,12.2103],[104.7153,12.2083],[104.7185,12.2099],[104.7533,12.1949],[104.7751,12.1767],[104.7853,12.1741],[104.7951,12.1765],[104.7987,12.1563],[104.8031,12.1627],[104.8015,12.1773],[104.7957,12.1893],[104.7947,12.2029]]]}},{"type":"Feature","properties":{"c":"040202","en":"Kaoh Thkov","km":"កោះថ្កូវ"},"geometry":{"type":"Polygon","coordinates":[[[104.8685,12.0733],[104.8607,12.0795],[104.8551,12.0789],[104.8553,12.0835],[104.8523,12.0855],[104.8505,12.0995],[104.8591,12.1099],[104.8595,12.1191],[104.8223,12.1347],[104.8299,12.1459],[104.8295,12.1489],[104.8233,12.1527],[104.7971,12.1519],[104.7629,12.1251],[104.7613,12.1205],[104.7707,12.1083],[104.7663,12.0949],[104.7773,12.0723],[104.7765,12.0573],[104.7709,12.0345],[104.7721,12.0269],[104.7785,12.0161],[104.7917,12.0069],[104.7935,12.0113],[104.8083,12.0181],[104.8101,12.0293],[104.8177,12.0299],[104.8365,12.0371],[104.8547,12.0683],[104.8685,12.0733]]]}},{"type":"Feature","properties":{"c":"040204","en":"Peam Chhkaok","km":"ពាមឆ្កោក"},"geometry":{"type":"Polygon","coordinates":[[[104.8727,12.2381],[104.8715,12.2451],[104.8623,12.2605],[104.8565,12.2811],[104.8513,12.2871],[104.8547,12.2953],[104.8519,12.3031],[104.8503,12.2989],[104.8441,12.2955],[104.8403,12.2969],[104.8323,12.2947],[104.8067,12.2833],[104.7971,12.2629],[104.7897,12.2581],[104.7809,12.2575],[104.7785,12.2551],[104.7977,12.2325],[104.8025,12.2223],[104.8023,12.2179],[104.7977,12.2147],[104.7949,12.2075],[104.7957,12.1893],[104.8015,12.1773],[104.8031,12.1627],[104.7971,12.1519],[104.8121,12.1513],[104.8249,12.1775],[104.8533,12.2023],[104.8707,12.2027],[104.8827,12.2093],[104.8853,12.2185],[104.8883,12.2203],[104.8873,12.2239],[104.8773,12.2285],[104.8727,12.2381]]]}},{"type":"Feature","properties":{"c":"040205","en":"Prey Kri","km":"ព្រៃគ្រី"},"geometry":{"type":"Polygon","coordinates":[[[104.8829,12.1163],[104.8861,12.1215],[104.8861,12.1347],[104.9019,12.1591],[104.9003,12.2007],[104.8975,12.2083],[104.8863,12.2063],[104.8827,12.2093],[104.8707,12.2027],[104.8533,12.2023],[104.8421,12.1929],[104.8465,12.1831],[104.8517,12.1591],[104.8611,12.1507],[104.8597,12.1277],[104.8733,12.1269],[104.8829,12.1163]]]}}]}