{"type":"FeatureCollection","features":[{"type":"Feature","properties":{"c":"040303","en":"B'er","km":"សង្កាត់ប្អេរ"},"geometry":{"type":"Polygon","coordinates":[[[104.6677,12.2545],[104.6643,12.2567],[104.6549,12.2567],[104.6601,12.2471],[104.6607,12.2345],[104.6675,12.2369],[104.6677,12.2545]]]}},{"type":"Feature","properties":{"c":"040302","en":"Kampong Chhnang","km":"សង្កាត់កំពង់ឆ្នាំង"},"geometry":{"type":"Polygon","coordinates":[[[104.7155,12.2531],[104.7141,12.2575],[104.6967,12.2681],[104.6923,12.2615],[104.6851,12.2633],[104.6915,12.2507],[104.6835,12.2539],[104.6677,12.2545],[104.6675,12.2369],[104.6607,12.2345],[104.6607,12.2281],[104.6655,12.2207],[104.6725,12.2175],[104.7123,12.2277],[104.7155,12.2531]]]}},{"type":"Feature","properties":{"c":"040304","en":"Khsam","km":"សង្កាត់ខ្សាម"},"geometry":{"type":"Polygon","coordinates":[[[104.6677,12.2545],[104.6697,12.2639],[104.6741,12.2701],[104.6653,12.3013],[104.6625,12.3207],[104.6577,12.3155],[104.6463,12.2693],[104.6467,12.2657],[104.6549,12.2567],[104.6643,12.2567],[104.6677,12.2545]]]}},{"type":"Feature","properties":{"c":"040301","en":"Phsar Chhnang","km":"សង្កាត់ផ្សារឆ្នាំង"},"geometry":{"type":"Polygon","coordinates":[[[104.6733,12.3081],[104.6653,12.3259],[104.6625,12.3207],[104.6635,12.3101],[104.6741,12.2701],[104.6697,12.2639],[104.6677,12.2545],[104.6835,12.2539],[104.6915,12.2507],[104.6851,12.2633],[104.6923,12.2615],[104.6967,12.2681],[104.6827,12.2781],[104.6769,12.3041],[104.6733,12.3081]]]}}]}