{"type":"FeatureCollection","features":[{"type":"Feature","properties":{"c":"040401","en":"Chranouk","km":"ច្រណូក"},"geometry":{"type":"Polygon","coordinates":[[[104.7633,12.5457],[104.7423,12.5513],[104.7169,12.5667],[104.7129,12.5667],[104.6879,12.5205],[104.6759,12.4933],[104.6621,12.4753],[104.6495,12.4655],[104.6495,12.4317],[104.6773,12.4099],[104.6975,12.4001],[104.7213,12.3925],[104.7401,12.3813],[104.7437,12.3723],[104.7693,12.3865],[104.7949,12.4107],[104.8043,12.4415],[104.8177,12.4621],[104.8407,12.4703],[104.8409,12.4745],[104.8375,12.4783],[104.8307,12.4771],[104.8185,12.4819],[104.8159,12.4851],[104.8155,12.4917],[104.8217,12.4941],[104.8245,12.4993],[104.8255,12.5025],[104.8223,12.5085],[104.8279,12.5223],[104.8209,12.5283],[104.8207,12.5321],[104.7633,12.5457]]]}},{"type":"Feature","properties":{"c":"040402","en":"Dar","km":"ដារ"},"geometry":{"type":"Polygon","coordinates":[[[104.8607,12.3801],[104.8607,12.3897],[104.8653,12.3945],[104.8671,12.4103],[104.8627,12.4175],[104.8637,12.4207],[104.8613,12.4223],[104.8605,12.4293],[104.8519,12.4263],[104.8459,12.4301],[104.8427,12.4343],[104.8425,12.4415],[104.8365,12.4437],[104.8419,12.4503],[104.8361,12.4517],[104.8283,12.4659],[104.8177,12.4621],[104.8095,12.4511],[104.8025,12.4373],[104.7971,12.4147],[104.7917,12.4069],[104.7693,12.3865],[104.7437,12.3723],[104.7863,12.3451],[104.7965,12.3429],[104.8175,12.3437],[104.8225,12.3557],[104.8365,12.3715],[104.8471,12.3791],[104.8551,12.3813],[104.8607,12.3801]]]}},{"type":"Feature","properties":{"c":"040403","en":"Kampong Hau","km":"កំពង់ហៅ"},"geometry":{"type":"Polygon","coordinates":[[[104.6921,12.2935],[104.6769,12.3041],[104.6809,12.2819],[104.6881,12.2731],[104.7141,12.2575],[104.7155,12.2531],[104.7457,12.2331],[104.7473,12.2293],[104.7717,12.2199],[104.7885,12.2101],[104.7947,12.2029],[104.7957,12.2117],[104.8023,12.2179],[104.8025,12.2223],[104.7977,12.2325],[104.7785,12.2551],[104.7675,12.2605],[104.7575,12.2613],[104.7453,12.2805],[104.6921,12.2935]]]}},{"type":"Feature","properties":{"c":"040404","en":"Phlov Tuk","km":"ផ្លូវទូក"},"geometry":{"type":"Polygon","coordinates":[[[104.7129,12.5667],[104.7053,12.5739],[104.6893,12.5827],[104.6545,12.5949],[104.6279,12.6073],[104.6069,12.6023],[104.5949,12.6027],[104.5825,12.5955],[104.5663,12.5921],[104.5437,12.5827],[104.5209,12.5687],[104.5155,12.5607],[104.5197,12.5465],[104.5111,12.5345],[104.5105,12.5279],[104.5149,12.5229],[104.5429,12.5143],[104.5521,12.5065],[104.5663,12.5005],[104.5835,12.5147],[104.6027,12.5101],[104.6359,12.5087],[104.6395,12.5063],[104.6443,12.4935],[104.6471,12.4691],[104.6495,12.4655],[104.6621,12.4753],[104.6759,12.4933],[104.6879,12.5205],[104.7129,12.5667]]]}},{"type":"Feature","properties":{"c":"040405","en":"Pou","km":"ពោធិ៍"},"geometry":{"type":"Polygon","coordinates":[[[104.6703,12.4151],[104.6563,12.4201],[104.6523,12.4193],[104.6413,12.3731],[104.6447,12.3615],[104.6535,12.3513],[104.6503,12.3471],[104.6613,12.3375],[104.6665,12.3207],[104.6733,12.3081],[104.6921,12.2935],[104.6919,12.3009],[104.6997,12.3183],[104.7235,12.3351],[104.7483,12.3475],[104.7471,12.3551],[104.7401,12.3813],[104.7213,12.3925],[104.6975,12.4001],[104.6703,12.4151]]]}},{"type":"Feature","properties":{"c":"040406","en":"Pralay Meas","km":"ប្រឡាយមាស"},"geometry":{"type":"Polygon","coordinates":[[[104.6495,12.4655],[104.6455,12.4785],[104.6457,12.4883],[104.6395,12.5063],[104.6319,12.5101],[104.6027,12.5101],[104.5835,12.5147],[104.5663,12.5005],[104.5793,12.4975],[104.5951,12.4849],[104.5973,12.4713],[104.5947,12.4609],[104.5927,12.4583],[104.5885,12.4583],[104.5869,12.4537],[104.5821,12.4523],[104.5509,12.4769],[104.5237,12.4887],[104.5409,12.4659],[104.5697,12.4473],[104.5747,12.4403],[104.6129,12.4141],[104.6151,12.4067],[104.6103,12.3969],[104.6109,12.3751],[104.6211,12.3679],[104.6263,12.3593],[104.6365,12.3497],[104.6503,12.3471],[104.6535,12.3513],[104.6447,12.3615],[104.6413,12.3731],[104.6507,12.4151],[104.6523,12.4193],[104.6563,12.4201],[104.6703,12.4151],[104.6621,12.4237],[104.6495,12.4317],[104.6495,12.4655]]]}},{"type":"Feature","properties":{"c":"040407","en":"Samraong Saen","km":"សំរោងសែន"},"geometry":{"type":"Polygon","coordinates":[[[104.9003,12.3697],[104.8983,12.3755],[104.8949,12.3779],[104.8957,12.3927],[104.8909,12.4003],[104.8845,12.3929],[104.8859,12.3903],[104.8829,12.3817],[104.8771,12.3793],[104.8731,12.3735],[104.8621,12.3709],[104.8631,12.3747],[104.8607,12.3801],[104.8551,12.3813],[104.8431,12.3767],[104.8225,12.3557],[104.8175,12.3437],[104.8519,12.3031],[104.8619,12.3159],[104.8627,12.3237],[104.8687,12.3257],[104.8791,12.3375],[104.8925,12.3427],[104.8947,12.3483],[104.8911,12.3543],[104.9003,12.3697]]]}},{"type":"Feature","properties":{"c":"040408","en":"Svay Rumpear","km":"ស្វាយរំពារ"},"geometry":{"type":"Polygon","coordinates":[[[104.8175,12.3437],[104.7965,12.3429],[104.7863,12.3451],[104.7437,12.3723],[104.7571,12.3043],[104.7575,12.2613],[104.7675,12.2605],[104.7785,12.2551],[104.7809,12.2575],[104.7897,12.2581],[104.7971,12.2629],[104.8067,12.2833],[104.8323,12.2947],[104.8403,12.2969],[104.8441,12.2955],[104.8503,12.2989],[104.8519,12.3031],[104.8175,12.3437]]]}},{"type":"Feature","properties":{"c":"040409","en":"Trangel","km":"ត្រងិល"},"geometry":{"type":"Polygon","coordinates":[[[104.7575,12.2613],[104.7571,12.3043],[104.7483,12.3475],[104.7417,12.3455],[104.7033,12.3223],[104.6979,12.3153],[104.6913,12.2975],[104.6921,12.2935],[104.6973,12.2917],[104.7453,12.2805],[104.7575,12.2613]]]}}]}