{"type":"FeatureCollection","features":[{"type":"Feature","properties":{"c":"040501","en":"Ampil Tuek","km":"អំពិលទឹក"},"geometry":{"type":"Polygon","coordinates":[[[104.8845,12.0657],[104.8819,12.0713],[104.8777,12.0741],[104.8573,12.0701],[104.8365,12.0371],[104.8177,12.0299],[104.8101,12.0293],[104.8083,12.0181],[104.7935,12.0113],[104.7917,12.0069],[104.7963,12.0017],[104.7965,11.9983],[104.7879,11.9747],[104.7861,11.9629],[104.7995,11.9683],[104.8099,11.9693],[104.8151,11.9607],[104.8163,11.9443],[104.8117,11.9353],[104.8091,11.9119],[104.7987,11.9029],[104.7779,11.8921],[104.7701,11.8903],[104.7779,11.8815],[104.7809,11.8813],[104.7873,11.8889],[104.8107,11.8941],[104.8211,11.8881],[104.8199,11.8969],[104.8279,11.9137],[104.8313,11.9429],[104.8453,11.9511],[104.8527,11.9733],[104.8599,11.9825],[104.8755,11.9901],[104.8785,11.9901],[104.8779,11.9873],[104.8843,11.9877],[104.8885,11.9943],[104.8887,12.0107],[104.8925,12.0127],[104.8943,12.0187],[104.8877,12.0323],[104.8927,12.0405],[104.8881,12.0605],[104.8845,12.0657]]]}},{"type":"Feature","properties":{"c":"040502","en":"Chhuk Sa","km":"ឈូកស"},"geometry":{"type":"Polygon","coordinates":[[[104.6911,12.0643],[104.6867,12.0645],[104.6597,12.0533],[104.6453,12.0577],[104.6255,12.0513],[104.6403,12.0289],[104.6371,12.0223],[104.6361,12.0053],[104.6403,12.0027],[104.6711,12.0031],[104.6747,11.9927],[104.7039,11.9647],[104.7049,11.9539],[104.7149,11.9453],[104.7213,11.9673],[104.7281,12.0089],[104.7241,12.0083],[104.6937,12.0211],[104.7021,12.0351],[104.7023,12.0475],[104.6911,12.0643]]]}},{"type":"Feature","properties":{"c":"040503","en":"Chres","km":"ច្រេស"},"geometry":{"type":"Polygon","coordinates":[[[104.7933,11.9867],[104.7785,11.9871],[104.7743,11.9941],[104.7695,11.9929],[104.7629,11.9981],[104.7531,11.9941],[104.7503,11.9869],[104.7429,11.9819],[104.7239,11.9863],[104.7213,11.9673],[104.7361,11.9641],[104.7397,11.9463],[104.7477,11.9343],[104.7511,11.9367],[104.7711,11.9365],[104.7725,11.9251],[104.7837,11.9233],[104.7915,11.9317],[104.7923,11.9359],[104.7823,11.9521],[104.7817,11.9581],[104.7861,11.9629],[104.7879,11.9747],[104.7933,11.9867]]]}},{"type":"Feature","properties":{"c":"040504","en":"Kampong Tralach","km":"កំពង់ត្រឡាច"},"geometry":{"type":"Polygon","coordinates":[[[104.7701,11.8903],[104.7779,11.8921],[104.7987,11.9029],[104.8091,11.9119],[104.8117,11.9353],[104.8163,11.9443],[104.8151,11.9607],[104.8099,11.9693],[104.7995,11.9683],[104.7833,11.9613],[104.7823,11.9521],[104.7923,11.9359],[104.7915,11.9317],[104.7837,11.9233],[104.7725,11.9251],[104.7711,11.9365],[104.7511,11.9367],[104.7477,11.9343],[104.7467,11.9155],[104.7509,11.9055],[104.7513,11.8975],[104.7575,11.8959],[104.7597,11.8877],[104.7701,11.8903]]]}},{"type":"Feature","properties":{"c":"040505","en":"Longveaek","km":"លង្វែក"},"geometry":{"type":"Polygon","coordinates":[[[104.7467,11.9155],[104.7399,11.9159],[104.7309,11.9099],[104.7051,11.9013],[104.7193,11.8529],[104.7351,11.8273],[104.7425,11.8303],[104.7557,11.8277],[104.7825,11.8391],[104.7709,11.8539],[104.7717,11.8579],[104.7693,11.8611],[104.7713,11.8675],[104.7647,11.8817],[104.7725,11.8867],[104.7701,11.8903],[104.7597,11.8877],[104.7575,11.8959],[104.7513,11.8975],[104.7509,11.9055],[104.7467,11.9155]]]}},{"type":"Feature","properties":{"c":"040506","en":"Ou Ruessei","km":"អូរឫស្សី"},"geometry":{"type":"Polygon","coordinates":[[[104.7477,11.9343],[104.7397,11.9463],[104.7361,11.9641],[104.7213,11.9673],[104.7055,11.9107],[104.7051,11.9013],[104.7309,11.9099],[104.7399,11.9159],[104.7467,11.9155],[104.7477,11.9343]]]}},{"type":"Feature","properties":{"c":"040507","en":"Peani","km":"ពានី"},"geometry":{"type":"Polygon","coordinates":[[[104.7147,11.9405],[104.6949,11.9475],[104.6811,11.9473],[104.6615,11.9521],[104.6635,11.9471],[104.6633,11.9281],[104.6717,11.9193],[104.6747,11.9097],[104.6777,11.9067],[104.7003,11.9011],[104.7051,11.9013],[104.7055,11.9107],[104.7147,11.9405]]]}},{"type":"Feature","properties":{"c":"040508","en":"Saeb","km":"សែប"},"geometry":{"type":"Polygon","coordinates":[[[104.7747,12.0511],[104.7773,12.0723],[104.7663,12.0949],[104.7707,12.1083],[104.7613,12.1205],[104.7489,12.1135],[104.7477,12.1035],[104.7521,12.1007],[104.7429,12.0869],[104.7313,12.0821],[104.7251,12.0731],[104.7125,12.0669],[104.7061,12.0655],[104.7007,12.0673],[104.6911,12.0643],[104.7023,12.0475],[104.7021,12.0351],[104.7135,12.0459],[104.7283,12.0459],[104.7359,12.0525],[104.7635,12.0611],[104.7747,12.0511]]]}},{"type":"Feature","properties":{"c":"040509","en":"Ta Ches","km":"តាជេស"},"geometry":{"type":"Polygon","coordinates":[[[104.7747,12.0511],[104.7635,12.0611],[104.7359,12.0525],[104.7283,12.0459],[104.7135,12.0459],[104.6985,12.0307],[104.6937,12.0211],[104.7241,12.0083],[104.7281,12.0089],[104.7239,11.9863],[104.7281,11.9847],[104.7429,11.9819],[104.7503,11.9869],[104.7531,11.9941],[104.7629,11.9981],[104.7695,11.9929],[104.7743,11.9941],[104.7785,11.9871],[104.7933,11.9867],[104.7963,12.0017],[104.7785,12.0161],[104.7721,12.0269],[104.7709,12.0345],[104.7747,12.0511]]]}},{"type":"Feature","properties":{"c":"040510","en":"Thma Edth","km":"ថ្មឥដ្ឋ"},"geometry":{"type":"Polygon","coordinates":[[[104.7149,11.9453],[104.7049,11.9539],[104.7039,11.9647],[104.6747,11.9927],[104.6711,12.0031],[104.6403,12.0027],[104.6361,12.0053],[104.6361,11.9899],[104.6307,11.9851],[104.6293,11.9771],[104.6349,11.9669],[104.6555,11.9593],[104.6615,11.9521],[104.6811,11.9473],[104.6949,11.9475],[104.7147,11.9405],[104.7149,11.9453]]]}}]}