{"type":"FeatureCollection","features":[{"type":"Feature","properties":{"c":"040601","en":"Andoung Snay","km":"អណ្ដូងស្នាយ"},"geometry":{"type":"Polygon","coordinates":[[[104.7805,12.1393],[104.7809,12.1525],[104.7761,12.1583],[104.7569,12.1531],[104.7461,12.1437],[104.7239,12.1461],[104.7129,12.1549],[104.6957,12.1591],[104.6883,12.1705],[104.6759,12.1717],[104.6711,12.1757],[104.6703,12.1901],[104.6617,12.1889],[104.6627,12.1733],[104.6661,12.1627],[104.6953,12.1199],[104.7077,12.1205],[104.7109,12.1187],[104.7275,12.1227],[104.7283,12.1261],[104.7393,12.1293],[104.7487,12.1267],[104.7655,12.1287],[104.7805,12.1393]]]}},{"type":"Feature","properties":{"c":"040602","en":"Banteay Preal","km":"បន្ទាយព្រាល"},"geometry":{"type":"Polygon","coordinates":[[[104.5587,12.3205],[104.5509,12.3189],[104.5417,12.3281],[104.5277,12.3069],[104.5271,12.2907],[104.5179,12.2843],[104.5111,12.2685],[104.5019,12.2615],[104.4983,12.2497],[104.4983,12.2387],[104.5063,12.2281],[104.5143,12.2363],[104.5199,12.2357],[104.5415,12.2469],[104.5697,12.2527],[104.5671,12.2709],[104.5753,12.2789],[104.5721,12.2881],[104.5727,12.3029],[104.5691,12.3103],[104.5587,12.3205]]]}},{"type":"Feature","properties":{"c":"040603","en":"Cheung Kreav","km":"ជើងគ្រាវ"},"geometry":{"type":"Polygon","coordinates":[[[104.6637,12.1107],[104.6321,12.1475],[104.6161,12.1577],[104.6113,12.1411],[104.6045,12.1339],[104.6041,12.1299],[104.6139,12.1233],[104.6175,12.1151],[104.6137,12.1069],[104.6193,12.0713],[104.6185,12.0563],[104.6255,12.0513],[104.6411,12.0573],[104.6597,12.0533],[104.6739,12.0577],[104.6749,12.0751],[104.6815,12.0815],[104.6799,12.0875],[104.6723,12.0951],[104.6637,12.1107]]]}},{"type":"Feature","properties":{"c":"040604","en":"Chrey Bak","km":"ជ្រៃបាក់"},"geometry":{"type":"Polygon","coordinates":[[[104.7051,12.2169],[104.7061,12.2249],[104.6961,12.2243],[104.6725,12.2175],[104.6689,12.2181],[104.6633,12.2241],[104.6599,12.2179],[104.6503,12.2147],[104.6397,12.2063],[104.6189,12.2087],[104.6099,12.2023],[104.6067,12.2065],[104.6057,12.2187],[104.5963,12.2197],[104.5783,12.1815],[104.5957,12.1669],[104.6049,12.1707],[104.6159,12.1639],[104.6239,12.1631],[104.6261,12.1697],[104.6375,12.1749],[104.6443,12.1813],[104.6497,12.1821],[104.6543,12.1875],[104.6749,12.1925],[104.6827,12.2097],[104.6963,12.2099],[104.7051,12.2169]]]}},{"type":"Feature","properties":{"c":"040605","en":"Kouk Banteay","km":"គោកបន្ទាយ"},"geometry":{"type":"Polygon","coordinates":[[[104.7987,12.1563],[104.7951,12.1765],[104.7853,12.1741],[104.7751,12.1767],[104.7533,12.1949],[104.7185,12.2099],[104.7119,12.2085],[104.7051,12.2169],[104.6963,12.2099],[104.6827,12.2097],[104.6749,12.1925],[104.6703,12.1901],[104.6711,12.1757],[104.6759,12.1717],[104.6883,12.1705],[104.6957,12.1591],[104.7129,12.1549],[104.7239,12.1461],[104.7461,12.1437],[104.7569,12.1531],[104.7761,12.1583],[104.7809,12.1525],[104.7805,12.1393],[104.7947,12.1495],[104.7987,12.1563]]]}},{"type":"Feature","properties":{"c":"040606","en":"Krang Leav","km":"ក្រាំងលាវ"},"geometry":{"type":"Polygon","coordinates":[[[104.5963,12.2197],[104.5931,12.2213],[104.5915,12.2261],[104.5941,12.2333],[104.5927,12.2365],[104.5865,12.2431],[104.5753,12.2473],[104.5697,12.2527],[104.5455,12.2483],[104.5199,12.2357],[104.5143,12.2363],[104.5063,12.2281],[104.5109,12.2225],[104.5087,12.2139],[104.5173,12.2041],[104.5173,12.2003],[104.5113,12.1907],[104.5131,12.1787],[104.5173,12.1771],[104.5573,12.1803],[104.5633,12.1773],[104.5783,12.1815],[104.5963,12.2197]]]}},{"type":"Feature","properties":{"c":"040607","en":"Pongro","km":"ពង្រ"},"geometry":{"type":"Polygon","coordinates":[[[104.6251,12.2583],[104.6241,12.2713],[104.6113,12.2685],[104.5945,12.2763],[104.5757,12.3017],[104.5727,12.3029],[104.5721,12.2881],[104.5753,12.2789],[104.5671,12.2709],[104.5697,12.2527],[104.5753,12.2473],[104.5865,12.2431],[104.5927,12.2365],[104.5931,12.2213],[104.5963,12.2197],[104.6037,12.2283],[104.6119,12.2217],[104.6183,12.2205],[104.6123,12.2319],[104.6129,12.2361],[104.6191,12.2529],[104.6251,12.2583]]]}},{"type":"Feature","properties":{"c":"040608","en":"Prasnoeb","km":"ប្រស្នឹប"},"geometry":{"type":"Polygon","coordinates":[[[104.5587,12.3205],[104.5059,12.3635],[104.5027,12.3537],[104.4823,12.3419],[104.4683,12.3409],[104.4545,12.3471],[104.4379,12.3299],[104.4373,12.3263],[104.4257,12.3207],[104.4235,12.3135],[104.4139,12.2997],[104.4037,12.2967],[104.3969,12.2903],[104.3905,12.2903],[104.3883,12.2843],[104.3901,12.2635],[104.3993,12.2531],[104.4401,12.2605],[104.4645,12.2505],[104.4723,12.2537],[104.4773,12.2595],[104.4875,12.2545],[104.4967,12.2547],[104.5049,12.2647],[104.5111,12.2685],[104.5179,12.2843],[104.5271,12.2907],[104.5277,12.3069],[104.5417,12.3281],[104.5509,12.3189],[104.5587,12.3205]]]}},{"type":"Feature","properties":{"c":"040609","en":"Prey Mul","km":"ព្រៃមូល"},"geometry":{"type":"Polygon","coordinates":[[[104.5783,12.1815],[104.5633,12.1773],[104.5573,12.1803],[104.5173,12.1771],[104.5131,12.1787],[104.5073,12.1717],[104.5105,12.1605],[104.5105,12.1563],[104.5075,12.1545],[104.5093,12.1403],[104.5173,12.1375],[104.5359,12.1415],[104.5513,12.1375],[104.5579,12.1537],[104.5783,12.1433],[104.5843,12.1373],[104.5967,12.1361],[104.6041,12.1299],[104.6045,12.1339],[104.6113,12.1411],[104.6161,12.1577],[104.6205,12.1623],[104.6049,12.1707],[104.5957,12.1669],[104.5783,12.1815]]]}},{"type":"Feature","properties":{"c":"040610","en":"Rolea B'ier","km":"រលាប្អៀរ"},"geometry":{"type":"Polygon","coordinates":[[[104.6953,12.1199],[104.6661,12.1627],[104.6627,12.1733],[104.6617,12.1889],[104.6543,12.1875],[104.6497,12.1821],[104.6443,12.1813],[104.6375,12.1749],[104.6261,12.1697],[104.6239,12.1631],[104.6161,12.1577],[104.6321,12.1475],[104.6637,12.1107],[104.6757,12.1163],[104.6953,12.1199]]]}},{"type":"Feature","properties":{"c":"040611","en":"Srae Thmei","km":"ស្រែថ្មី"},"geometry":{"type":"Polygon","coordinates":[[[104.6467,12.2657],[104.6431,12.2681],[104.6423,12.2635],[104.6251,12.2583],[104.6191,12.2529],[104.6123,12.2319],[104.6183,12.2205],[104.6119,12.2217],[104.6037,12.2283],[104.5963,12.2197],[104.6057,12.2187],[104.6067,12.2065],[104.6099,12.2023],[104.6189,12.2087],[104.6397,12.2063],[104.6625,12.2213],[104.6585,12.2521],[104.6467,12.2657]]]}},{"type":"Feature","properties":{"c":"040612","en":"Svay Chrum","km":"ស្វាយជ្រុំ"},"geometry":{"type":"Polygon","coordinates":[[[104.6365,12.3497],[104.6093,12.3591],[104.5969,12.3575],[104.5903,12.3611],[104.5837,12.3695],[104.5799,12.3695],[104.5767,12.3631],[104.5729,12.3607],[104.5729,12.3457],[104.5681,12.3407],[104.5703,12.3373],[104.5575,12.3269],[104.5587,12.3205],[104.5691,12.3103],[104.5727,12.3029],[104.5757,12.3017],[104.5945,12.2763],[104.6113,12.2685],[104.6241,12.2713],[104.6251,12.2583],[104.6423,12.2635],[104.6431,12.2681],[104.6467,12.2657],[104.6463,12.2727],[104.6577,12.3155],[104.6653,12.3259],[104.6613,12.3375],[104.6545,12.3447],[104.6365,12.3497]]]}},{"type":"Feature","properties":{"c":"040613","en":"Tuek Hout","km":"ទឹកហូត"},"geometry":{"type":"Polygon","coordinates":[[[104.7655,12.1287],[104.7487,12.1267],[104.7393,12.1293],[104.7283,12.1261],[104.7275,12.1227],[104.7109,12.1187],[104.7077,12.1205],[104.6821,12.1181],[104.6637,12.1107],[104.6723,12.0951],[104.6799,12.0875],[104.6815,12.0815],[104.6749,12.0751],[104.6739,12.0577],[104.6867,12.0645],[104.7007,12.0673],[104.7061,12.0655],[104.7125,12.0669],[104.7251,12.0731],[104.7313,12.0821],[104.7429,12.0869],[104.7521,12.1007],[104.7477,12.1035],[104.7489,12.1135],[104.7613,12.1205],[104.7655,12.1287]]]}}]}