{"type":"FeatureCollection","features":[{"type":"Feature","properties":{"c":"040701","en":"Chhean Laeung","km":"ឈានឡើង"},"geometry":{"type":"Polygon","coordinates":[[[104.5015,11.7373],[104.5017,11.7569],[104.4959,11.7779],[104.4747,11.7815],[104.4615,11.7889],[104.4331,11.8519],[104.4285,11.8579],[104.4147,11.8457],[104.4125,11.8385],[104.4125,11.8335],[104.4171,11.8299],[104.4177,11.8131],[104.4133,11.7997],[104.4191,11.7871],[104.4247,11.7835],[104.4309,11.7691],[104.4387,11.7595],[104.4679,11.7539],[104.4741,11.7443],[104.4885,11.7357],[104.5015,11.7373]]]}},{"type":"Feature","properties":{"c":"040702","en":"Khnar Chhmar","km":"ខ្នារឆ្មារ"},"geometry":{"type":"Polygon","coordinates":[[[104.6361,12.0053],[104.6371,12.0223],[104.6403,12.0289],[104.6255,12.0513],[104.6127,12.0401],[104.6125,12.0295],[104.6055,12.0241],[104.6001,12.0019],[104.6027,11.9941],[104.6033,11.9753],[104.6081,11.9673],[104.6185,11.9705],[104.6349,11.9669],[104.6293,11.9771],[104.6307,11.9851],[104.6361,11.9899],[104.6361,12.0053]]]}},{"type":"Feature","properties":{"c":"040703","en":"Krang Lvea","km":"ក្រាំងល្វា"},"geometry":{"type":"Polygon","coordinates":[[[104.6033,11.9753],[104.6001,11.9715],[104.5949,11.9729],[104.5861,11.9711],[104.5629,11.9777],[104.5549,11.9739],[104.5209,11.9669],[104.4973,11.9711],[104.4913,11.9663],[104.4701,11.9591],[104.4697,11.9561],[104.4597,11.9529],[104.4423,11.9549],[104.4311,11.9527],[104.4221,11.9463],[104.4199,11.9413],[104.4199,11.9307],[104.4257,11.9189],[104.4269,11.9093],[104.4233,11.8769],[104.4247,11.8741],[104.4327,11.8671],[104.4323,11.8631],[104.4361,11.8609],[104.4413,11.8617],[104.4871,11.8761],[104.4969,11.8829],[104.5105,11.8833],[104.5373,11.8903],[104.5407,11.8887],[104.5639,11.8975],[104.5837,11.9131],[104.6021,11.9343],[104.6097,11.9603],[104.6033,11.9753]]]}},{"type":"Feature","properties":{"c":"040704","en":"Peam","km":"ពាម"},"geometry":{"type":"Polygon","coordinates":[[[104.5649,11.7595],[104.5491,11.7805],[104.5377,11.7913],[104.5405,11.8055],[104.5379,11.8175],[104.5287,11.8189],[104.4921,11.8511],[104.4815,11.8575],[104.4625,11.8611],[104.4541,11.8651],[104.4361,11.8609],[104.4323,11.8631],[104.4285,11.8579],[104.4331,11.8519],[104.4615,11.7889],[104.4747,11.7815],[104.4959,11.7779],[104.5017,11.7569],[104.5015,11.7373],[104.5151,11.7345],[104.5339,11.7379],[104.5383,11.7413],[104.5453,11.7407],[104.5513,11.7437],[104.5649,11.7595]]]}},{"type":"Feature","properties":{"c":"040705","en":"Sedthei","km":"សេដ្ឋី"},"geometry":{"type":"Polygon","coordinates":[[[104.7051,11.9013],[104.6777,11.9067],[104.6717,11.9193],[104.6655,11.9245],[104.6569,11.9145],[104.6209,11.8979],[104.6295,11.8837],[104.6303,11.8751],[104.6371,11.8615],[104.6427,11.8539],[104.6519,11.8507],[104.6571,11.8435],[104.6775,11.8573],[104.7061,11.8671],[104.7141,11.8677],[104.7051,11.9013]]]}},{"type":"Feature","properties":{"c":"040706","en":"Svay","km":"ស្វាយ"},"geometry":{"type":"Polygon","coordinates":[[[104.7351,11.8273],[104.7215,11.8481],[104.7141,11.8677],[104.7061,11.8671],[104.6775,11.8573],[104.6571,11.8435],[104.6591,11.8183],[104.6661,11.8079],[104.6727,11.8051],[104.6821,11.8077],[104.6895,11.8143],[104.7043,11.8097],[104.7223,11.8149],[104.7253,11.8169],[104.7261,11.8237],[104.7351,11.8273]]]}},{"type":"Feature","properties":{"c":"040707","en":"Svay Chuk","km":"ស្វាយជុក"},"geometry":{"type":"Polygon","coordinates":[[[104.5465,11.8901],[104.5407,11.8887],[104.5373,11.8903],[104.5105,11.8833],[104.4969,11.8829],[104.4871,11.8761],[104.4541,11.8651],[104.4847,11.8559],[104.5287,11.8189],[104.5379,11.8175],[104.5405,11.8055],[104.5377,11.7913],[104.5491,11.7805],[104.5649,11.7595],[104.5871,11.7793],[104.5951,11.7909],[104.6085,11.7937],[104.6249,11.8063],[104.6323,11.8077],[104.6087,11.8349],[104.5901,11.8515],[104.5809,11.8659],[104.5595,11.8765],[104.5465,11.8901]]]}},{"type":"Feature","properties":{"c":"040708","en":"Tbaeng Khpos","km":"ត្បែងខ្ពស់"},"geometry":{"type":"Polygon","coordinates":[[[104.6209,11.8979],[104.6129,11.8975],[104.6107,11.8999],[104.6085,11.9211],[104.6001,11.9307],[104.5759,11.9059],[104.5639,11.8975],[104.5465,11.8901],[104.5595,11.8765],[104.5809,11.8659],[104.5901,11.8515],[104.6087,11.8349],[104.6323,11.8077],[104.6411,11.8061],[104.6523,11.8107],[104.6661,11.8079],[104.6591,11.8183],[104.6571,11.8435],[104.6519,11.8507],[104.6427,11.8539],[104.6371,11.8615],[104.6303,11.8751],[104.6295,11.8837],[104.6209,11.8979]]]}},{"type":"Feature","properties":{"c":"040709","en":"Thlok Vien","km":"ធ្លកវៀន"},"geometry":{"type":"Polygon","coordinates":[[[104.6349,11.9669],[104.6185,11.9705],[104.6081,11.9673],[104.6091,11.9565],[104.6001,11.9307],[104.6085,11.9211],[104.6107,11.8999],[104.6129,11.8975],[104.6209,11.8979],[104.6569,11.9145],[104.6655,11.9245],[104.6625,11.9329],[104.6635,11.9471],[104.6615,11.9521],[104.6555,11.9593],[104.6349,11.9669]]]}}]}