{"type":"FeatureCollection","features":[{"type":"Feature","properties":{"c":"040801","en":"Akphivoadth","km":"អភិវឌ្ឍន៍"},"geometry":{"type":"Polygon","coordinates":[[[104.6255,12.0513],[104.6185,12.0563],[104.6197,12.0607],[104.6177,12.0639],[104.6073,12.0615],[104.5837,12.0619],[104.5787,12.0593],[104.5737,12.0525],[104.5611,12.0477],[104.5467,12.0497],[104.5431,12.0533],[104.5317,12.0567],[104.5223,12.0553],[104.5235,12.0475],[104.5593,11.9763],[104.5709,11.9767],[104.5861,11.9711],[104.5949,11.9729],[104.6001,11.9715],[104.6033,11.9753],[104.6027,11.9941],[104.6001,12.0019],[104.6055,12.0241],[104.6125,12.0295],[104.6127,12.0401],[104.6149,12.0439],[104.6255,12.0513]]]}},{"type":"Feature","properties":{"c":"040803","en":"Chaong Maong","km":"ចោងម៉ោង"},"geometry":{"type":"Polygon","coordinates":[[[104.5593,11.9763],[104.5235,12.0475],[104.4981,12.0439],[104.4961,12.0229],[104.4915,12.0199],[104.4901,12.0159],[104.4723,12.0081],[104.4639,11.9979],[104.4567,11.9969],[104.4517,11.9803],[104.4575,11.9703],[104.4701,11.9591],[104.4913,11.9663],[104.4973,11.9711],[104.5245,11.9671],[104.5593,11.9763]]]}},{"type":"Feature","properties":{"c":"040802","en":"Chieb","km":"ជៀប"},"geometry":{"type":"Polygon","coordinates":[[[104.3961,12.1331],[104.3597,12.1329],[104.3179,12.1407],[104.2901,12.1309],[104.2707,12.1305],[104.2257,12.1543],[104.1851,12.1523],[104.1861,12.1059],[104.1901,12.1045],[104.1969,12.0951],[104.2057,12.0519],[104.2179,12.0185],[104.2249,12.0121],[104.2519,12.0053],[104.2735,12.0115],[104.3179,12.0185],[104.3879,12.0393],[104.4345,11.9541],[104.4597,11.9529],[104.4697,11.9561],[104.4701,11.9591],[104.4575,11.9703],[104.4517,11.9803],[104.4567,11.9969],[104.4523,12.0057],[104.4495,12.0391],[104.4471,12.0443],[104.4361,12.0479],[104.4295,12.0611],[104.4121,12.0739],[104.4111,12.0853],[104.3969,12.1067],[104.3993,12.1255],[104.3961,12.1331]]]}},{"type":"Feature","properties":{"c":"040804","en":"Kbal Tuek","km":"ក្បាលទឹក"},"geometry":{"type":"Polygon","coordinates":[[[104.4233,11.8769],[104.3803,11.9003],[104.3633,11.9153],[104.3549,11.9321],[104.3545,11.9639],[104.3499,11.9751],[104.3271,11.9861],[104.3173,11.9843],[104.3001,11.9869],[104.2863,11.9933],[104.2789,12.0011],[104.2735,12.0115],[104.2519,12.0053],[104.2585,11.9957],[104.2589,11.9885],[104.2631,11.9793],[104.2621,11.9685],[104.2559,11.9519],[104.2607,11.9365],[104.2683,11.9263],[104.2659,11.9159],[104.2671,11.9117],[104.2807,11.8989],[104.2937,11.8927],[104.3121,11.8773],[104.3141,11.8697],[104.3245,11.8529],[104.3211,11.8401],[104.3239,11.8269],[104.3289,11.8227],[104.3317,11.8157],[104.3753,11.7691],[104.4005,11.7681],[104.4099,11.7633],[104.4345,11.7589],[104.4387,11.7595],[104.4309,11.7691],[104.4247,11.7835],[104.4191,11.7871],[104.4133,11.7997],[104.4177,11.8131],[104.4171,11.8299],[104.4125,11.8335],[104.4125,11.8385],[104.4147,11.8457],[104.4323,11.8631],[104.4327,11.8671],[104.4233,11.8769]]]}},{"type":"Feature","properties":{"c":"040805","en":"Khlong Popok","km":"ខ្លុងពពក"},"geometry":{"type":"Polygon","coordinates":[[[104.4671,12.1277],[104.4565,12.1245],[104.3961,12.1331],[104.3993,12.1255],[104.3969,12.1067],[104.4111,12.0853],[104.4121,12.0739],[104.4295,12.0611],[104.4361,12.0479],[104.4471,12.0443],[104.4495,12.0391],[104.4523,12.0057],[104.4567,11.9969],[104.4639,11.9979],[104.4723,12.0081],[104.4901,12.0159],[104.4915,12.0199],[104.4961,12.0229],[104.4981,12.0439],[104.5235,12.0475],[104.5223,12.0553],[104.5105,12.0783],[104.4671,12.1277]]]}},{"type":"Feature","properties":{"c":"040806","en":"Krang Skear","km":"ក្រាំងស្គារ"},"geometry":{"type":"Polygon","coordinates":[[[104.3643,12.3375],[104.3389,12.3553],[104.3267,12.3373],[104.3153,12.3317],[104.3147,12.3275],[104.3035,12.3263],[104.2961,12.3221],[104.2829,12.3217],[104.2695,12.3095],[104.2639,12.2993],[104.2541,12.2951],[104.2457,12.2959],[104.2207,12.2907],[104.2123,12.2843],[104.1999,12.2663],[104.1909,12.2599],[104.1805,12.2415],[104.1783,12.2331],[104.1723,12.2013],[104.1731,12.1969],[104.1763,12.1947],[104.1715,12.1871],[104.1711,12.1797],[104.1719,12.1761],[104.1833,12.1673],[104.1851,12.1523],[104.2257,12.1543],[104.2707,12.1305],[104.2901,12.1309],[104.3179,12.1407],[104.3247,12.1405],[104.3597,12.1329],[104.4197,12.1311],[104.4565,12.1245],[104.4671,12.1277],[104.4619,12.1343],[104.4729,12.1485],[104.4887,12.1515],[104.5057,12.1593],[104.5105,12.1563],[104.5073,12.1717],[104.5131,12.1787],[104.5113,12.1907],[104.5173,12.2003],[104.5173,12.2041],[104.5087,12.2139],[104.5109,12.2187],[104.5099,12.2253],[104.4983,12.2387],[104.4997,12.2567],[104.4917,12.2539],[104.4773,12.2595],[104.4723,12.2537],[104.4645,12.2505],[104.4401,12.2605],[104.3993,12.2531],[104.3893,12.2663],[104.3903,12.2749],[104.3883,12.2843],[104.3905,12.2903],[104.3733,12.2905],[104.3687,12.2951],[104.3675,12.3109],[104.3635,12.3181],[104.3609,12.3309],[104.3643,12.3375]]]}},{"type":"Feature","properties":{"c":"040807","en":"Tang Krasang","km":"តាំងក្រសាំង"},"geometry":{"type":"Polygon","coordinates":[[[104.5105,12.1563],[104.5057,12.1593],[104.4887,12.1515],[104.4729,12.1485],[104.4619,12.1343],[104.5105,12.0783],[104.5223,12.0553],[104.5317,12.0567],[104.5431,12.0533],[104.5467,12.0497],[104.5611,12.0477],[104.5737,12.0525],[104.5787,12.0593],[104.5837,12.0619],[104.6073,12.0615],[104.6177,12.0639],[104.6193,12.0713],[104.6137,12.1069],[104.6175,12.1151],[104.6139,12.1233],[104.5967,12.1361],[104.5843,12.1373],[104.5783,12.1433],[104.5579,12.1537],[104.5513,12.1375],[104.5359,12.1415],[104.5173,12.1375],[104.5115,12.1385],[104.5093,12.1403],[104.5075,12.1503],[104.5075,12.1545],[104.5105,12.1563]]]}},{"type":"Feature","properties":{"c":"040808","en":"Tuol Khpos","km":"ទួលខ្ពស់"},"geometry":{"type":"Polygon","coordinates":[[[104.4345,11.9541],[104.3879,12.0393],[104.3179,12.0185],[104.2735,12.0115],[104.2789,12.0011],[104.2863,11.9933],[104.3001,11.9869],[104.3173,11.9843],[104.3271,11.9861],[104.3499,11.9751],[104.3545,11.9639],[104.3549,11.9321],[104.3633,11.9153],[104.3803,11.9003],[104.4233,11.8769],[104.4269,11.9093],[104.4257,11.9189],[104.4199,11.9307],[104.4199,11.9413],[104.4221,11.9463],[104.4345,11.9541]]]}}]}