{"type":"FeatureCollection","features":[{"type":"Feature","properties":{"c":"050101","en":"Basedth","km":"បរសេដ្ឋ"},"geometry":{"type":"Polygon","coordinates":[[[104.5651,11.1815],[104.5427,11.1827],[104.5331,11.1765],[104.5201,11.1773],[104.5127,11.1743],[104.5059,11.1757],[104.4929,11.1567],[104.4919,11.1495],[104.4825,11.1375],[104.4787,11.1245],[104.4955,11.1247],[104.5125,11.1313],[104.5215,11.1199],[104.5395,11.1495],[104.5457,11.1577],[104.5561,11.1657],[104.5651,11.1815]]]}},{"type":"Feature","properties":{"c":"050113","en":"Kak","km":"កក់"},"geometry":{"type":"Polygon","coordinates":[[[104.5449,11.2135],[104.5381,11.2119],[104.5217,11.2293],[104.5203,11.2111],[104.4993,11.1905],[104.5049,11.1831],[104.5059,11.1757],[104.5127,11.1743],[104.5201,11.1773],[104.5331,11.1765],[104.5427,11.1827],[104.5651,11.1815],[104.5731,11.1921],[104.5645,11.1931],[104.5521,11.2095],[104.5449,11.2135]]]}},{"type":"Feature","properties":{"c":"050102","en":"Kat Phluk","km":"កាត់ភ្លុក"},"geometry":{"type":"Polygon","coordinates":[[[104.4931,11.1723],[104.4773,11.1965],[104.4751,11.2069],[104.4673,11.2089],[104.4631,11.2185],[104.4571,11.2213],[104.4419,11.2381],[104.4387,11.2479],[104.4351,11.2493],[104.4259,11.2397],[104.4071,11.2269],[104.3959,11.2127],[104.4197,11.2027],[104.4243,11.1953],[104.4333,11.1917],[104.4377,11.1861],[104.4387,11.1827],[104.4327,11.1761],[104.4303,11.1679],[104.4363,11.1605],[104.4405,11.1591],[104.4803,11.1711],[104.4931,11.1723]]]}},{"type":"Feature","properties":{"c":"050103","en":"Nitean","km":"និទាន"},"geometry":{"type":"Polygon","coordinates":[[[104.6483,11.1525],[104.6287,11.1761],[104.6207,11.1805],[104.6045,11.1551],[104.6035,11.1381],[104.5931,11.1291],[104.5933,11.1201],[104.6083,11.1239],[104.6233,11.1133],[104.6299,11.1209],[104.6359,11.1229],[104.6449,11.1191],[104.6521,11.1199],[104.6561,11.1229],[104.6531,11.1301],[104.6543,11.1461],[104.6483,11.1525]]]}},{"type":"Feature","properties":{"c":"050104","en":"Pheakdei","km":"ភក្ដី"},"geometry":{"type":"Polygon","coordinates":[[[104.4405,11.1591],[104.4339,11.1623],[104.4303,11.1679],[104.4327,11.1761],[104.4387,11.1827],[104.4333,11.1917],[104.4243,11.1953],[104.4197,11.2027],[104.3959,11.2127],[104.3865,11.1989],[104.3865,11.1821],[104.3829,11.1689],[104.3879,11.1537],[104.4075,11.1379],[104.4173,11.1325],[104.4323,11.1285],[104.4429,11.1329],[104.4405,11.1591]]]}},{"type":"Feature","properties":{"c":"050105","en":"Pheari Mean Chey","km":"ភារីមានជ័យ"},"geometry":{"type":"Polygon","coordinates":[[[104.6385,11.1983],[104.6007,11.2045],[104.5841,11.2097],[104.5807,11.2067],[104.5785,11.1985],[104.5809,11.1887],[104.5869,11.1823],[104.6241,11.1799],[104.6483,11.1525],[104.6511,11.1779],[104.6407,11.1889],[104.6385,11.1983]]]}},{"type":"Feature","properties":{"c":"050106","en":"Phong","km":"ផុង"},"geometry":{"type":"Polygon","coordinates":[[[104.4991,11.1665],[104.4931,11.1723],[104.4803,11.1711],[104.4405,11.1591],[104.4429,11.1329],[104.4581,11.1249],[104.4787,11.1245],[104.4825,11.1375],[104.4919,11.1495],[104.4929,11.1567],[104.4991,11.1665]]]}},{"type":"Feature","properties":{"c":"050107","en":"Pou Angkrang","km":"ពោធិអង្ក្រង"},"geometry":{"type":"Polygon","coordinates":[[[104.6855,11.1425],[104.6779,11.1435],[104.6693,11.1379],[104.6543,11.1461],[104.6531,11.1301],[104.6561,11.1229],[104.6479,11.1191],[104.6359,11.1229],[104.6277,11.1191],[104.6233,11.1133],[104.6295,11.1057],[104.6295,11.0799],[104.6357,11.0781],[104.6445,11.0847],[104.6539,11.0831],[104.6683,11.0861],[104.6783,11.0915],[104.6863,11.0875],[104.6879,11.1235],[104.6855,11.1425]]]}},{"type":"Feature","properties":{"c":"050108","en":"Pou Chamraeun","km":"ពោធិ៍ចំរើន"},"geometry":{"type":"Polygon","coordinates":[[[104.6233,11.1133],[104.6083,11.1239],[104.6039,11.1239],[104.5977,11.1201],[104.5481,11.1205],[104.5339,11.1109],[104.5423,11.1053],[104.5583,11.1001],[104.5787,11.0963],[104.5967,11.0879],[104.6225,11.0843],[104.6295,11.0799],[104.6295,11.1057],[104.6233,11.1133]]]}},{"type":"Feature","properties":{"c":"050109","en":"Pou Mreal","km":"ពោធិ៍ម្រាល"},"geometry":{"type":"Polygon","coordinates":[[[104.6207,11.1805],[104.5869,11.1823],[104.5809,11.1887],[104.5785,11.1985],[104.5561,11.1657],[104.5433,11.1547],[104.5215,11.1199],[104.5339,11.1109],[104.5481,11.1205],[104.5933,11.1201],[104.5931,11.1291],[104.6035,11.1381],[104.6045,11.1551],[104.6207,11.1805]]]}},{"type":"Feature","properties":{"c":"050115","en":"Preah Khae","km":"ព្រះខែ"},"geometry":{"type":"Polygon","coordinates":[[[104.5217,11.2293],[104.4885,11.2283],[104.4729,11.2527],[104.4545,11.2569],[104.4383,11.2573],[104.4359,11.2531],[104.4351,11.2493],[104.4387,11.2479],[104.4441,11.2351],[104.4571,11.2213],[104.4631,11.2185],[104.4673,11.2089],[104.4751,11.2069],[104.4773,11.1965],[104.4947,11.1697],[104.4991,11.1665],[104.5059,11.1757],[104.5049,11.1831],[104.4993,11.1905],[104.5203,11.2111],[104.5217,11.2293]]]}},{"type":"Feature","properties":{"c":"050110","en":"Svay Chacheb","km":"ស្វាយចចិប"},"geometry":{"type":"Polygon","coordinates":[[[104.4721,11.3187],[104.4637,11.3203],[104.4649,11.3135],[104.4627,11.3051],[104.4593,11.3037],[104.4537,11.2955],[104.4459,11.2719],[104.4375,11.2605],[104.4383,11.2573],[104.4545,11.2569],[104.4729,11.2527],[104.4885,11.2283],[104.5217,11.2293],[104.5235,11.2467],[104.5277,11.2557],[104.5399,11.2703],[104.5399,11.2813],[104.5355,11.2889],[104.5249,11.2987],[104.5071,11.2925],[104.4933,11.2941],[104.4795,11.3091],[104.4771,11.3157],[104.4721,11.3187]]]}},{"type":"Feature","properties":{"c":"050114","en":"Svay Rumpear","km":"ស្វាយរំពារ"},"geometry":{"type":"Polygon","coordinates":[[[104.5867,11.2485],[104.5651,11.2731],[104.5653,11.2373],[104.5539,11.2299],[104.5531,11.2203],[104.5449,11.2135],[104.5521,11.2095],[104.5645,11.1931],[104.5731,11.1921],[104.5785,11.1985],[104.5807,11.2067],[104.6017,11.2347],[104.5867,11.2485]]]}},{"type":"Feature","properties":{"c":"050111","en":"Tuol Ampil","km":"ទួលអំពិល"},"geometry":{"type":"Polygon","coordinates":[[[104.6897,11.1885],[104.6555,11.1985],[104.6385,11.1983],[104.6407,11.1889],[104.6511,11.1779],[104.6483,11.1525],[104.6543,11.1461],[104.6693,11.1379],[104.6779,11.1435],[104.6855,11.1425],[104.6847,11.1599],[104.6897,11.1885]]]}},{"type":"Feature","properties":{"c":"050112","en":"Tuol Sala","km":"ទួលសាលា"},"geometry":{"type":"Polygon","coordinates":[[[104.5651,11.2731],[104.5477,11.2867],[104.5347,11.3045],[104.5249,11.2987],[104.5355,11.2889],[104.5411,11.2759],[104.5369,11.2649],[104.5251,11.2507],[104.5223,11.2429],[104.5217,11.2293],[104.5381,11.2119],[104.5449,11.2135],[104.5531,11.2203],[104.5539,11.2299],[104.5653,11.2373],[104.5651,11.2731]]]}}]}