{"type":"FeatureCollection","features":[{"type":"Feature","properties":{"c":"050201","en":"Chbar Mon","km":"សង្កាត់ច្បារមន"},"geometry":{"type":"Polygon","coordinates":[[[104.5127,11.4993],[104.4965,11.5151],[104.4905,11.5135],[104.4761,11.5157],[104.4555,11.5075],[104.4553,11.4809],[104.4583,11.4745],[104.4651,11.4741],[104.4661,11.4673],[104.4727,11.4649],[104.4771,11.4551],[104.4813,11.4591],[104.4911,11.4611],[104.4941,11.4605],[104.4995,11.4527],[104.5083,11.4557],[104.5107,11.4589],[104.5079,11.4711],[104.5127,11.4993]]]}},{"type":"Feature","properties":{"c":"050202","en":"Kandaol Dom","km":"សង្កាត់កណ្ដោលដុំ"},"geometry":{"type":"Polygon","coordinates":[[[104.4995,11.4527],[104.4941,11.4605],[104.4911,11.4611],[104.4813,11.4591],[104.4771,11.4551],[104.4727,11.4649],[104.4661,11.4673],[104.4651,11.4741],[104.4583,11.4745],[104.4639,11.4541],[104.4685,11.4555],[104.4723,11.4407],[104.4755,11.4429],[104.4781,11.4403],[104.4825,11.4413],[104.4813,11.4375],[104.4833,11.4335],[104.4927,11.4341],[104.4995,11.4527]]]}},{"type":"Feature","properties":{"c":"050203","en":"Rokar Thum","km":"សង្កាត់រការធំ"},"geometry":{"type":"Polygon","coordinates":[[[104.5429,11.4933],[104.5357,11.4907],[104.5333,11.4933],[104.5227,11.4945],[104.5253,11.5041],[104.5169,11.5037],[104.5127,11.4993],[104.5079,11.4711],[104.5107,11.4589],[104.5263,11.4597],[104.5521,11.4745],[104.5491,11.4901],[104.5429,11.4933]]]}},{"type":"Feature","properties":{"c":"050204","en":"Sopoar Tep","km":"សង្កាត់សុព័រទេព"},"geometry":{"type":"Polygon","coordinates":[[[104.5703,11.4603],[104.5681,11.4637],[104.5681,11.4723],[104.5597,11.4721],[104.5555,11.4765],[104.5555,11.4803],[104.5607,11.4847],[104.5579,11.4943],[104.5509,11.4957],[104.5429,11.4933],[104.5491,11.4901],[104.5521,11.4745],[104.5297,11.4619],[104.5377,11.4539],[104.5411,11.4537],[104.5467,11.4595],[104.5467,11.4633],[104.5499,11.4641],[104.5543,11.4641],[104.5643,11.4563],[104.5689,11.4563],[104.5703,11.4603]]]}},{"type":"Feature","properties":{"c":"050205","en":"Svay Kravan","km":"សង្កាត់ស្វាយក្រវ៉ាន់"},"geometry":{"type":"Polygon","coordinates":[[[104.5603,11.4583],[104.5543,11.4641],[104.5467,11.4633],[104.5467,11.4595],[104.5411,11.4537],[104.5377,11.4539],[104.5297,11.4619],[104.5263,11.4597],[104.5107,11.4589],[104.5083,11.4557],[104.4995,11.4527],[104.4927,11.4341],[104.5155,11.4349],[104.5311,11.4319],[104.5325,11.4373],[104.5449,11.4393],[104.5541,11.4505],[104.5571,11.4581],[104.5603,11.4583]]]}}]}