{"type":"FeatureCollection","features":[{"type":"Feature","properties":{"c":"050301","en":"Angk Popel","km":"អង្គពពេល"},"geometry":{"type":"Polygon","coordinates":[[[104.7651,11.3865],[104.7535,11.3883],[104.7415,11.3973],[104.7219,11.3953],[104.7101,11.3829],[104.7095,11.3723],[104.7143,11.3633],[104.7223,11.3551],[104.7325,11.3499],[104.7651,11.3865]]]}},{"type":"Feature","properties":{"c":"050302","en":"Chongruk","km":"ជង្រុក"},"geometry":{"type":"Polygon","coordinates":[[[104.7195,11.3337],[104.7055,11.3331],[104.6947,11.3397],[104.6771,11.3457],[104.6725,11.3221],[104.6553,11.2985],[104.6429,11.2967],[104.6381,11.2909],[104.6627,11.2873],[104.7069,11.2893],[104.7109,11.3213],[104.7195,11.3337]]]}},{"type":"Feature","properties":{"c":"050303","en":"Moha Ruessei","km":"មហាឫស្សី"},"geometry":{"type":"Polygon","coordinates":[[[104.7023,11.2567],[104.6977,11.2589],[104.6657,11.2619],[104.6513,11.2593],[104.6391,11.2629],[104.6273,11.2531],[104.6235,11.2447],[104.6289,11.2391],[104.6419,11.2377],[104.6507,11.2341],[104.6601,11.2377],[104.6805,11.2383],[104.6917,11.2369],[104.6963,11.2329],[104.7015,11.2413],[104.7023,11.2567]]]}},{"type":"Feature","properties":{"c":"050304","en":"Pechr Muni","km":"ពេជ្រមុនី"},"geometry":{"type":"Polygon","coordinates":[[[104.6495,11.3601],[104.6223,11.3887],[104.6171,11.3893],[104.6149,11.3845],[104.6085,11.3811],[104.6061,11.3745],[104.5941,11.3687],[104.6021,11.3649],[104.5991,11.3589],[104.5999,11.3557],[104.6151,11.3499],[104.6235,11.3517],[104.6431,11.3507],[104.6495,11.3601]]]}},{"type":"Feature","properties":{"c":"050305","en":"Preah Nipean","km":"ព្រះនិព្វាន"},"geometry":{"type":"Polygon","coordinates":[[[104.7285,11.4367],[104.7241,11.4347],[104.7199,11.4391],[104.7153,11.4335],[104.7141,11.4169],[104.7043,11.4073],[104.7005,11.4001],[104.7253,11.3949],[104.7415,11.3973],[104.7535,11.3883],[104.7651,11.3865],[104.7883,11.4101],[104.7917,11.4231],[104.7869,11.4237],[104.7843,11.4161],[104.7809,11.4177],[104.7823,11.4217],[104.7745,11.4217],[104.7745,11.4291],[104.7675,11.4217],[104.7613,11.4273],[104.7531,11.4277],[104.7499,11.4249],[104.7363,11.4283],[104.7285,11.4367]]]}},{"type":"Feature","properties":{"c":"050306","en":"Prey Nheat","km":"ព្រៃញាតិ"},"geometry":{"type":"Polygon","coordinates":[[[104.6713,11.3807],[104.6525,11.3815],[104.6495,11.3601],[104.6405,11.3437],[104.6259,11.2925],[104.6381,11.2909],[104.6429,11.2967],[104.6553,11.2985],[104.6725,11.3221],[104.6801,11.3633],[104.6737,11.3677],[104.6713,11.3807]]]}},{"type":"Feature","properties":{"c":"050307","en":"Prey Vihear","km":"ព្រៃវិហារ"},"geometry":{"type":"Polygon","coordinates":[[[104.6963,11.2329],[104.6917,11.2369],[104.6805,11.2383],[104.6601,11.2377],[104.6507,11.2341],[104.6413,11.2249],[104.6375,11.2173],[104.6385,11.1983],[104.6555,11.1985],[104.6897,11.1885],[104.6963,11.2329]]]}},{"type":"Feature","properties":{"c":"050308","en":"Roka Kaoh","km":"រកាកោះ"},"geometry":{"type":"Polygon","coordinates":[[[104.6995,11.4303],[104.6959,11.4347],[104.6897,11.4363],[104.6871,11.4299],[104.6787,11.4219],[104.6615,11.4343],[104.6565,11.4355],[104.6507,11.4059],[104.6525,11.3815],[104.6795,11.3803],[104.6907,11.3889],[104.7141,11.4169],[104.7153,11.4335],[104.7045,11.4295],[104.6995,11.4303]]]}},{"type":"Feature","properties":{"c":"050309","en":"Sdok","km":"ស្ដុក"},"geometry":{"type":"Polygon","coordinates":[[[104.6155,11.2511],[104.6103,11.2565],[104.5995,11.2585],[104.5953,11.2521],[104.5867,11.2485],[104.6017,11.2347],[104.5841,11.2097],[104.6007,11.2045],[104.6385,11.1983],[104.6375,11.2173],[104.6413,11.2249],[104.6507,11.2341],[104.6419,11.2377],[104.6289,11.2391],[104.6155,11.2511]]]}},{"type":"Feature","properties":{"c":"050310","en":"Snam Krapeu","km":"ស្នំក្រពើ"},"geometry":{"type":"Polygon","coordinates":[[[104.6381,11.2909],[104.6259,11.2925],[104.6239,11.2889],[104.6155,11.2511],[104.6235,11.2447],[104.6273,11.2531],[104.6391,11.2629],[104.6513,11.2593],[104.6657,11.2619],[104.6977,11.2589],[104.7023,11.2567],[104.7069,11.2893],[104.6627,11.2873],[104.6381,11.2909]]]}},{"type":"Feature","properties":{"c":"050311","en":"Srang","km":"ស្រង់"},"geometry":{"type":"Polygon","coordinates":[[[104.6325,11.3147],[104.6237,11.3167],[104.6205,11.3301],[104.6051,11.3367],[104.5929,11.3361],[104.5901,11.3383],[104.5793,11.3587],[104.5751,11.3577],[104.5591,11.3401],[104.5347,11.3045],[104.5477,11.2867],[104.5535,11.2807],[104.5617,11.2769],[104.5867,11.2485],[104.5953,11.2521],[104.5995,11.2585],[104.6103,11.2565],[104.6155,11.2511],[104.6239,11.2889],[104.6325,11.3147]]]}},{"type":"Feature","properties":{"c":"050312","en":"Tuek L'ak","km":"ទឹកល្អក់"},"geometry":{"type":"Polygon","coordinates":[[[104.6431,11.3507],[104.6235,11.3517],[104.6151,11.3499],[104.5999,11.3557],[104.5991,11.3589],[104.5793,11.3587],[104.5901,11.3383],[104.5929,11.3361],[104.6051,11.3367],[104.6205,11.3301],[104.6237,11.3167],[104.6325,11.3147],[104.6431,11.3507]]]}},{"type":"Feature","properties":{"c":"050313","en":"Veal","km":"វាល"},"geometry":{"type":"Polygon","coordinates":[[[104.7219,11.3953],[104.7005,11.4001],[104.6827,11.3813],[104.6713,11.3807],[104.6737,11.3677],[104.6801,11.3633],[104.6771,11.3457],[104.6947,11.3397],[104.7055,11.3331],[104.7195,11.3337],[104.7325,11.3499],[104.7223,11.3551],[104.7143,11.3633],[104.7095,11.3723],[104.7101,11.3829],[104.7219,11.3953]]]}}]}