{"type":"FeatureCollection","features":[{"type":"Feature","properties":{"c":"050401","en":"Haong Samnam","km":"ហោងសំណំ"},"geometry":{"type":"Polygon","coordinates":[[[104.3029,11.6003],[104.2981,11.6007],[104.2459,11.6263],[104.2379,11.6379],[104.2139,11.6411],[104.2083,11.6395],[104.2073,11.5877],[104.2025,11.5829],[104.1909,11.5791],[104.1899,11.5757],[104.1939,11.5767],[104.2033,11.5667],[104.2127,11.5679],[104.2127,11.5641],[104.2153,11.5627],[104.2179,11.5651],[104.2215,11.5635],[104.2207,11.5553],[104.2231,11.5537],[104.2253,11.5577],[104.2269,11.5469],[104.2341,11.5471],[104.2351,11.5443],[104.2313,11.5433],[104.2293,11.5393],[104.2355,11.5361],[104.2423,11.5375],[104.2419,11.5335],[104.2445,11.5313],[104.2571,11.5283],[104.2549,11.5213],[104.2587,11.5133],[104.2661,11.5119],[104.2767,11.5155],[104.2813,11.5145],[104.2899,11.5089],[104.2927,11.5013],[104.2953,11.5035],[104.2953,11.5107],[104.3015,11.5269],[104.2989,11.5371],[104.3013,11.5493],[104.2897,11.5563],[104.2837,11.5659],[104.2767,11.5697],[104.2745,11.5737],[104.2829,11.5903],[104.3029,11.6003]]]}},{"type":"Feature","properties":{"c":"050402","en":"Reaksmei Sameakki","km":"រស្មីសាមគ្គី"},"geometry":{"type":"Polygon","coordinates":[[[104.1909,11.5791],[104.1847,11.5817],[104.1789,11.5887],[104.1863,11.5943],[104.1903,11.6057],[104.1793,11.6105],[104.1765,11.6241],[104.1725,11.6241],[104.1703,11.6265],[104.1727,11.6283],[104.1605,11.6391],[104.1597,11.6357],[104.1553,11.6341],[104.1515,11.6359],[104.1427,11.6347],[104.1375,11.6259],[104.1299,11.6251],[104.1271,11.6273],[104.1233,11.6253],[104.1191,11.6171],[104.1123,11.6161],[104.1013,11.6099],[104.0769,11.6027],[104.0683,11.6053],[104.0525,11.5989],[104.0429,11.5943],[104.0237,11.5721],[104.0237,11.5059],[104.0253,11.5015],[104.0399,11.4949],[104.0465,11.4979],[104.0543,11.4951],[104.0839,11.5095],[104.1011,11.5037],[104.1087,11.5103],[104.1171,11.5103],[104.1383,11.4983],[104.1573,11.4963],[104.1771,11.4883],[104.1815,11.4831],[104.1941,11.4801],[104.2145,11.5053],[104.2337,11.5189],[104.2413,11.5201],[104.2475,11.5297],[104.2419,11.5335],[104.2423,11.5375],[104.2355,11.5361],[104.2293,11.5393],[104.2313,11.5433],[104.2351,11.5443],[104.2341,11.5471],[104.2269,11.5469],[104.2253,11.5577],[104.2231,11.5537],[104.2207,11.5553],[104.2215,11.5635],[104.2179,11.5651],[104.2153,11.5627],[104.2127,11.5641],[104.2127,11.5679],[104.2033,11.5667],[104.1939,11.5767],[104.1899,11.5757],[104.1909,11.5791]]]}},{"type":"Feature","properties":{"c":"050404","en":"Sangkae Satob","km":"សង្កែសាទប"},"geometry":{"type":"Polygon","coordinates":[[[104.2261,11.7353],[104.1957,11.7521],[104.1829,11.7511],[104.1765,11.7457],[104.1669,11.7499],[104.1543,11.7451],[104.1391,11.7519],[104.1323,11.7523],[104.1237,11.7617],[104.1075,11.7449],[104.1007,11.7413],[104.1007,11.7337],[104.0929,11.7317],[104.0919,11.7205],[104.0989,11.7147],[104.0983,11.6997],[104.1021,11.6913],[104.1095,11.6925],[104.1123,11.6907],[104.1151,11.6867],[104.1149,11.6755],[104.1257,11.6743],[104.1271,11.6681],[104.1333,11.6697],[104.1399,11.6545],[104.1391,11.6509],[104.1437,11.6449],[104.1543,11.6383],[104.1553,11.6341],[104.1597,11.6357],[104.1605,11.6391],[104.1645,11.6373],[104.1727,11.6283],[104.1703,11.6265],[104.1725,11.6241],[104.1765,11.6241],[104.1793,11.6105],[104.1903,11.6057],[104.1863,11.5943],[104.1789,11.5887],[104.1875,11.5797],[104.1993,11.5815],[104.2073,11.5877],[104.2083,11.6395],[104.2139,11.6411],[104.2379,11.6379],[104.2459,11.6263],[104.2981,11.6007],[104.3029,11.6003],[104.3043,11.6079],[104.2883,11.6121],[104.2819,11.6199],[104.2823,11.6361],[104.2867,11.6529],[104.2793,11.6551],[104.2655,11.6689],[104.2643,11.6839],[104.2611,11.6927],[104.2527,11.7023],[104.2343,11.7119],[104.2275,11.7237],[104.2261,11.7353]]]}},{"type":"Feature","properties":{"c":"050405","en":"Ta Sal","km":"តាសាល"},"geometry":{"type":"Polygon","coordinates":[[[103.9477,11.9435],[103.9391,11.9419],[103.9351,11.9357],[103.9179,11.9307],[103.9165,11.9117],[103.9213,11.8987],[103.9139,11.8909],[103.8923,11.8849],[103.8733,11.8607],[103.8755,11.8573],[103.8747,11.8493],[103.8683,11.8497],[103.8631,11.8443],[103.8307,11.8357],[103.8079,11.8403],[103.7887,11.8503],[103.7847,11.8495],[103.7813,11.8321],[103.7843,11.8087],[103.7933,11.8011],[103.7929,11.7907],[103.7921,11.7871],[103.7775,11.7781],[103.7735,11.7729],[103.7761,11.7623],[103.7829,11.7517],[103.7759,11.7381],[103.7739,11.7209],[103.7761,11.7109],[103.7993,11.6865],[103.8021,11.6775],[103.8031,11.6669],[103.7965,11.6511],[103.7953,11.6245],[103.8189,11.6181],[103.8327,11.6075],[103.8387,11.5961],[103.8585,11.5839],[103.8633,11.5789],[103.8619,11.5745],[103.8739,11.5677],[103.8817,11.5671],[103.8877,11.5587],[103.9049,11.5561],[103.9137,11.5515],[103.9177,11.5371],[103.9253,11.5359],[103.9289,11.5329],[103.9335,11.5213],[103.9375,11.5171],[103.9581,11.5173],[103.9757,11.5265],[103.9821,11.5239],[103.9967,11.5301],[104.0017,11.5299],[104.0145,11.5199],[104.0237,11.5059],[104.0237,11.5721],[104.0429,11.5943],[104.0683,11.6053],[104.0769,11.6027],[104.1013,11.6099],[104.1123,11.6161],[104.1191,11.6171],[104.1233,11.6253],[104.1271,11.6273],[104.1299,11.6251],[104.1375,11.6259],[104.1427,11.6347],[104.1515,11.6359],[104.1553,11.6341],[104.1543,11.6383],[104.1469,11.6415],[104.1391,11.6509],[104.1399,11.6545],[104.1333,11.6697],[104.1271,11.6681],[104.1257,11.6743],[104.1149,11.6755],[104.1151,11.6867],[104.1123,11.6907],[104.1095,11.6925],[104.1021,11.6913],[104.0983,11.6997],[104.0989,11.7147],[104.0919,11.7205],[104.0929,11.7317],[104.1007,11.7337],[104.1007,11.7413],[104.1075,11.7449],[104.1237,11.7617],[104.1325,11.8133],[104.1327,11.8691],[104.1075,11.8921],[104.0815,11.9027],[104.0577,11.9209],[104.0435,11.9215],[104.0197,11.9013],[103.9917,11.9029],[103.9807,11.9219],[103.9785,11.9311],[103.9737,11.9359],[103.9639,11.9357],[103.9619,11.9379],[103.9521,11.9393],[103.9477,11.9435]]]}},{"type":"Feature","properties":{"c":"050403","en":"Trapeang Chour","km":"ត្រពាំងជោ"},"geometry":{"type":"Polygon","coordinates":[[[104.2519,12.0053],[104.2249,12.0121],[104.2179,12.0185],[104.1993,12.0767],[104.1887,12.0675],[104.1813,12.0511],[104.1827,12.0393],[104.1801,12.0377],[104.1725,12.0407],[104.1649,12.0481],[104.1493,12.0507],[104.1433,12.0437],[104.1391,12.0427],[104.1251,12.0477],[104.1141,12.0471],[104.1025,12.0377],[104.0951,12.0387],[104.0971,12.0207],[104.0871,11.9817],[104.0811,11.9853],[104.0779,11.9847],[104.0741,11.9813],[104.0763,11.9763],[104.0729,11.9689],[104.0579,11.9685],[104.0505,11.9557],[104.0545,11.9515],[104.0633,11.9273],[104.0621,11.9235],[104.0577,11.9209],[104.0815,11.9027],[104.1075,11.8921],[104.1327,11.8691],[104.1325,11.8133],[104.1237,11.7617],[104.1323,11.7523],[104.1391,11.7519],[104.1543,11.7451],[104.1669,11.7499],[104.1765,11.7457],[104.1829,11.7511],[104.1957,11.7521],[104.2261,11.7353],[104.2325,11.7447],[104.2427,11.7491],[104.2435,11.9425],[104.2565,11.9567],[104.2621,11.9685],[104.2631,11.9793],[104.2589,11.9885],[104.2585,11.9957],[104.2519,12.0053]]]}}]}