{"type":"FeatureCollection","features":[{"type":"Feature","properties":{"c":"050501","en":"Chan Saen","km":"ចាន់សែន"},"geometry":{"type":"Polygon","coordinates":[[[104.6229,11.7093],[104.6081,11.7079],[104.5967,11.7121],[104.5963,11.6979],[104.5893,11.6931],[104.5881,11.6889],[104.5913,11.6749],[104.5987,11.6669],[104.6079,11.6627],[104.6093,11.6501],[104.6255,11.6597],[104.6633,11.6627],[104.6743,11.6557],[104.6915,11.6547],[104.6935,11.6657],[104.6775,11.6675],[104.6705,11.6713],[104.6627,11.6703],[104.6477,11.6811],[104.6421,11.6891],[104.6333,11.6837],[104.6295,11.6859],[104.6237,11.6943],[104.6229,11.7093]]]}},{"type":"Feature","properties":{"c":"050502","en":"Cheung Roas","km":"ជើងរាស់"},"geometry":{"type":"Polygon","coordinates":[[[104.6093,11.6501],[104.6079,11.6627],[104.5987,11.6669],[104.5561,11.6637],[104.5493,11.6537],[104.5505,11.6339],[104.5493,11.6291],[104.5453,11.6259],[104.5577,11.6191],[104.5605,11.6117],[104.5789,11.6021],[104.5919,11.6179],[104.6031,11.6231],[104.6087,11.6285],[104.6093,11.6501]]]}},{"type":"Feature","properties":{"c":"050503","en":"Chumpu Proeks","km":"ជំពូព្រឹក្ស"},"geometry":{"type":"Polygon","coordinates":[[[104.4683,11.5977],[104.4543,11.5995],[104.4397,11.5937],[104.4295,11.5873],[104.4191,11.5699],[104.4305,11.5603],[104.4451,11.5547],[104.4573,11.5635],[104.4673,11.5645],[104.4831,11.5847],[104.4683,11.5977]]]}},{"type":"Feature","properties":{"c":"050513","en":"Damnak Reang","km":"ដំណាក់រាំង"},"geometry":{"type":"Polygon","coordinates":[[[104.6915,11.6547],[104.6743,11.6557],[104.6633,11.6627],[104.6255,11.6597],[104.6093,11.6501],[104.6087,11.6285],[104.6205,11.6273],[104.6259,11.6237],[104.6517,11.6221],[104.6603,11.6183],[104.6821,11.6227],[104.6915,11.6547]]]}},{"type":"Feature","properties":{"c":"050504","en":"Khsem Khsant","km":"ក្សេមក្សាន្ដ"},"geometry":{"type":"Polygon","coordinates":[[[104.7251,11.7285],[104.7171,11.7361],[104.7095,11.7297],[104.7071,11.7219],[104.6899,11.7157],[104.6687,11.7133],[104.6653,11.7109],[104.6479,11.7131],[104.6315,11.7079],[104.6229,11.7093],[104.6237,11.6943],[104.6259,11.6893],[104.6333,11.6837],[104.6421,11.6891],[104.6477,11.6811],[104.6627,11.6703],[104.6705,11.6713],[104.6775,11.6675],[104.6935,11.6657],[104.7017,11.6855],[104.7185,11.7127],[104.7251,11.7285]]]}},{"type":"Feature","properties":{"c":"050505","en":"Krang Chek","km":"ក្រាំងចេក"},"geometry":{"type":"Polygon","coordinates":[[[104.5453,11.6259],[104.5379,11.6291],[104.5345,11.6245],[104.5279,11.6025],[104.5087,11.5795],[104.4981,11.5745],[104.4993,11.5679],[104.5103,11.5683],[104.5185,11.5643],[104.5247,11.5579],[104.5335,11.5597],[104.5449,11.5555],[104.5603,11.5699],[104.5751,11.5707],[104.5801,11.5863],[104.5789,11.6021],[104.5605,11.6117],[104.5577,11.6191],[104.5453,11.6259]]]}},{"type":"Feature","properties":{"c":"050506","en":"Mean Chey","km":"មានជ័យ"},"geometry":{"type":"Polygon","coordinates":[[[104.5957,11.7149],[104.5929,11.7163],[104.5931,11.7201],[104.5829,11.7187],[104.5803,11.7221],[104.5759,11.7219],[104.5649,11.7117],[104.5449,11.7075],[104.5251,11.7067],[104.5253,11.7029],[104.5267,11.6983],[104.5387,11.6851],[104.5505,11.6821],[104.5547,11.6779],[104.5561,11.6637],[104.5907,11.6653],[104.5987,11.6669],[104.5913,11.6749],[104.5883,11.6835],[104.5893,11.6931],[104.5963,11.6979],[104.5957,11.7149]]]}},{"type":"Feature","properties":{"c":"050514","en":"Peang Lvea","km":"ពាំងល្វា"},"geometry":{"type":"Polygon","coordinates":[[[104.6259,11.6237],[104.6205,11.6273],[104.6087,11.6285],[104.6031,11.6231],[104.5919,11.6179],[104.5789,11.6021],[104.5801,11.5863],[104.5751,11.5707],[104.5819,11.5613],[104.5919,11.5557],[104.6213,11.5525],[104.6287,11.5543],[104.6227,11.5655],[104.6193,11.5889],[104.6209,11.6125],[104.6259,11.6237]]]}},{"type":"Feature","properties":{"c":"050515","en":"Phnom Touch","km":"ភ្នំតូច"},"geometry":{"type":"Polygon","coordinates":[[[104.6821,11.6227],[104.6637,11.6183],[104.6419,11.6239],[104.6259,11.6237],[104.6231,11.6205],[104.6203,11.6083],[104.6195,11.5855],[104.6227,11.5655],[104.6287,11.5543],[104.6787,11.5607],[104.6781,11.6015],[104.6821,11.6227]]]}},{"type":"Feature","properties":{"c":"050507","en":"Preah Srae","km":"ព្រះស្រែ"},"geometry":{"type":"Polygon","coordinates":[[[104.7481,11.7917],[104.7365,11.7961],[104.7291,11.8159],[104.7157,11.8145],[104.7043,11.8097],[104.7041,11.7919],[104.6963,11.7749],[104.6891,11.7669],[104.6881,11.7605],[104.6943,11.7547],[104.7065,11.7489],[104.7251,11.7285],[104.7481,11.7917]]]}},{"type":"Feature","properties":{"c":"050508","en":"Prey Krasang","km":"ព្រៃក្រសាំង"},"geometry":{"type":"Polygon","coordinates":[[[104.5379,11.6291],[104.5247,11.6397],[104.5153,11.6361],[104.5017,11.6383],[104.5001,11.6291],[104.4959,11.6309],[104.4909,11.6295],[104.4809,11.6213],[104.4683,11.5977],[104.4831,11.5847],[104.4959,11.5821],[104.4981,11.5745],[104.5087,11.5795],[104.5279,11.6025],[104.5345,11.6245],[104.5379,11.6291]]]}},{"type":"Feature","properties":{"c":"050509","en":"Trach Tong","km":"ត្រាចទង"},"geometry":{"type":"Polygon","coordinates":[[[104.6943,11.7547],[104.6609,11.7557],[104.6573,11.7551],[104.6521,11.7477],[104.6231,11.7457],[104.6133,11.7255],[104.5975,11.7173],[104.5967,11.7121],[104.6081,11.7079],[104.6183,11.7097],[104.6315,11.7079],[104.6479,11.7131],[104.6653,11.7109],[104.6687,11.7133],[104.6899,11.7157],[104.7043,11.7203],[104.7091,11.7247],[104.7095,11.7297],[104.7171,11.7361],[104.7065,11.7489],[104.6943,11.7547]]]}},{"type":"Feature","properties":{"c":"050510","en":"Veal Pong","km":"វាលពង់"},"geometry":{"type":"Polygon","coordinates":[[[104.7043,11.8097],[104.6895,11.8143],[104.6821,11.8077],[104.6727,11.8051],[104.6523,11.8107],[104.6411,11.8061],[104.6249,11.8063],[104.6181,11.7925],[104.6231,11.7457],[104.6521,11.7477],[104.6573,11.7551],[104.6609,11.7557],[104.6943,11.7547],[104.6881,11.7605],[104.6877,11.7637],[104.7027,11.7879],[104.7043,11.8097]]]}},{"type":"Feature","properties":{"c":"050511","en":"Veang Chas","km":"វាំងចាស់"},"geometry":{"type":"Polygon","coordinates":[[[104.7517,11.8213],[104.7407,11.8247],[104.7393,11.8285],[104.7261,11.8237],[104.7253,11.8205],[104.7253,11.8169],[104.7319,11.8125],[104.7365,11.7961],[104.7481,11.7917],[104.7515,11.8037],[104.7517,11.8213]]]}},{"type":"Feature","properties":{"c":"050512","en":"Yutth Sameakki","km":"យុទ្ធសាមគ្គី"},"geometry":{"type":"Polygon","coordinates":[[[104.5561,11.6637],[104.5547,11.6779],[104.5505,11.6821],[104.5387,11.6851],[104.5267,11.6983],[104.5251,11.7067],[104.5047,11.7055],[104.5057,11.6869],[104.5017,11.6383],[104.5153,11.6361],[104.5247,11.6397],[104.5453,11.6259],[104.5493,11.6291],[104.5505,11.6339],[104.5493,11.6537],[104.5561,11.6637]]]}}]}