{"type":"FeatureCollection","features":[{"type":"Feature","properties":{"c":"050601","en":"Chambak","km":"ចំបក់"},"geometry":{"type":"Polygon","coordinates":[[[104.1593,11.3709],[104.1589,11.4011],[104.1487,11.4067],[104.1447,11.3985],[104.1413,11.3987],[104.1395,11.4019],[104.1323,11.4013],[104.1249,11.4079],[104.1153,11.4075],[104.1091,11.4031],[104.1037,11.4085],[104.0929,11.4119],[104.0853,11.4127],[104.0827,11.4093],[104.0751,11.4111],[104.0665,11.4195],[104.0503,11.4203],[104.0447,11.4149],[104.0533,11.4005],[104.0503,11.3863],[104.0701,11.3701],[104.0861,11.3655],[104.0943,11.3431],[104.1045,11.3271],[104.1047,11.3215],[104.1225,11.3193],[104.1283,11.3169],[104.1323,11.3105],[104.1417,11.3233],[104.1453,11.3483],[104.1511,11.3577],[104.1531,11.3661],[104.1593,11.3709]]]}},{"type":"Feature","properties":{"c":"050602","en":"Choam Sangkae","km":"ជាំសង្កែ"},"geometry":{"type":"Polygon","coordinates":[[[104.3899,11.3197],[104.3655,11.3197],[104.3615,11.3165],[104.3537,11.2837],[104.3481,11.2779],[104.3463,11.2679],[104.3303,11.2579],[104.3405,11.2259],[104.3409,11.2149],[104.3345,11.1903],[104.3263,11.1705],[104.3251,11.1577],[104.3271,11.1511],[104.3383,11.1377],[104.3469,11.1391],[104.3679,11.1329],[104.3701,11.1351],[104.3885,11.1379],[104.3935,11.1431],[104.3969,11.1477],[104.3879,11.1537],[104.3829,11.1689],[104.3865,11.1821],[104.3855,11.1889],[104.3883,11.2037],[104.4071,11.2269],[104.4259,11.2397],[104.4351,11.2493],[104.4147,11.2657],[104.4043,11.2795],[104.3877,11.2879],[104.3861,11.3157],[104.3899,11.3197]]]}},{"type":"Feature","properties":{"c":"050603","en":"Dambouk Rung","km":"ដំបូករូង"},"geometry":{"type":"Polygon","coordinates":[[[104.3581,11.3079],[104.3287,11.3085],[104.3079,11.3045],[104.2997,11.3067],[104.2987,11.2965],[104.2825,11.2913],[104.2735,11.2625],[104.2589,11.2491],[104.2573,11.2443],[104.2597,11.2265],[104.2543,11.2121],[104.2565,11.2055],[104.2547,11.1983],[104.2577,11.1775],[104.2565,11.1639],[104.2613,11.1473],[104.2599,11.1313],[104.2693,11.0975],[104.2785,11.1019],[104.2931,11.1045],[104.3083,11.1037],[104.3129,11.1065],[104.3183,11.1163],[104.3245,11.1175],[104.3317,11.1321],[104.3383,11.1377],[104.3271,11.1511],[104.3251,11.1577],[104.3263,11.1705],[104.3345,11.1903],[104.3409,11.2149],[104.3405,11.2259],[104.3303,11.2579],[104.3463,11.2679],[104.3481,11.2779],[104.3537,11.2837],[104.3581,11.3079]]]}},{"type":"Feature","properties":{"c":"050604","en":"Kiri Voan","km":"គិរីវន្ដ"},"geometry":{"type":"Polygon","coordinates":[[[104.4261,11.3453],[104.4087,11.3637],[104.3887,11.3971],[104.3741,11.3847],[104.3663,11.3747],[104.3553,11.3675],[104.3625,11.3581],[104.3743,11.3521],[104.3849,11.3397],[104.4025,11.3315],[104.4121,11.3335],[104.4261,11.3453]]]}},{"type":"Feature","properties":{"c":"050605","en":"Krang Dei Vay","km":"ក្រាំងដីវ៉ាយ"},"geometry":{"type":"Polygon","coordinates":[[[104.2927,11.5013],[104.2899,11.5089],[104.2813,11.5145],[104.2767,11.5155],[104.2661,11.5119],[104.2587,11.5133],[104.2549,11.5213],[104.2571,11.5283],[104.2475,11.5297],[104.2413,11.5201],[104.2337,11.5189],[104.2145,11.5053],[104.1941,11.4801],[104.1815,11.4831],[104.1771,11.4883],[104.1573,11.4963],[104.1383,11.4983],[104.1171,11.5103],[104.1087,11.5103],[104.1011,11.5037],[104.0839,11.5095],[104.0789,11.5081],[104.0543,11.4951],[104.0629,11.4715],[104.0643,11.4575],[104.0613,11.4541],[104.0489,11.4489],[104.0473,11.4419],[104.0419,11.4359],[104.0445,11.4279],[104.0447,11.4149],[104.0503,11.4203],[104.0665,11.4195],[104.0751,11.4111],[104.0827,11.4093],[104.0853,11.4127],[104.0929,11.4119],[104.1037,11.4085],[104.1091,11.4031],[104.1153,11.4075],[104.1249,11.4079],[104.1323,11.4013],[104.1395,11.4019],[104.1413,11.3987],[104.1447,11.3985],[104.1487,11.4067],[104.1589,11.4011],[104.1593,11.3709],[104.1667,11.3763],[104.1865,11.3825],[104.2085,11.3713],[104.2103,11.3773],[104.2077,11.3797],[104.2091,11.3831],[104.2049,11.3921],[104.2043,11.4031],[104.2097,11.4045],[104.2317,11.4445],[104.2451,11.4625],[104.2537,11.4681],[104.2715,11.4709],[104.3077,11.4819],[104.2991,11.4905],[104.2927,11.5013]]]}},{"type":"Feature","properties":{"c":"050606","en":"Moha Sang","km":"មហាសាំង"},"geometry":{"type":"Polygon","coordinates":[[[104.4407,11.4357],[104.4361,11.4369],[104.4277,11.4461],[104.4189,11.4495],[104.4095,11.4487],[104.4029,11.4521],[104.3931,11.4495],[104.3911,11.4467],[104.3915,11.4117],[104.3887,11.3971],[104.4113,11.3605],[104.4261,11.3453],[104.4387,11.3385],[104.4409,11.3495],[104.4377,11.3615],[104.4411,11.3791],[104.4377,11.4071],[104.4409,11.4131],[104.4385,11.4219],[104.4407,11.4357]]]}},{"type":"Feature","properties":{"c":"050607","en":"Ou","km":"អូរ"},"geometry":{"type":"Polygon","coordinates":[[[104.4025,11.3315],[104.3849,11.3397],[104.3743,11.3521],[104.3625,11.3581],[104.3553,11.3675],[104.3487,11.3667],[104.3009,11.3369],[104.2967,11.3269],[104.2959,11.3083],[104.3079,11.3045],[104.3287,11.3085],[104.3543,11.3069],[104.3581,11.3079],[104.3615,11.3165],[104.3655,11.3197],[104.3997,11.3213],[104.4027,11.3253],[104.4025,11.3315]]]}},{"type":"Feature","properties":{"c":"050609","en":"Prey Kmeng","km":"ព្រៃក្មេង"},"geometry":{"type":"Polygon","coordinates":[[[104.4387,11.3385],[104.4261,11.3453],[104.4121,11.3335],[104.4025,11.3315],[104.4027,11.3253],[104.3997,11.3213],[104.3899,11.3197],[104.3861,11.3157],[104.3877,11.2879],[104.4043,11.2795],[104.4147,11.2657],[104.4351,11.2493],[104.4375,11.2605],[104.4459,11.2719],[104.4523,11.2925],[104.4593,11.3037],[104.4627,11.3051],[104.4649,11.3135],[104.4637,11.3203],[104.4557,11.3311],[104.4493,11.3363],[104.4387,11.3385]]]}},{"type":"Feature","properties":{"c":"050608","en":"Prey Rumduol","km":"ព្រៃរំដួល"},"geometry":{"type":"Polygon","coordinates":[[[104.3553,11.3675],[104.3527,11.3773],[104.3455,11.3903],[104.3229,11.4125],[104.3205,11.4223],[104.3255,11.4291],[104.3249,11.4331],[104.3155,11.4405],[104.3091,11.4229],[104.3029,11.4139],[104.3001,11.3951],[104.2861,11.3761],[104.2889,11.3451],[104.2937,11.3393],[104.3009,11.3369],[104.3435,11.3647],[104.3553,11.3675]]]}},{"type":"Feature","properties":{"c":"050610","en":"Tang Samraong","km":"តាំងសំរោង"},"geometry":{"type":"Polygon","coordinates":[[[104.3475,11.4601],[104.3375,11.4683],[104.3077,11.4819],[104.2715,11.4709],[104.2537,11.4681],[104.2451,11.4625],[104.2377,11.4533],[104.2119,11.4077],[104.2097,11.4045],[104.2043,11.4031],[104.2049,11.3921],[104.2091,11.3831],[104.2077,11.3797],[104.2103,11.3773],[104.2085,11.3713],[104.2225,11.3637],[104.2287,11.3553],[104.2371,11.3503],[104.2531,11.3473],[104.2575,11.3417],[104.2695,11.3337],[104.2825,11.3313],[104.2931,11.3255],[104.2967,11.3269],[104.3009,11.3369],[104.2937,11.3393],[104.2889,11.3451],[104.2861,11.3761],[104.3001,11.3951],[104.3029,11.4139],[104.3107,11.4269],[104.3163,11.4497],[104.3211,11.4577],[104.3265,11.4551],[104.3395,11.4545],[104.3475,11.4601]]]}},{"type":"Feature","properties":{"c":"050611","en":"Tang Sya","km":"តាំងស្យា"},"geometry":{"type":"Polygon","coordinates":[[[104.3911,11.4467],[104.3857,11.4447],[104.3733,11.4465],[104.3699,11.4495],[104.3687,11.4573],[104.3651,11.4567],[104.3575,11.4629],[104.3475,11.4601],[104.3395,11.4545],[104.3265,11.4551],[104.3211,11.4577],[104.3163,11.4497],[104.3155,11.4405],[104.3249,11.4331],[104.3255,11.4291],[104.3205,11.4223],[104.3205,11.4171],[104.3267,11.4073],[104.3455,11.3903],[104.3527,11.3773],[104.3553,11.3675],[104.3663,11.3747],[104.3741,11.3847],[104.3887,11.3971],[104.3915,11.4117],[104.3911,11.4467]]]}},{"type":"Feature","properties":{"c":"050613","en":"Traeng Trayueng","km":"ត្រែងត្រយឹង"},"geometry":{"type":"Polygon","coordinates":[[[104.0907,11.3521],[104.0861,11.3655],[104.0701,11.3701],[104.0503,11.3863],[104.0545,11.3759],[104.0611,11.3699],[104.0601,11.3537],[104.0577,11.3513],[104.0485,11.3515],[104.0407,11.3321],[104.0403,11.3251],[104.0445,11.3141],[104.0431,11.3071],[104.0515,11.2715],[104.0409,11.2523],[104.0349,11.2465],[104.0271,11.2297],[104.0255,11.2165],[104.0211,11.2093],[104.0217,11.2051],[104.0393,11.2081],[104.0433,11.1881],[104.0373,11.1799],[104.0521,11.1711],[104.0835,11.1709],[104.1571,11.1493],[104.1635,11.1435],[104.1705,11.1279],[104.1813,11.1139],[104.1997,11.0987],[104.2159,11.0941],[104.2463,11.0929],[104.2693,11.0975],[104.2599,11.1313],[104.2613,11.1473],[104.2565,11.1639],[104.2577,11.1775],[104.2547,11.1983],[104.2565,11.2055],[104.2543,11.2121],[104.2603,11.2319],[104.2573,11.2443],[104.2609,11.2523],[104.2735,11.2625],[104.2825,11.2913],[104.2987,11.2965],[104.2997,11.3067],[104.2959,11.3083],[104.2967,11.3269],[104.2931,11.3255],[104.2825,11.3313],[104.2695,11.3337],[104.2575,11.3417],[104.2531,11.3473],[104.2371,11.3503],[104.2287,11.3553],[104.2225,11.3637],[104.1865,11.3825],[104.1667,11.3763],[104.1531,11.3661],[104.1511,11.3577],[104.1453,11.3483],[104.1417,11.3233],[104.1323,11.3105],[104.1283,11.3169],[104.1225,11.3193],[104.1047,11.3215],[104.1045,11.3271],[104.0907,11.3521]]]}}]}