{"type":"FeatureCollection","features":[{"type":"Feature","properties":{"c":"050702","en":"Kahaeng","km":"កាហែង"},"geometry":{"type":"Polygon","coordinates":[[[104.4927,11.4341],[104.4833,11.4335],[104.4813,11.4375],[104.4825,11.4413],[104.4781,11.4403],[104.4755,11.4429],[104.4723,11.4407],[104.4685,11.4555],[104.4639,11.4541],[104.4563,11.4491],[104.4475,11.4473],[104.4445,11.4441],[104.4407,11.4357],[104.4385,11.4219],[104.4409,11.4131],[104.4647,11.4139],[104.4807,11.4097],[104.4941,11.4107],[104.4949,11.4231],[104.4927,11.4341]]]}},{"type":"Feature","properties":{"c":"050703","en":"Khtum Krang","km":"ខ្ទុំក្រាំង"},"geometry":{"type":"Polygon","coordinates":[[[104.4981,11.5745],[104.4959,11.5821],[104.4831,11.5847],[104.4673,11.5645],[104.4573,11.5635],[104.4451,11.5547],[104.4263,11.5635],[104.4089,11.5631],[104.4051,11.5609],[104.4049,11.5419],[104.4225,11.5271],[104.4555,11.5075],[104.4761,11.5157],[104.4905,11.5135],[104.4965,11.5151],[104.5127,11.4993],[104.5191,11.5083],[104.5207,11.5237],[104.5179,11.5263],[104.5229,11.5375],[104.5247,11.5579],[104.5185,11.5643],[104.5103,11.5683],[104.4993,11.5679],[104.4981,11.5745]]]}},{"type":"Feature","properties":{"c":"050704","en":"Krang Ampil","km":"ក្រាំងអំពិល"},"geometry":{"type":"Polygon","coordinates":[[[104.5629,11.3709],[104.5415,11.3721],[104.5173,11.3793],[104.4993,11.3895],[104.4951,11.3633],[104.4919,11.3605],[104.4875,11.3463],[104.4721,11.3187],[104.4771,11.3157],[104.4795,11.3091],[104.4905,11.2965],[104.4975,11.2927],[104.5105,11.2933],[104.5313,11.3023],[104.5591,11.3401],[104.5751,11.3577],[104.5991,11.3589],[104.6013,11.3619],[104.5743,11.3641],[104.5629,11.3709]]]}},{"type":"Feature","properties":{"c":"050705","en":"Pneay","km":"ព្នាយ"},"geometry":{"type":"Polygon","coordinates":[[[104.5919,11.5557],[104.5819,11.5613],[104.5751,11.5707],[104.5603,11.5699],[104.5449,11.5555],[104.5335,11.5597],[104.5247,11.5579],[104.5229,11.5375],[104.5179,11.5263],[104.5207,11.5237],[104.5191,11.5083],[104.5261,11.5151],[104.5425,11.5223],[104.5579,11.5207],[104.5589,11.5179],[104.5801,11.5395],[104.5919,11.5557]]]}},{"type":"Feature","properties":{"c":"050701","en":"Roleang Chak","km":"រលាំងចក"},"geometry":{"type":"Polygon","coordinates":[[[104.6043,11.4701],[104.5943,11.4701],[104.5901,11.4749],[104.5873,11.4739],[104.5865,11.4687],[104.5789,11.4651],[104.5827,11.4641],[104.5831,11.4601],[104.5703,11.4603],[104.5689,11.4563],[104.5571,11.4581],[104.5541,11.4505],[104.5449,11.4393],[104.5325,11.4373],[104.5311,11.4319],[104.5355,11.4237],[104.5431,11.4221],[104.5537,11.4257],[104.5635,11.4173],[104.5801,11.4139],[104.5845,11.4205],[104.5887,11.4211],[104.5791,11.4365],[104.5789,11.4439],[104.5813,11.4477],[104.5951,11.4493],[104.6027,11.4537],[104.6077,11.4613],[104.6085,11.4689],[104.6043,11.4701]]]}},{"type":"Feature","properties":{"c":"050706","en":"Roleang Kreul","km":"រលាំងគ្រើល"},"geometry":{"type":"Polygon","coordinates":[[[104.6565,11.4495],[104.6541,11.4533],[104.6479,11.4535],[104.6421,11.4575],[104.6473,11.4605],[104.6473,11.4693],[104.6409,11.4687],[104.6375,11.4617],[104.6341,11.4615],[104.6285,11.4663],[104.6289,11.4699],[104.6183,11.4673],[104.6161,11.4625],[104.6085,11.4689],[104.6077,11.4613],[104.6027,11.4537],[104.5951,11.4493],[104.5813,11.4477],[104.5783,11.4409],[104.5823,11.4299],[104.5887,11.4211],[104.5925,11.4231],[104.6013,11.4215],[104.6091,11.4113],[104.6145,11.4105],[104.6239,11.4127],[104.6367,11.4225],[104.6473,11.4239],[104.6531,11.4219],[104.6565,11.4355],[104.6565,11.4495]]]}},{"type":"Feature","properties":{"c":"050709","en":"Saen Dei","km":"សែងដី"},"geometry":{"type":"Polygon","coordinates":[[[104.6531,11.4219],[104.6473,11.4239],[104.6367,11.4225],[104.6239,11.4127],[104.6145,11.4105],[104.6091,11.4113],[104.6013,11.4215],[104.5967,11.4229],[104.5845,11.4205],[104.5801,11.4139],[104.5677,11.4159],[104.5639,11.3907],[104.5659,11.3821],[104.5629,11.3709],[104.5743,11.3641],[104.6013,11.3619],[104.6021,11.3649],[104.5941,11.3687],[104.6061,11.3745],[104.6085,11.3811],[104.6149,11.3845],[104.6171,11.3893],[104.6223,11.3887],[104.6495,11.3601],[104.6525,11.3815],[104.6507,11.4059],[104.6531,11.4219]]]}},{"type":"Feature","properties":{"c":"050708","en":"Sambour","km":"សំបូរ"},"geometry":{"type":"Polygon","coordinates":[[[104.6787,11.5607],[104.6669,11.5605],[104.6571,11.5565],[104.6459,11.5577],[104.6213,11.5525],[104.6239,11.5387],[104.6197,11.5225],[104.6267,11.5051],[104.6605,11.5087],[104.6655,11.5073],[104.6787,11.5607]]]}},{"type":"Feature","properties":{"c":"050707","en":"Samrong Tong","km":"សំរោងទង"},"geometry":{"type":"Polygon","coordinates":[[[104.6213,11.5525],[104.5919,11.5557],[104.5801,11.5395],[104.5621,11.5209],[104.5671,11.5117],[104.5671,11.5055],[104.5731,11.4979],[104.5773,11.4967],[104.5883,11.5005],[104.5891,11.5047],[104.5933,11.5071],[104.6033,11.5039],[104.6229,11.5111],[104.6197,11.5225],[104.6239,11.5387],[104.6213,11.5525]]]}},{"type":"Feature","properties":{"c":"050710","en":"Skuh","km":"ស្គុះ"},"geometry":{"type":"Polygon","coordinates":[[[104.5311,11.4319],[104.5155,11.4349],[104.4927,11.4341],[104.4949,11.4231],[104.4945,11.4023],[104.4993,11.3895],[104.5173,11.3793],[104.5415,11.3721],[104.5629,11.3709],[104.5659,11.3821],[104.5639,11.3907],[104.5677,11.4159],[104.5537,11.4257],[104.5389,11.4217],[104.5311,11.4319]]]}},{"type":"Feature","properties":{"c":"050711","en":"Tang Krouch","km":"តាំងក្រូច"},"geometry":{"type":"Polygon","coordinates":[[[104.4555,11.5075],[104.4225,11.5271],[104.4159,11.5025],[104.4185,11.4955],[104.4143,11.4837],[104.4045,11.4715],[104.4017,11.4609],[104.4029,11.4521],[104.4095,11.4487],[104.4189,11.4495],[104.4277,11.4461],[104.4361,11.4369],[104.4407,11.4357],[104.4475,11.4473],[104.4563,11.4491],[104.4639,11.4541],[104.4553,11.4809],[104.4555,11.5075]]]}},{"type":"Feature","properties":{"c":"050712","en":"Thummoda Ar","km":"ធម្មតាអរ"},"geometry":{"type":"Polygon","coordinates":[[[104.4941,11.4107],[104.4807,11.4097],[104.4647,11.4139],[104.4409,11.4131],[104.4377,11.4071],[104.4411,11.3791],[104.4377,11.3615],[104.4409,11.3495],[104.4387,11.3385],[104.4493,11.3363],[104.4637,11.3203],[104.4721,11.3187],[104.4875,11.3463],[104.4919,11.3605],[104.4951,11.3633],[104.4993,11.3895],[104.4945,11.4023],[104.4941,11.4107]]]}},{"type":"Feature","properties":{"c":"050713","en":"Trapeang Kong","km":"ត្រពាំងគង"},"geometry":{"type":"Polygon","coordinates":[[[104.6655,11.5073],[104.6605,11.5087],[104.6327,11.5043],[104.6267,11.5051],[104.6229,11.5111],[104.5999,11.5041],[104.5979,11.4973],[104.5943,11.4959],[104.5957,11.4845],[104.6043,11.4701],[104.6127,11.4673],[104.6161,11.4625],[104.6183,11.4673],[104.6289,11.4699],[104.6285,11.4663],[104.6341,11.4615],[104.6375,11.4617],[104.6409,11.4687],[104.6473,11.4693],[104.6473,11.4605],[104.6421,11.4575],[104.6479,11.4535],[104.6541,11.4533],[104.6565,11.4495],[104.6621,11.4759],[104.6619,11.4949],[104.6655,11.5073]]]}},{"type":"Feature","properties":{"c":"050714","en":"Tumpoar Meas","km":"ទំព័រមាស"},"geometry":{"type":"Polygon","coordinates":[[[104.4051,11.5609],[104.3823,11.5645],[104.3707,11.5793],[104.3537,11.5837],[104.3299,11.5979],[104.3043,11.6079],[104.3029,11.6003],[104.2829,11.5903],[104.2745,11.5737],[104.2767,11.5697],[104.2837,11.5659],[104.2897,11.5563],[104.3013,11.5493],[104.2989,11.5371],[104.3015,11.5269],[104.2953,11.5107],[104.2953,11.5035],[104.2927,11.5013],[104.2991,11.4905],[104.3077,11.4819],[104.3375,11.4683],[104.3475,11.4601],[104.3575,11.4629],[104.3651,11.4567],[104.3687,11.4573],[104.3699,11.4495],[104.3775,11.4451],[104.3857,11.4447],[104.4029,11.4521],[104.4017,11.4609],[104.4045,11.4715],[104.4143,11.4837],[104.4185,11.4955],[104.4159,11.5025],[104.4225,11.5271],[104.4049,11.5419],[104.4051,11.5609]]]}},{"type":"Feature","properties":{"c":"050715","en":"Voa Sar","km":"វល្លិសរ"},"geometry":{"type":"Polygon","coordinates":[[[104.5621,11.5209],[104.5589,11.5179],[104.5579,11.5207],[104.5425,11.5223],[104.5261,11.5151],[104.5169,11.5037],[104.5253,11.5041],[104.5227,11.4945],[104.5333,11.4933],[104.5357,11.4907],[104.5509,11.4957],[104.5579,11.4943],[104.5607,11.4847],[104.5555,11.4803],[104.5555,11.4765],[104.5597,11.4721],[104.5681,11.4723],[104.5681,11.4637],[104.5703,11.4603],[104.5831,11.4601],[104.5827,11.4641],[104.5789,11.4651],[104.5865,11.4687],[104.5873,11.4739],[104.5901,11.4749],[104.5943,11.4701],[104.6043,11.4701],[104.5957,11.4845],[104.5943,11.4959],[104.5979,11.4973],[104.5999,11.5041],[104.5933,11.5071],[104.5891,11.5047],[104.5883,11.5005],[104.5773,11.4967],[104.5731,11.4979],[104.5671,11.5055],[104.5671,11.5117],[104.5621,11.5209]]]}}]}