{"type":"FeatureCollection","features":[{"type":"Feature","properties":{"c":"050801","en":"Amleang","km":"អមលាំង"},"geometry":{"type":"Polygon","coordinates":[[[104.3827,11.7695],[104.3753,11.7691],[104.3665,11.7763],[104.3591,11.7875],[104.3399,11.8057],[104.3239,11.8269],[104.3211,11.8401],[104.3245,11.8529],[104.3229,11.8569],[104.3141,11.8697],[104.3121,11.8773],[104.3067,11.8827],[104.2937,11.8927],[104.2807,11.8989],[104.2671,11.9117],[104.2659,11.9159],[104.2683,11.9263],[104.2607,11.9365],[104.2563,11.9481],[104.2565,11.9567],[104.2435,11.9425],[104.2435,11.7551],[104.2427,11.7491],[104.2325,11.7447],[104.2253,11.7323],[104.2343,11.7119],[104.2527,11.7023],[104.2627,11.6893],[104.3831,11.7489],[104.3857,11.7515],[104.3855,11.7661],[104.3827,11.7695]]]}},{"type":"Feature","properties":{"c":"050802","en":"Monourom","km":"មនោរម្យ"},"geometry":{"type":"Polygon","coordinates":[[[104.5803,11.7221],[104.5847,11.7407],[104.5793,11.7615],[104.5839,11.7767],[104.5535,11.7485],[104.5513,11.7437],[104.5453,11.7407],[104.5383,11.7413],[104.5375,11.7075],[104.5649,11.7117],[104.5711,11.7195],[104.5803,11.7221]]]}},{"type":"Feature","properties":{"c":"050804","en":"Prambei Mum","km":"ប្រាំបីមុម"},"geometry":{"type":"Polygon","coordinates":[[[104.4387,11.7595],[104.4197,11.7609],[104.4005,11.7681],[104.3827,11.7695],[104.3855,11.7661],[104.3857,11.7515],[104.3831,11.7489],[104.2627,11.6893],[104.4089,11.6897],[104.4365,11.6717],[104.4641,11.6721],[104.4913,11.7081],[104.4921,11.7355],[104.4741,11.7443],[104.4679,11.7539],[104.4387,11.7595]]]}},{"type":"Feature","properties":{"c":"050805","en":"Rung Roeang","km":"រុងរឿង"},"geometry":{"type":"Polygon","coordinates":[[[104.5375,11.7075],[104.5383,11.7413],[104.5339,11.7379],[104.5151,11.7345],[104.5053,11.7379],[104.4943,11.7377],[104.4921,11.7355],[104.4913,11.7081],[104.4641,11.6721],[104.4959,11.6309],[104.5001,11.6291],[104.5015,11.6333],[104.5057,11.6869],[104.5047,11.7055],[104.5375,11.7075]]]}},{"type":"Feature","properties":{"c":"050806","en":"Toap Mean","km":"ទ័ពមាន"},"geometry":{"type":"Polygon","coordinates":[[[104.4363,11.5911],[104.4071,11.6263],[104.3915,11.6353],[104.2823,11.6361],[104.2819,11.6199],[104.2883,11.6121],[104.3241,11.6005],[104.3537,11.5837],[104.3707,11.5793],[104.3755,11.5753],[104.3787,11.5669],[104.3861,11.5629],[104.4051,11.5609],[104.4089,11.5631],[104.4263,11.5635],[104.4191,11.5699],[104.4271,11.5845],[104.4363,11.5911]]]}},{"type":"Feature","properties":{"c":"050807","en":"Veal Pon","km":"វាលពន់"},"geometry":{"type":"Polygon","coordinates":[[[104.6231,11.7457],[104.6181,11.7925],[104.6217,11.8031],[104.6085,11.7937],[104.5951,11.7909],[104.5839,11.7767],[104.5793,11.7615],[104.5847,11.7407],[104.5803,11.7221],[104.5829,11.7187],[104.5931,11.7201],[104.5929,11.7163],[104.5957,11.7149],[104.6133,11.7255],[104.6231,11.7457]]]}},{"type":"Feature","properties":{"c":"050808","en":"Yea Angk","km":"យាអង្គ"},"geometry":{"type":"Polygon","coordinates":[[[104.4641,11.6721],[104.4365,11.6717],[104.4089,11.6897],[104.2627,11.6893],[104.2655,11.6689],[104.2793,11.6551],[104.2867,11.6529],[104.2823,11.6361],[104.3915,11.6353],[104.4071,11.6263],[104.4363,11.5911],[104.4543,11.5995],[104.4683,11.5977],[104.4809,11.6213],[104.4869,11.6271],[104.4959,11.6309],[104.4641,11.6721]]]}}]}