{"type":"FeatureCollection","features":[{"type":"Feature","properties":{"c":"060112","en":"Andoung Pou","km":"អណ្ដូងពោធិ៍"},"geometry":{"type":"Polygon","coordinates":[[[105.1655,12.3141],[105.1523,12.3141],[105.1447,12.3049],[105.1147,12.3157],[105.1181,12.3045],[105.1177,12.2933],[105.1221,12.2865],[105.1227,12.2631],[105.1333,12.2693],[105.1825,12.2749],[105.1725,12.2847],[105.1675,12.2995],[105.1697,12.3077],[105.1655,12.3141]]]}},{"type":"Feature","properties":{"c":"060101","en":"Bak Sna","km":"បាក់ស្នា"},"geometry":{"type":"Polygon","coordinates":[[[105.3239,12.5253],[105.3201,12.5255],[105.3195,12.5315],[105.3161,12.5323],[105.3077,12.5267],[105.3059,12.5311],[105.3009,12.5319],[105.2973,12.5297],[105.2931,12.5313],[105.2927,12.5347],[105.2883,12.5345],[105.2887,12.5311],[105.2857,12.5289],[105.2723,12.5345],[105.2613,12.5289],[105.2671,12.5015],[105.3371,12.4949],[105.3475,12.4757],[105.3777,12.4887],[105.3777,12.4929],[105.3727,12.4931],[105.3701,12.4987],[105.3671,12.4999],[105.3677,12.5083],[105.3715,12.5095],[105.3751,12.5157],[105.3733,12.5185],[105.3693,12.5181],[105.3671,12.5147],[105.3621,12.5153],[105.3607,12.5195],[105.3559,12.5171],[105.3513,12.5299],[105.3431,12.5265],[105.3395,12.5293],[105.3285,12.5287],[105.3255,12.5305],[105.3239,12.5253]]]}},{"type":"Feature","properties":{"c":"060102","en":"Ballangk","km":"បល្ល័ង្គ"},"geometry":{"type":"Polygon","coordinates":[[[105.1887,12.4161],[105.1677,12.4615],[105.1627,12.5057],[105.1535,12.5013],[105.1397,12.5033],[105.1365,12.4961],[105.1281,12.5025],[105.1199,12.4967],[105.1161,12.4983],[105.1101,12.4945],[105.1057,12.4957],[105.1047,12.4991],[105.1009,12.5009],[105.0979,12.4989],[105.0949,12.4935],[105.0953,12.4785],[105.1337,12.4775],[105.1341,12.4409],[105.1525,12.4409],[105.1533,12.4171],[105.1887,12.4161]]]}},{"type":"Feature","properties":{"c":"060103","en":"Baray","km":"បារាយណ៍"},"geometry":{"type":"Polygon","coordinates":[[[105.0985,12.4225],[105.0981,12.4261],[105.0951,12.4265],[105.0857,12.4231],[105.0341,12.4293],[105.0079,12.4369],[105.0061,12.4393],[104.9575,12.4363],[104.8931,12.4099],[104.8899,12.4081],[104.8883,12.4017],[104.8957,12.3927],[104.8949,12.3779],[104.8983,12.3755],[104.9003,12.3697],[104.9037,12.3687],[105.0317,12.3741],[105.0957,12.3675],[105.0985,12.4225]]]}},{"type":"Feature","properties":{"c":"060104","en":"Boeng","km":"បឹង"},"geometry":{"type":"Polygon","coordinates":[[[105.1533,12.4171],[105.1525,12.4409],[105.0175,12.4409],[105.0061,12.4393],[105.0079,12.4369],[105.0341,12.4293],[105.0857,12.4231],[105.0951,12.4265],[105.1025,12.4215],[105.1311,12.4209],[105.1533,12.4171]]]}},{"type":"Feature","properties":{"c":"060105","en":"Chaeung Daeung","km":"ចើងដើង"},"geometry":{"type":"Polygon","coordinates":[[[105.2261,12.5339],[105.2171,12.5415],[105.2175,12.5379],[105.2149,12.5359],[105.2105,12.5371],[105.2015,12.5283],[105.1875,12.5259],[105.1803,12.5207],[105.1733,12.5249],[105.1703,12.5239],[105.1661,12.5187],[105.1671,12.5109],[105.1627,12.5057],[105.1677,12.4615],[105.1887,12.4161],[105.2003,12.4163],[105.2331,12.4095],[105.2253,12.4737],[105.2179,12.4773],[105.2097,12.4937],[105.2261,12.5339]]]}},{"type":"Feature","properties":{"c":"060107","en":"Chhuk Khsach","km":"ឈូកខ្សាច់"},"geometry":{"type":"Polygon","coordinates":[[[105.1533,12.4171],[105.1311,12.4209],[105.0985,12.4225],[105.0971,12.3713],[105.1293,12.3655],[105.1473,12.3789],[105.1603,12.3815],[105.1679,12.3905],[105.1667,12.3975],[105.1695,12.4005],[105.1735,12.3973],[105.1827,12.3977],[105.1921,12.3929],[105.2023,12.3927],[105.2117,12.3963],[105.2133,12.4003],[105.2215,12.4013],[105.2359,12.3945],[105.2331,12.4095],[105.2003,12.4163],[105.1533,12.4171]]]}},{"type":"Feature","properties":{"c":"060108","en":"Chong Doung","km":"ចុងដូង"},"geometry":{"type":"Polygon","coordinates":[[[105.0949,12.4935],[105.0937,12.4983],[105.0897,12.4963],[105.0157,12.4899],[104.9723,12.4787],[104.9635,12.4785],[104.9629,12.4727],[104.9567,12.4687],[104.9463,12.4545],[104.9353,12.4555],[104.9313,12.4537],[104.9235,12.4563],[104.9049,12.4547],[104.9055,12.4491],[104.9021,12.4423],[104.8977,12.4413],[104.8939,12.4429],[104.8943,12.4471],[104.8917,12.4483],[104.8853,12.4437],[104.8799,12.4347],[104.8779,12.4213],[104.8895,12.4119],[104.8899,12.4081],[104.9575,12.4363],[104.9837,12.4367],[105.0175,12.4409],[105.1341,12.4409],[105.1337,12.4775],[105.0953,12.4785],[105.0949,12.4935]]]}},{"type":"Feature","properties":{"c":"060106","en":"Chraneang","km":"ច្រនាង"},"geometry":{"type":"Polygon","coordinates":[[[105.1905,12.2503],[105.1957,12.2629],[105.1919,12.2685],[105.1825,12.2749],[105.1333,12.2693],[105.1191,12.2607],[105.1313,12.2481],[105.1653,12.2435],[105.1913,12.2351],[105.1905,12.2503]]]}},{"type":"Feature","properties":{"c":"060109","en":"Chrolong","km":"ជ្រលង"},"geometry":{"type":"Polygon","coordinates":[[[105.1177,12.2933],[105.0831,12.2917],[105.0623,12.2795],[105.0071,12.2795],[104.9801,12.2749],[104.9985,12.2679],[105.0417,12.2623],[105.0621,12.2573],[105.1021,12.2543],[105.1227,12.2631],[105.1221,12.2865],[105.1177,12.2933]]]}},{"type":"Feature","properties":{"c":"060110","en":"Kokir Thum","km":"គគីធំ"},"geometry":{"type":"Polygon","coordinates":[[[105.3941,12.4881],[105.3871,12.4863],[105.3847,12.4899],[105.3807,12.4897],[105.3475,12.4757],[105.3469,12.4673],[105.2265,12.4583],[105.2359,12.3945],[105.2613,12.3999],[105.2697,12.3949],[105.2761,12.3843],[105.2799,12.3827],[105.2885,12.3849],[105.3147,12.3829],[105.3195,12.3759],[105.3285,12.3717],[105.3319,12.3577],[105.3469,12.3569],[105.3579,12.3615],[105.3643,12.3665],[105.3777,12.4079],[105.3753,12.4119],[105.3827,12.4201],[105.3829,12.4261],[105.3885,12.4343],[105.3921,12.4457],[105.3921,12.4553],[105.4015,12.4681],[105.3991,12.4745],[105.4017,12.4765],[105.4001,12.4803],[105.3927,12.4829],[105.3941,12.4881]]]}},{"type":"Feature","properties":{"c":"060111","en":"Krava","km":"ក្រវ៉ា"},"geometry":{"type":"Polygon","coordinates":[[[105.2429,12.5261],[105.2295,12.5305],[105.2261,12.5339],[105.2107,12.4979],[105.2097,12.4937],[105.2133,12.4847],[105.2179,12.4773],[105.2253,12.4737],[105.2265,12.4583],[105.3469,12.4673],[105.3475,12.4757],[105.3371,12.4949],[105.2671,12.5015],[105.2641,12.5201],[105.2591,12.5261],[105.2533,12.5267],[105.2493,12.5239],[105.2459,12.5275],[105.2429,12.5261]]]}},{"type":"Feature","properties":{"c":"060113","en":"Pongro","km":"ពង្រ"},"geometry":{"type":"Polygon","coordinates":[[[105.0067,12.2667],[104.9801,12.2749],[104.9751,12.2743],[104.9677,12.2667],[104.9819,12.2555],[104.9871,12.2433],[105.0121,12.2205],[105.0155,12.2227],[105.0221,12.2185],[105.0305,12.2219],[105.0571,12.2261],[105.0825,12.2219],[105.0999,12.2221],[105.1017,12.2057],[105.1127,12.2041],[105.1171,12.2063],[105.1157,12.2253],[105.1195,12.2405],[105.1175,12.2437],[105.0267,12.2551],[105.0161,12.2587],[105.0067,12.2667]]]}},{"type":"Feature","properties":{"c":"060114","en":"Sou Young","km":"សូយោង"},"geometry":{"type":"Polygon","coordinates":[[[105.1191,12.2607],[105.1021,12.2543],[105.0621,12.2573],[105.0417,12.2623],[105.0067,12.2667],[105.0161,12.2587],[105.0267,12.2551],[105.1175,12.2437],[105.1195,12.2405],[105.1157,12.2253],[105.1171,12.2063],[105.1261,12.2091],[105.1273,12.2131],[105.1363,12.2199],[105.1359,12.2467],[105.1281,12.2503],[105.1191,12.2607]]]}},{"type":"Feature","properties":{"c":"060115","en":"Sralau","km":"ស្រឡៅ"},"geometry":{"type":"Polygon","coordinates":[[[105.1147,12.3157],[105.1067,12.3287],[105.1029,12.3289],[105.0921,12.3235],[104.9783,12.3235],[104.9507,12.3197],[104.8619,12.3159],[104.8519,12.3031],[104.8547,12.2953],[104.8513,12.2871],[104.8565,12.2811],[104.8623,12.2605],[104.8715,12.2451],[104.8727,12.2381],[104.8807,12.2373],[104.9017,12.2465],[104.9021,12.2517],[104.9059,12.2569],[104.9163,12.2583],[104.9185,12.2623],[104.9309,12.2587],[104.9379,12.2605],[104.9461,12.2593],[104.9481,12.2617],[104.9629,12.2581],[104.9635,12.2653],[104.9751,12.2743],[104.9855,12.2771],[105.0071,12.2795],[105.0581,12.2789],[105.0831,12.2917],[105.1177,12.2933],[105.1181,12.3045],[105.1147,12.3157]]]}},{"type":"Feature","properties":{"c":"060116","en":"Svay Phleung","km":"ស្វាយភ្លើង"},"geometry":{"type":"Polygon","coordinates":[[[105.1913,12.2351],[105.1653,12.2435],[105.1359,12.2467],[105.1363,12.2199],[105.1501,12.2181],[105.1547,12.2123],[105.1639,12.2107],[105.1655,12.2031],[105.1739,12.1953],[105.1857,12.1955],[105.1933,12.1901],[105.2019,12.1997],[105.1913,12.2351]]]}},{"type":"Feature","properties":{"c":"060117","en":"Tnaot Chum","km":"ត្នោតជុំ"},"geometry":{"type":"Polygon","coordinates":[[[105.0865,12.5135],[105.0791,12.5173],[105.0755,12.5237],[105.0675,12.5227],[105.0649,12.5295],[105.0663,12.5363],[105.0689,12.5375],[105.0647,12.5397],[105.0561,12.5363],[105.0559,12.5319],[105.0471,12.5285],[105.0411,12.5205],[105.0371,12.5193],[105.0311,12.5237],[105.0285,12.5211],[105.0203,12.5201],[105.0133,12.5269],[105.0143,12.5297],[105.0041,12.5387],[104.9963,12.5331],[104.9915,12.5351],[104.9867,12.5295],[104.9787,12.5295],[104.9679,12.5243],[104.9579,12.5241],[104.9575,12.5119],[104.9533,12.5077],[104.9595,12.5017],[104.9565,12.4919],[104.9613,12.4815],[104.9635,12.4785],[104.9723,12.4787],[105.0157,12.4899],[105.0897,12.4963],[105.0937,12.4983],[105.0943,12.5033],[105.0899,12.5047],[105.0919,12.5087],[105.0865,12.5135]]]}},{"type":"Feature","properties":{"c":"060118","en":"Triel","km":"ទ្រៀល"},"geometry":{"type":"Polygon","coordinates":[[[105.0971,12.3713],[105.0957,12.3675],[105.0919,12.3671],[105.0317,12.3741],[104.9915,12.3711],[104.9003,12.3697],[104.8911,12.3543],[104.8947,12.3483],[104.8925,12.3427],[104.8791,12.3375],[104.8687,12.3257],[104.8627,12.3237],[104.8619,12.3159],[104.9507,12.3197],[104.9783,12.3235],[105.0921,12.3235],[105.1029,12.3289],[105.1067,12.3287],[105.1147,12.3157],[105.1447,12.3049],[105.1523,12.3141],[105.1655,12.3141],[105.1693,12.3295],[105.1527,12.3345],[105.1495,12.3375],[105.1477,12.3455],[105.1293,12.3655],[105.0971,12.3713]]]}}]}