{"type":"FeatureCollection","features":[{"type":"Feature","properties":{"c":"060201","en":"Chey","km":"ជ័យ"},"geometry":{"type":"Polygon","coordinates":[[[105.0173,12.8103],[105.0111,12.8339],[104.9999,12.8461],[105.0061,12.8589],[105.0133,12.8667],[105.0131,12.8701],[104.9941,12.8629],[104.9739,12.8667],[104.9573,12.8633],[104.9505,12.8559],[104.9475,12.8381],[104.9445,12.8357],[104.9337,12.8469],[104.9107,12.8553],[104.9075,12.8425],[104.9099,12.8363],[104.9139,12.8361],[104.9215,12.8303],[104.9295,12.8145],[104.9373,12.8069],[104.9617,12.8063],[104.9781,12.8097],[104.9963,12.8029],[105.0095,12.8041],[105.0173,12.8103]]]}},{"type":"Feature","properties":{"c":"060202","en":"Damrei Slab","km":"ដំរីស្លាប់"},"geometry":{"type":"Polygon","coordinates":[[[104.7607,12.9539],[104.7489,12.9775],[104.7393,12.9861],[104.7333,12.9763],[104.7185,12.9651],[104.7009,12.9469],[104.7019,12.9229],[104.6889,12.9061],[104.6877,12.8969],[104.6689,12.8575],[104.7249,12.8573],[104.7447,12.8637],[104.7667,12.8767],[104.7655,12.9391],[104.7607,12.9539]]]}},{"type":"Feature","properties":{"c":"060203","en":"Kampong Kou","km":"កំពង់គោ"},"geometry":{"type":"Polygon","coordinates":[[[104.8167,12.7447],[104.8031,12.7345],[104.7957,12.7329],[104.7651,12.7467],[104.7603,12.7397],[104.7543,12.7375],[104.7509,12.7195],[104.7437,12.7165],[104.7371,12.7181],[104.7235,12.7115],[104.7203,12.7085],[104.7201,12.7025],[104.7169,12.7001],[104.6783,12.7063],[104.6391,12.7033],[104.6151,12.6957],[104.6123,12.6971],[104.6105,12.6945],[104.6009,12.6989],[104.5821,12.6809],[104.5693,12.6733],[104.5679,12.6653],[104.5799,12.6579],[104.5929,12.6609],[104.5973,12.6593],[104.5967,12.6435],[104.6279,12.6073],[104.6545,12.5949],[104.6893,12.5827],[104.7053,12.5739],[104.7129,12.5667],[104.7169,12.5667],[104.7423,12.5513],[104.7633,12.5457],[104.7601,12.5561],[104.7479,12.5741],[104.7481,12.6039],[104.7591,12.6113],[104.7655,12.6233],[104.7701,12.6511],[104.7685,12.6647],[104.7747,12.6755],[104.7827,12.6795],[104.8021,12.6777],[104.8083,12.6783],[104.8111,12.6813],[104.8079,12.7123],[104.8049,12.7155],[104.8079,12.7189],[104.8147,12.7183],[104.8203,12.7225],[104.8197,12.7317],[104.8221,12.7395],[104.8215,12.7429],[104.8167,12.7447]]]}},{"type":"Feature","properties":{"c":"060204","en":"Kampong Svay","km":"កំពង់ស្វាយ"},"geometry":{"type":"MultiPolygon","coordinates":[[[[105.0237,12.7585],[105.0297,12.7503],[105.0287,12.7369],[105.0309,12.7279],[105.0283,12.7249],[105.0045,12.7191],[104.9921,12.7177],[104.9757,12.7219],[104.9719,12.7189],[104.9677,12.7197],[104.9449,12.7383],[104.9281,12.7399],[104.9223,12.7543],[104.9289,12.7773],[104.9411,12.7901],[104.9447,12.8059],[104.9491,12.8073],[104.9617,12.8063],[104.9781,12.8097],[104.9963,12.8029],[105.0047,12.8033],[105.0095,12.8041],[105.0173,12.8103],[105.0181,12.8051],[105.0229,12.7993],[105.0215,12.7917],[105.0283,12.7927],[105.0239,12.7821],[105.0167,12.7825],[105.0165,12.7743],[105.0195,12.7675],[105.0225,12.7675],[105.0237,12.7585]]],[[[105.0233,12.7715],[105.0251,12.7689],[105.0225,12.7675],[105.0233,12.7715]]]]}},{"type":"Feature","properties":{"c":"060210","en":"Kdei Doung","km":"ក្ដីដូង"},"geometry":{"type":"Polygon","coordinates":[[[104.8653,12.7115],[104.8663,12.7275],[104.8727,12.7389],[104.8525,12.7323],[104.8301,12.7295],[104.8215,12.7263],[104.8203,12.7225],[104.8147,12.7183],[104.8079,12.7189],[104.8049,12.7155],[104.8079,12.7123],[104.8111,12.6813],[104.8279,12.6955],[104.8279,12.6997],[104.8211,12.7035],[104.8211,12.7067],[104.8493,12.7029],[104.8653,12.7115]]]}},{"type":"Feature","properties":{"c":"060205","en":"Nipech","km":"នីពេជ"},"geometry":{"type":"Polygon","coordinates":[[[104.8595,12.9511],[104.8023,12.9511],[104.7607,12.9539],[104.7655,12.9391],[104.7667,12.8767],[104.7989,12.8881],[104.8267,12.8941],[104.8481,12.8911],[104.8613,12.8829],[104.8675,12.8761],[104.8733,12.8855],[104.8783,12.8891],[104.8815,12.9023],[104.8873,12.9067],[104.8781,12.9295],[104.8635,12.9503],[104.8595,12.9511]]]}},{"type":"Feature","properties":{"c":"060206","en":"Phat Sanday","km":"ផាត់សណ្ដាយ"},"geometry":{"type":"Polygon","coordinates":[[[104.4877,12.7403],[104.4859,12.7465],[104.4817,12.7491],[104.4801,12.7461],[104.4721,12.7435],[104.4595,12.7289],[104.4713,12.7041],[104.4765,12.6705],[104.4747,12.6533],[104.4643,12.6153],[104.4555,12.6107],[104.4541,12.6067],[104.4465,12.6021],[104.4471,12.5979],[104.4547,12.5939],[104.4649,12.5829],[104.4671,12.5863],[104.4737,12.5775],[104.4833,12.5725],[104.4867,12.5597],[104.4803,12.5469],[104.4675,12.5443],[104.4653,12.5477],[104.4605,12.5433],[104.4541,12.5473],[104.4531,12.5443],[104.4441,12.5481],[104.4393,12.5527],[104.4289,12.5507],[104.4205,12.5613],[104.4141,12.5635],[104.4055,12.5623],[104.4015,12.5557],[104.4047,12.5453],[104.4103,12.5385],[104.4283,12.5343],[104.4173,12.5467],[104.4431,12.5317],[104.4463,12.5323],[104.4475,12.5281],[104.4553,12.5251],[104.4665,12.5293],[104.4759,12.5377],[104.4897,12.5405],[104.5001,12.5327],[104.4933,12.5263],[104.4881,12.5309],[104.4875,12.5269],[104.4825,12.5343],[104.4789,12.5325],[104.4785,12.5287],[104.4931,12.5205],[104.5011,12.5199],[104.5095,12.5373],[104.5133,12.5385],[104.5151,12.5493],[104.5113,12.5597],[104.5155,12.5607],[104.5209,12.5687],[104.5437,12.5827],[104.5663,12.5921],[104.5825,12.5955],[104.5949,12.6027],[104.6069,12.6023],[104.6279,12.6073],[104.5967,12.6435],[104.5973,12.6593],[104.5929,12.6609],[104.5799,12.6579],[104.5765,12.6591],[104.5679,12.6653],[104.5693,12.6733],[104.5605,12.6809],[104.5389,12.6849],[104.5177,12.6969],[104.5151,12.6993],[104.5169,12.7025],[104.5139,12.7217],[104.5035,12.7407],[104.4979,12.7459],[104.4899,12.7381],[104.4877,12.7403]]]}},{"type":"Feature","properties":{"c":"060211","en":"Prey Kuy","km":"ព្រៃគុយ"},"geometry":{"type":"Polygon","coordinates":[[[104.9629,12.7221],[104.9449,12.7383],[104.9193,12.7391],[104.9147,12.7265],[104.9213,12.7039],[104.9137,12.7037],[104.9155,12.6913],[104.9083,12.6881],[104.9093,12.6847],[104.9161,12.6801],[104.9285,12.6793],[104.9323,12.6685],[104.9389,12.6643],[104.9473,12.6829],[104.9551,12.6829],[104.9647,12.6913],[104.9649,12.6987],[104.9625,12.7005],[104.9567,12.6909],[104.9531,12.6921],[104.9483,12.7031],[104.9555,12.7103],[104.9639,12.7085],[104.9629,12.7221]]]}},{"type":"Feature","properties":{"c":"060207","en":"San Kor","km":"សាន់គ"},"geometry":{"type":"Polygon","coordinates":[[[104.7543,12.7375],[104.7523,12.7411],[104.7535,12.7583],[104.7591,12.7659],[104.7599,12.7747],[104.7583,12.7873],[104.7603,12.8125],[104.7563,12.8259],[104.7591,12.8731],[104.7447,12.8637],[104.7249,12.8573],[104.6689,12.8575],[104.6487,12.8341],[104.6349,12.8059],[104.6331,12.8007],[104.6401,12.7809],[104.6395,12.7737],[104.6345,12.7615],[104.6259,12.7491],[104.6207,12.7349],[104.6219,12.7239],[104.6009,12.6989],[104.6105,12.6945],[104.6123,12.6971],[104.6151,12.6957],[104.6391,12.7033],[104.6783,12.7063],[104.7169,12.7001],[104.7201,12.7025],[104.7203,12.7085],[104.7235,12.7115],[104.7371,12.7181],[104.7437,12.7165],[104.7509,12.7195],[104.7543,12.7375]]]}},{"type":"Feature","properties":{"c":"060208","en":"Tbaeng","km":"ត្បែង"},"geometry":{"type":"Polygon","coordinates":[[[104.8675,12.8761],[104.8613,12.8829],[104.8481,12.8911],[104.8267,12.8941],[104.7989,12.8881],[104.7591,12.8731],[104.7563,12.8259],[104.7603,12.8125],[104.7583,12.7873],[104.7599,12.7747],[104.7591,12.7659],[104.7535,12.7583],[104.7523,12.7411],[104.7543,12.7375],[104.7603,12.7397],[104.7651,12.7467],[104.7851,12.7389],[104.7921,12.7339],[104.7995,12.7329],[104.8167,12.7447],[104.8127,12.7515],[104.8133,12.7545],[104.8097,12.7553],[104.8115,12.7593],[104.8093,12.7629],[104.8099,12.7707],[104.8185,12.7859],[104.8239,12.7865],[104.8199,12.7943],[104.8233,12.8023],[104.8309,12.8035],[104.8381,12.8097],[104.8459,12.8253],[104.8493,12.8271],[104.8495,12.8303],[104.8537,12.8317],[104.8507,12.8389],[104.8613,12.8547],[104.8607,12.8593],[104.8691,12.8733],[104.8675,12.8761]]]}},{"type":"Feature","properties":{"c":"060209","en":"Trapeang Ruessei","km":"ត្រពាំងឫស្សី"},"geometry":{"type":"Polygon","coordinates":[[[104.9107,12.8553],[104.8727,12.8727],[104.8691,12.8733],[104.8669,12.8703],[104.8607,12.8593],[104.8597,12.8511],[104.8537,12.8457],[104.8507,12.8389],[104.8537,12.8317],[104.8495,12.8303],[104.8493,12.8271],[104.8459,12.8253],[104.8381,12.8097],[104.8309,12.8035],[104.8233,12.8023],[104.8199,12.7943],[104.8239,12.7865],[104.8185,12.7859],[104.8099,12.7707],[104.8093,12.7629],[104.8115,12.7593],[104.8097,12.7553],[104.8133,12.7545],[104.8127,12.7515],[104.8167,12.7447],[104.8215,12.7429],[104.8197,12.7317],[104.8215,12.7263],[104.8525,12.7323],[104.8727,12.7389],[104.8949,12.7417],[104.9159,12.7391],[104.9281,12.7399],[104.9223,12.7543],[104.9227,12.7595],[104.9287,12.7719],[104.9289,12.7773],[104.9411,12.7901],[104.9447,12.8059],[104.9339,12.8089],[104.9215,12.8303],[104.9139,12.8361],[104.9099,12.8363],[104.9075,12.8425],[104.9107,12.8553]]]}}]}