{"type":"FeatureCollection","features":[{"type":"Feature","properties":{"c":"060309","en":"Achar Leak","km":"សង្កាត់អាចារ្យលាក់"},"geometry":{"type":"Polygon","coordinates":[[[104.9193,12.7391],[104.8989,12.7411],[104.8863,12.7299],[104.8867,12.7261],[104.8907,12.7241],[104.8917,12.7187],[104.9155,12.7207],[104.9147,12.7265],[104.9193,12.7391]]]}},{"type":"Feature","properties":{"c":"060301","en":"Damrei Choan Khla","km":"សង្កាត់ដំរីជាន់ខ្លា"},"geometry":{"type":"Polygon","coordinates":[[[104.9137,12.7037],[104.9019,12.7127],[104.8899,12.7101],[104.8919,12.6855],[104.8673,12.6855],[104.8675,12.6751],[104.8877,12.6781],[104.9155,12.6913],[104.9137,12.7037]]]}},{"type":"Feature","properties":{"c":"060306","en":"Kampong Krabau","km":"សង្កាត់កំពង់ក្របៅ"},"geometry":{"type":"MultiPolygon","coordinates":[[[[104.8823,12.7143],[104.8823,12.7113],[104.8731,12.7099],[104.8607,12.7017],[104.8509,12.6987],[104.8493,12.7029],[104.8521,12.7057],[104.8833,12.7171],[104.8861,12.7157],[104.8823,12.7143]]],[[[104.8917,12.7187],[104.9155,12.7207],[104.9213,12.7039],[104.9137,12.7037],[104.9019,12.7127],[104.8959,12.7123],[104.8861,12.7157],[104.8917,12.7187]]]]}},{"type":"Feature","properties":{"c":"060303","en":"Kampong Roteh","km":"សង្កាត់កំពង់រទេះ"},"geometry":{"type":"Polygon","coordinates":[[[104.8959,12.7123],[104.8861,12.7157],[104.8823,12.7143],[104.8823,12.7113],[104.8937,12.7095],[104.8959,12.7123]]]}},{"type":"Feature","properties":{"c":"060302","en":"Kampong Thum","km":"សង្កាត់កំពង់ធំ"},"geometry":{"type":"Polygon","coordinates":[[[104.8899,12.7101],[104.8731,12.7099],[104.8643,12.7043],[104.8669,12.7015],[104.8673,12.6855],[104.8919,12.6855],[104.8899,12.7101]]]}},{"type":"Feature","properties":{"c":"060304","en":"Ou Kanthor","km":"សង្កាត់អូរកន្ធរ"},"geometry":{"type":"Polygon","coordinates":[[[104.8493,12.7029],[104.8211,12.7067],[104.8211,12.7035],[104.8279,12.6997],[104.8279,12.6955],[104.8147,12.6825],[104.8083,12.6783],[104.7827,12.6795],[104.7747,12.6755],[104.7685,12.6647],[104.7701,12.6511],[104.7655,12.6233],[104.7855,12.6319],[104.8147,12.6501],[104.8323,12.6557],[104.8529,12.6695],[104.8675,12.6751],[104.8669,12.7015],[104.8643,12.7043],[104.8509,12.6987],[104.8493,12.7029]]]}},{"type":"Feature","properties":{"c":"060308","en":"Prey Ta Hu","km":"សង្កាត់ព្រៃតាហ៊ូ"},"geometry":{"type":"Polygon","coordinates":[[[104.8989,12.7411],[104.8727,12.7389],[104.8663,12.7275],[104.8653,12.7115],[104.8917,12.7187],[104.8863,12.7299],[104.8989,12.7411]]]}},{"type":"Feature","properties":{"c":"060310","en":"Srayov","km":"សង្កាត់ស្រយ៉ូវ"},"geometry":{"type":"Polygon","coordinates":[[[104.9389,12.6643],[104.9323,12.6685],[104.9285,12.6793],[104.9161,12.6801],[104.9093,12.6847],[104.9083,12.6881],[104.8877,12.6781],[104.8723,12.6763],[104.8529,12.6695],[104.8391,12.6591],[104.8147,12.6501],[104.7855,12.6319],[104.7655,12.6233],[104.7591,12.6113],[104.7481,12.6039],[104.7479,12.5991],[104.7479,12.5741],[104.7601,12.5561],[104.7633,12.5457],[104.8171,12.5319],[104.8285,12.5317],[104.8351,12.5355],[104.8427,12.5317],[104.8499,12.5337],[104.8559,12.5295],[104.8595,12.5313],[104.8611,12.5281],[104.8667,12.5323],[104.8713,12.5317],[104.8783,12.5217],[104.8837,12.5201],[104.8963,12.5287],[104.9031,12.5259],[104.9091,12.5327],[104.9049,12.5345],[104.9079,12.5415],[104.9117,12.5433],[104.9163,12.5385],[104.9213,12.5381],[104.9305,12.5325],[104.9307,12.5357],[104.9269,12.5375],[104.9263,12.5413],[104.9295,12.5433],[104.9375,12.5417],[104.9413,12.5443],[104.9407,12.5495],[104.9371,12.5527],[104.9383,12.5573],[104.9341,12.5661],[104.9353,12.5709],[104.9403,12.5769],[104.9461,12.5739],[104.9477,12.5773],[104.9517,12.5775],[104.9545,12.5879],[104.9527,12.5909],[104.9475,12.5919],[104.9459,12.5957],[104.9523,12.6031],[104.9491,12.6063],[104.9449,12.6039],[104.9425,12.6057],[104.9419,12.6095],[104.9467,12.6111],[104.9407,12.6173],[104.9477,12.6193],[104.9495,12.6229],[104.9433,12.6265],[104.9419,12.6309],[104.9509,12.6389],[104.9453,12.6453],[104.9327,12.6495],[104.9389,12.6643]]]}}]}