{"type":"FeatureCollection","features":[{"type":"Feature","properties":{"c":"060401","en":"Doung","km":"ដូង"},"geometry":{"type":"Polygon","coordinates":[[[104.7457,13.0187],[104.7357,13.0201],[104.7301,13.0233],[104.7263,13.0361],[104.7111,13.0507],[104.7045,13.0611],[104.6859,13.0679],[104.6609,13.0601],[104.6573,13.0479],[104.6567,13.0311],[104.6511,13.0257],[104.6329,13.0179],[104.6297,13.0111],[104.6355,12.9975],[104.6513,12.9801],[104.6629,12.9561],[104.6669,12.9617],[104.6699,12.9635],[104.6711,12.9595],[104.6787,12.9659],[104.6889,12.9615],[104.6945,12.9657],[104.6989,12.9649],[104.7013,12.9671],[104.7003,12.9699],[104.7079,12.9731],[104.7073,12.9771],[104.7107,12.9771],[104.7151,12.9839],[104.7187,12.9803],[104.7191,12.9849],[104.7269,12.9897],[104.7309,12.9989],[104.7367,12.9955],[104.7403,12.9969],[104.7437,13.0051],[104.7427,13.0111],[104.7509,13.0153],[104.7457,13.0187]]]}},{"type":"Feature","properties":{"c":"060402","en":"Kraya","km":"ក្រយា"},"geometry":{"type":"Polygon","coordinates":[[[104.9075,13.1085],[104.9043,13.1221],[104.8879,13.1413],[104.8887,13.1573],[104.8775,13.1689],[104.8737,13.1947],[104.8755,13.2053],[104.8477,13.1941],[104.8117,13.1681],[104.8029,13.1655],[104.7743,13.1491],[104.7591,13.1449],[104.7479,13.1455],[104.7333,13.1551],[104.7075,13.1607],[104.7001,13.1631],[104.6985,13.1657],[104.6351,13.1103],[104.6921,13.1099],[104.7385,13.0823],[104.7535,13.0811],[104.7569,13.0785],[104.7611,13.0787],[104.7567,13.0925],[104.7653,13.0957],[104.7889,13.0971],[104.7985,13.1081],[104.8483,13.1153],[104.8819,13.1143],[104.9047,13.1107],[104.9075,13.1085]]]}},{"type":"Feature","properties":{"c":"060403","en":"Phan Nheum","km":"ផាន់ញើម"},"geometry":{"type":"Polygon","coordinates":[[[104.8769,13.1143],[104.8483,13.1153],[104.7985,13.1081],[104.7889,13.0971],[104.7653,13.0957],[104.7567,13.0925],[104.7611,13.0787],[104.7649,13.0777],[104.7647,13.0739],[104.7617,13.0725],[104.7569,13.0629],[104.7565,13.0505],[104.7535,13.0503],[104.7559,13.0445],[104.7513,13.0311],[104.7531,13.0259],[104.7457,13.0187],[104.7509,13.0153],[104.7427,13.0111],[104.7437,13.0051],[104.7403,12.9969],[104.7367,12.9955],[104.7309,12.9989],[104.7269,12.9897],[104.7439,12.9833],[104.7513,12.9737],[104.7607,12.9539],[104.7783,12.9541],[104.7781,12.9963],[104.7813,13.0049],[104.7935,13.0145],[104.8059,13.0435],[104.8159,13.0531],[104.8205,13.0617],[104.8383,13.0663],[104.8619,13.0771],[104.8763,13.0991],[104.8769,13.1143]]]}},{"type":"Feature","properties":{"c":"060404","en":"Sakream","km":"សាគ្រាម"},"geometry":{"type":"Polygon","coordinates":[[[104.7943,13.3051],[104.7763,13.3023],[104.7599,13.3139],[104.7519,13.3113],[104.7431,13.3135],[104.7313,13.3101],[104.7257,13.3049],[104.7155,13.3069],[104.7087,13.3057],[104.6981,13.2955],[104.6811,13.2881],[104.6733,13.2821],[104.6725,13.2507],[104.6673,13.2319],[104.6695,13.2085],[104.6741,13.1993],[104.7039,13.1903],[104.7049,13.1799],[104.7033,13.1721],[104.6985,13.1657],[104.7001,13.1631],[104.7333,13.1551],[104.7517,13.1443],[104.7591,13.1449],[104.7743,13.1491],[104.8029,13.1655],[104.8117,13.1681],[104.8477,13.1941],[104.8755,13.2053],[104.8753,13.2189],[104.8833,13.2287],[104.8817,13.2369],[104.8919,13.2497],[104.9043,13.2849],[104.8927,13.3081],[104.8863,13.3101],[104.8519,13.3065],[104.8353,13.3093],[104.7943,13.3051]]]}},{"type":"Feature","properties":{"c":"060405","en":"Sala Visai","km":"សាលាវិស័យ"},"geometry":{"type":"Polygon","coordinates":[[[105.0785,13.0179],[105.0743,13.0287],[105.0751,13.0473],[105.0729,13.0605],[105.0751,13.0727],[105.0703,13.1205],[105.0595,13.1147],[105.0051,13.0735],[104.9743,13.0555],[104.9539,13.0581],[104.9457,13.0641],[104.9075,13.1085],[104.9039,13.1001],[104.9035,13.0775],[104.8995,13.0749],[104.9037,13.0649],[104.9013,13.0481],[104.9095,13.0461],[104.9223,13.0325],[104.9635,13.0193],[104.9615,13.0085],[104.9585,13.0055],[104.9501,13.0057],[104.9355,13.0109],[104.9327,13.0099],[104.9319,13.0001],[104.9435,12.9943],[104.9649,12.9933],[104.9673,12.9855],[104.9659,12.9813],[104.9615,12.9789],[104.9471,12.9779],[104.8913,13.0055],[104.8847,13.0031],[104.8709,12.9899],[104.8587,12.9539],[104.8595,12.9511],[104.8635,12.9503],[104.8781,12.9295],[104.8873,12.9067],[104.8815,12.9023],[104.8783,12.8891],[104.8733,12.8855],[104.8675,12.8761],[104.8691,12.8733],[104.9337,12.8469],[104.9445,12.8357],[104.9475,12.8381],[104.9505,12.8559],[104.9573,12.8633],[104.9739,12.8667],[104.9941,12.8629],[105.0131,12.8701],[105.0107,12.8793],[105.0149,12.8921],[105.0329,12.9107],[105.0313,12.9609],[105.0373,12.9913],[105.0517,13.0191],[105.0615,13.0229],[105.0707,13.0179],[105.0785,13.0179]]]}},{"type":"Feature","properties":{"c":"060406","en":"Sameakki","km":"សាមគ្គី"},"geometry":{"type":"Polygon","coordinates":[[[104.7611,13.0787],[104.7385,13.0823],[104.6921,13.1099],[104.6351,13.1103],[104.6321,13.1087],[104.6301,13.0909],[104.6235,13.0807],[104.6191,13.0661],[104.6215,13.0601],[104.6255,13.0595],[104.6609,13.0601],[104.6859,13.0679],[104.6941,13.0661],[104.7045,13.0611],[104.7111,13.0507],[104.7231,13.0399],[104.7283,13.0331],[104.7301,13.0233],[104.7357,13.0201],[104.7457,13.0187],[104.7531,13.0259],[104.7513,13.0311],[104.7559,13.0445],[104.7535,13.0503],[104.7565,13.0505],[104.7569,13.0629],[104.7617,13.0725],[104.7647,13.0739],[104.7649,13.0777],[104.7611,13.0787]]]}},{"type":"Feature","properties":{"c":"060407","en":"Tuol Kreul","km":"ទួលគ្រើល"},"geometry":{"type":"Polygon","coordinates":[[[104.9075,13.1085],[104.8961,13.1125],[104.8769,13.1143],[104.8763,13.0991],[104.8619,13.0771],[104.8383,13.0663],[104.8205,13.0617],[104.8159,13.0531],[104.8059,13.0435],[104.7935,13.0145],[104.7813,13.0049],[104.7795,13.0003],[104.7773,12.9833],[104.7783,12.9541],[104.8023,12.9511],[104.8595,12.9511],[104.8599,12.9603],[104.8691,12.9873],[104.8847,13.0031],[104.8913,13.0055],[104.9471,12.9779],[104.9583,12.9783],[104.9659,12.9813],[104.9673,12.9855],[104.9649,12.9933],[104.9435,12.9943],[104.9319,13.0001],[104.9327,13.0099],[104.9355,13.0109],[104.9501,13.0057],[104.9585,13.0055],[104.9615,13.0085],[104.9635,13.0193],[104.9223,13.0325],[104.9095,13.0461],[104.9013,13.0481],[104.9037,13.0649],[104.8995,13.0749],[104.9035,13.0775],[104.9039,13.1001],[104.9075,13.1085]]]}}]}