{"type":"FeatureCollection","features":[{"type":"Feature","properties":{"c":"060501","en":"Chhuk","km":"ឈូក"},"geometry":{"type":"Polygon","coordinates":[[[105.1713,12.9413],[105.1717,12.9469],[105.1805,12.9561],[105.1769,12.9637],[105.1649,12.9719],[105.1611,12.9879],[105.1561,12.9925],[105.1477,12.9953],[105.1431,12.9917],[105.1383,12.9813],[105.1299,12.9813],[105.1249,12.9777],[105.1311,12.9579],[105.1275,12.9499],[105.1263,12.9389],[105.1249,12.8997],[105.1177,12.8911],[105.1211,12.8851],[105.1187,12.8779],[105.1131,12.8739],[105.1021,12.8749],[105.0909,12.8713],[105.0791,12.8591],[105.0771,12.8549],[105.0787,12.8509],[105.0895,12.8557],[105.0985,12.8557],[105.1107,12.8621],[105.1147,12.8603],[105.1181,12.8479],[105.1283,12.8475],[105.1321,12.8511],[105.1331,12.8547],[105.1293,12.8677],[105.1377,12.8629],[105.1411,12.8649],[105.1389,12.8687],[105.1311,12.8719],[105.1323,12.8807],[105.1359,12.8817],[105.1403,12.8789],[105.1489,12.8785],[105.1443,12.8853],[105.1463,12.8879],[105.1655,12.8959],[105.1641,12.8993],[105.1675,12.9051],[105.1671,12.9095],[105.1633,12.9119],[105.1679,12.9165],[105.1673,12.9245],[105.1713,12.9413]]]}},{"type":"Feature","properties":{"c":"060502","en":"Koul","km":"គោល"},"geometry":{"type":"Polygon","coordinates":[[[105.1769,12.9359],[105.1749,12.9401],[105.1713,12.9413],[105.1673,12.9245],[105.1679,12.9165],[105.1633,12.9119],[105.1671,12.9095],[105.1675,12.9051],[105.1641,12.8993],[105.1655,12.8959],[105.1709,12.8917],[105.1815,12.8917],[105.1851,12.8889],[105.1993,12.8929],[105.2197,12.8705],[105.2295,12.8529],[105.2365,12.8333],[105.2427,12.8269],[105.2653,12.8177],[105.2771,12.8175],[105.2815,12.8239],[105.2697,12.8357],[105.2749,12.8469],[105.2759,12.8551],[105.2703,12.8673],[105.2781,12.8767],[105.2835,12.9043],[105.2803,12.9169],[105.2745,12.9205],[105.2675,12.9207],[105.2735,12.9367],[105.2691,12.9567],[105.2639,12.9647],[105.2429,12.9661],[105.2187,12.9633],[105.2045,12.9567],[105.2025,12.9497],[105.1995,12.9475],[105.1951,12.9459],[105.1893,12.9473],[105.1809,12.9417],[105.1791,12.9335],[105.1817,12.9303],[105.1797,12.9271],[105.1773,12.9293],[105.1791,12.9335],[105.1769,12.9359]]]}},{"type":"Feature","properties":{"c":"060503","en":"Sambour","km":"សំបូរណ៍"},"geometry":{"type":"Polygon","coordinates":[[[105.0785,13.0179],[105.0707,13.0179],[105.0615,13.0229],[105.0581,13.0223],[105.0491,13.0163],[105.0439,13.0061],[105.0355,12.9863],[105.0313,12.9609],[105.0329,12.9107],[105.0149,12.8921],[105.0107,12.8793],[105.0131,12.8757],[105.0133,12.8667],[105.0005,12.8499],[104.9999,12.8461],[105.0125,12.8307],[105.0173,12.8103],[105.0293,12.8147],[105.0281,12.8079],[105.0301,12.8043],[105.0427,12.7987],[105.0469,12.7997],[105.0519,12.8111],[105.0357,12.8171],[105.0343,12.8219],[105.0377,12.8229],[105.0477,12.8171],[105.0617,12.8245],[105.0531,12.8271],[105.0427,12.8357],[105.0495,12.8371],[105.0545,12.8353],[105.0575,12.8377],[105.0589,12.8439],[105.0529,12.8491],[105.0639,12.8531],[105.0697,12.8647],[105.0729,12.8665],[105.0841,12.8639],[105.0941,12.8727],[105.1055,12.8751],[105.1131,12.8739],[105.1187,12.8779],[105.1211,12.8851],[105.1177,12.8911],[105.1249,12.8997],[105.1263,12.9389],[105.1275,12.9499],[105.1311,12.9579],[105.1249,12.9777],[105.1299,12.9813],[105.1383,12.9813],[105.1431,12.9917],[105.1477,12.9953],[105.1321,13.0111],[105.1315,13.0149],[105.1253,13.0181],[105.0785,13.0179]]]}},{"type":"Feature","properties":{"c":"060504","en":"Sraeung","km":"ស្រើង"},"geometry":{"type":"Polygon","coordinates":[[[105.2815,12.8239],[105.2771,12.8175],[105.2741,12.8167],[105.2595,12.8193],[105.2427,12.8269],[105.2365,12.8333],[105.2295,12.8529],[105.2197,12.8705],[105.1993,12.8929],[105.1851,12.8889],[105.1815,12.8917],[105.1709,12.8917],[105.1655,12.8959],[105.1463,12.8879],[105.1443,12.8853],[105.1489,12.8785],[105.1403,12.8789],[105.1359,12.8817],[105.1323,12.8807],[105.1311,12.8771],[105.1311,12.8719],[105.1389,12.8687],[105.1411,12.8649],[105.1377,12.8629],[105.1293,12.8677],[105.1331,12.8547],[105.1283,12.8475],[105.1301,12.8435],[105.1335,12.8423],[105.1381,12.7985],[105.1381,12.7871],[105.1335,12.7777],[105.1337,12.7633],[105.1305,12.7587],[105.2537,12.7573],[105.2569,12.7549],[105.2721,12.7637],[105.2773,12.7725],[105.2905,12.7737],[105.2967,12.7851],[105.2979,12.7891],[105.2921,12.8091],[105.2815,12.8239]]]}},{"type":"Feature","properties":{"c":"060505","en":"Tang Krasau","km":"តាំងក្រសៅ"},"geometry":{"type":"Polygon","coordinates":[[[105.0195,12.7675],[105.0225,12.7675],[105.0233,12.7715],[105.0251,12.7689],[105.0225,12.7675],[105.0237,12.7585],[105.0297,12.7503],[105.0287,12.7369],[105.0325,12.7039],[105.0563,12.7153],[105.0715,12.7259],[105.1035,12.7559],[105.1305,12.7587],[105.1337,12.7633],[105.1335,12.7777],[105.1381,12.7871],[105.1335,12.8423],[105.1301,12.8435],[105.1283,12.8475],[105.1181,12.8479],[105.1147,12.8603],[105.1107,12.8621],[105.0985,12.8557],[105.0895,12.8557],[105.0787,12.8509],[105.0771,12.8549],[105.0841,12.8639],[105.0765,12.8669],[105.0697,12.8647],[105.0639,12.8531],[105.0529,12.8491],[105.0589,12.8439],[105.0575,12.8377],[105.0545,12.8353],[105.0495,12.8371],[105.0427,12.8357],[105.0531,12.8271],[105.0617,12.8245],[105.0477,12.8171],[105.0377,12.8229],[105.0343,12.8219],[105.0357,12.8171],[105.0519,12.8111],[105.0469,12.7997],[105.0389,12.7997],[105.0301,12.8043],[105.0281,12.8079],[105.0293,12.8147],[105.0173,12.8103],[105.0181,12.8051],[105.0229,12.7993],[105.0215,12.7917],[105.0283,12.7927],[105.0239,12.7821],[105.0167,12.7825],[105.0165,12.7743],[105.0195,12.7675]]]}}]}