{"type":"FeatureCollection","features":[{"type":"Feature","properties":{"c":"060601","en":"Chheu Teal","km":"ឈើទាល"},"geometry":{"type":"Polygon","coordinates":[[[105.3825,13.0309],[105.3597,13.0491],[105.3051,13.0675],[105.2691,13.0663],[105.2689,13.0883],[105.2479,13.0897],[105.2463,13.0923],[105.2379,13.0909],[105.2407,13.0743],[105.2319,13.0683],[105.2323,13.0575],[105.2301,13.0533],[105.2131,13.0457],[105.2101,13.0353],[105.2125,13.0211],[105.2199,13.0179],[105.2191,13.0147],[105.2125,13.0117],[105.2149,13.0045],[105.2197,12.9999],[105.2267,12.9993],[105.2385,13.0031],[105.2589,13.0035],[105.2719,13.0099],[105.2771,13.0101],[105.2867,13.0059],[105.2943,12.9977],[105.3005,12.9949],[105.3167,13.0055],[105.3281,13.0097],[105.3401,13.0077],[105.3475,13.0019],[105.3639,13.0017],[105.3667,13.0035],[105.3773,13.0259],[105.3825,13.0309]]]}},{"type":"Feature","properties":{"c":"060602","en":"Dang Kambet","km":"ដងកាំបិត"},"geometry":{"type":"Polygon","coordinates":[[[105.5417,13.4445],[105.5375,13.4481],[105.5243,13.4339],[105.4797,13.4213],[105.4477,13.4015],[105.3989,13.3843],[105.3617,13.3653],[105.3531,13.3585],[105.3443,13.3439],[105.2805,13.2759],[105.2701,13.2689],[105.2359,13.2567],[105.1921,13.2299],[105.1879,13.2237],[105.2001,13.2097],[105.2137,13.2003],[105.2239,13.1869],[105.2279,13.1847],[105.2347,13.1855],[105.2479,13.1747],[105.2587,13.1741],[105.2925,13.1855],[105.3029,13.1927],[105.3137,13.2051],[105.3459,13.2261],[105.3755,13.2287],[105.4079,13.2397],[105.3881,13.2627],[105.3953,13.2759],[105.4211,13.2995],[105.4313,13.3027],[105.4761,13.3031],[105.4823,13.3087],[105.4863,13.3093],[105.5065,13.3025],[105.5281,13.2917],[105.5383,13.2927],[105.5469,13.2971],[105.5499,13.3005],[105.5509,13.3089],[105.5489,13.3171],[105.5503,13.3269],[105.5471,13.3379],[105.5499,13.3513],[105.5459,13.3695],[105.5513,13.3905],[105.5515,13.4081],[105.5447,13.4249],[105.5459,13.4385],[105.5417,13.4445]]]}},{"type":"Feature","properties":{"c":"060603","en":"Klaeng","km":"ក្លែង"},"geometry":{"type":"Polygon","coordinates":[[[105.3639,13.0017],[105.3475,13.0019],[105.3401,13.0077],[105.3281,13.0097],[105.3167,13.0055],[105.3005,12.9949],[105.2943,12.9977],[105.2867,13.0059],[105.2771,13.0101],[105.2719,13.0099],[105.2589,13.0035],[105.2385,13.0031],[105.2267,12.9993],[105.2197,12.9999],[105.2149,13.0045],[105.2077,13.0023],[105.2061,12.9991],[105.2099,12.9899],[105.2163,12.9881],[105.2067,12.9833],[105.1993,12.9903],[105.1969,12.9863],[105.1985,12.9759],[105.1903,12.9697],[105.1941,12.9659],[105.1917,12.9551],[105.1937,12.9525],[105.1969,12.9529],[105.1985,12.9581],[105.2019,12.9603],[105.2045,12.9567],[105.2225,12.9645],[105.2429,12.9661],[105.2639,12.9647],[105.2691,12.9567],[105.2735,12.9367],[105.2675,12.9207],[105.2745,12.9205],[105.3275,12.9661],[105.3435,12.9751],[105.3575,12.9777],[105.3637,12.9905],[105.3639,13.0017]]]}},{"type":"Feature","properties":{"c":"060605","en":"Mean Chey","km":"មានជ័យ"},"geometry":{"type":"MultiPolygon","coordinates":[[[[105.1817,12.9303],[105.1797,12.9271],[105.1773,12.9293],[105.1791,12.9335],[105.1817,12.9303]]],[[[105.1749,12.9401],[105.1713,12.9413],[105.1717,12.9469],[105.1805,12.9561],[105.1769,12.9637],[105.1649,12.9719],[105.1589,12.9905],[105.1477,12.9953],[105.1321,13.0111],[105.1315,13.0149],[105.1213,13.0187],[105.0889,13.0171],[105.0785,13.0179],[105.0765,13.0207],[105.0729,13.0605],[105.0751,13.0727],[105.0703,13.1205],[105.1051,13.1389],[105.1437,13.1019],[105.1455,13.0641],[105.1567,13.0505],[105.1821,13.0273],[105.2123,13.0285],[105.2125,13.0211],[105.2199,13.0179],[105.2191,13.0147],[105.2125,13.0117],[105.2149,13.0045],[105.2077,13.0023],[105.2061,12.9991],[105.2099,12.9899],[105.2163,12.9881],[105.2067,12.9833],[105.1993,12.9903],[105.1965,12.9831],[105.1985,12.9759],[105.1903,12.9697],[105.1941,12.9659],[105.1917,12.9551],[105.1937,12.9525],[105.1969,12.9529],[105.1985,12.9581],[105.2019,12.9603],[105.2045,12.9567],[105.2039,12.9525],[105.1995,12.9475],[105.1951,12.9459],[105.1893,12.9473],[105.1809,12.9417],[105.1791,12.9335],[105.1749,12.9401]]]]}},{"type":"Feature","properties":{"c":"060604","en":"Mean Rith","km":"មានរិទ្ធ"},"geometry":{"type":"Polygon","coordinates":[[[105.5499,13.3005],[105.5383,13.2927],[105.5281,13.2917],[105.5065,13.3025],[105.4863,13.3093],[105.4823,13.3087],[105.4761,13.3031],[105.4313,13.3027],[105.4141,13.2951],[105.3953,13.2759],[105.3881,13.2627],[105.4043,13.2433],[105.4349,13.2145],[105.4435,13.2025],[105.4487,13.1899],[105.4491,13.1783],[105.4473,13.1685],[105.4409,13.1563],[105.4185,13.1517],[105.4117,13.1389],[105.4067,13.1345],[105.3851,13.1291],[105.3283,13.1277],[105.3163,13.1211],[105.2939,13.1221],[105.2653,13.1133],[105.2533,13.1075],[105.2463,13.0923],[105.2479,13.0897],[105.2689,13.0883],[105.2691,13.0663],[105.3051,13.0675],[105.3639,13.0469],[105.3925,13.0223],[105.4627,12.9515],[105.4933,12.9549],[105.4957,12.9517],[105.5001,12.9547],[105.5463,13.0131],[105.5637,13.0405],[105.5777,13.0381],[105.6147,13.0399],[105.6329,13.0451],[105.6357,13.0475],[105.6317,13.0585],[105.6461,13.0969],[105.6471,13.1133],[105.6395,13.1197],[105.6365,13.1287],[105.6135,13.1425],[105.6109,13.1497],[105.6049,13.1525],[105.5977,13.1879],[105.5877,13.2125],[105.5893,13.2361],[105.5869,13.2507],[105.5687,13.2699],[105.5491,13.2785],[105.5499,13.3005]]]}},{"type":"Feature","properties":{"c":"060606","en":"Ngan","km":"ងន"},"geometry":{"type":"Polygon","coordinates":[[[105.2379,13.0909],[105.2295,13.0991],[105.2183,13.1183],[105.2065,13.1307],[105.2003,13.1455],[105.1813,13.1741],[105.1731,13.2005],[105.1677,13.1889],[105.1525,13.1719],[105.1265,13.1517],[105.1051,13.1389],[105.1437,13.1019],[105.1455,13.0641],[105.1567,13.0505],[105.1821,13.0273],[105.2123,13.0285],[105.2101,13.0353],[105.2131,13.0457],[105.2301,13.0533],[105.2323,13.0575],[105.2319,13.0683],[105.2407,13.0743],[105.2379,13.0909]]]}},{"type":"Feature","properties":{"c":"060607","en":"Sandan","km":"សណ្ដាន់"},"geometry":{"type":"Polygon","coordinates":[[[105.2463,13.0923],[105.2533,13.1075],[105.2883,13.1209],[105.3021,13.1227],[105.3163,13.1211],[105.3283,13.1277],[105.3851,13.1291],[105.4067,13.1345],[105.4117,13.1389],[105.4185,13.1517],[105.4377,13.1543],[105.4457,13.1645],[105.4487,13.1739],[105.4491,13.1863],[105.4435,13.2025],[105.4255,13.2243],[105.4079,13.2397],[105.3755,13.2287],[105.3459,13.2261],[105.3137,13.2051],[105.3029,13.1927],[105.2897,13.1839],[105.2587,13.1741],[105.2513,13.1739],[105.2347,13.1855],[105.2279,13.1847],[105.2239,13.1869],[105.2137,13.2003],[105.2001,13.2097],[105.1879,13.2237],[105.1803,13.2157],[105.1731,13.2005],[105.1813,13.1741],[105.2003,13.1455],[105.2065,13.1307],[105.2183,13.1183],[105.2295,13.0991],[105.2379,13.0909],[105.2463,13.0923]]]}},{"type":"Feature","properties":{"c":"060608","en":"Sochet","km":"សុចិត្រ"},"geometry":{"type":"Polygon","coordinates":[[[105.6711,12.9359],[105.6773,12.9499],[105.6769,12.9563],[105.6617,12.9697],[105.6501,12.9731],[105.6437,12.9803],[105.6431,12.9875],[105.6489,12.9977],[105.6495,13.0067],[105.6357,13.0475],[105.6235,13.0413],[105.6147,13.0399],[105.5777,13.0381],[105.5637,13.0405],[105.5463,13.0131],[105.5001,12.9547],[105.4957,12.9517],[105.4933,12.9549],[105.4765,12.9519],[105.4595,12.9531],[105.4571,12.9463],[105.4605,12.9297],[105.4781,12.8883],[105.4845,12.8561],[105.4961,12.8399],[105.5053,12.7971],[105.5211,12.7921],[105.5423,12.7911],[105.5685,12.7989],[105.5947,12.7977],[105.6047,12.8003],[105.6229,12.8107],[105.6355,12.8109],[105.6381,12.8089],[105.6517,12.8083],[105.6613,12.7945],[105.6789,12.7905],[105.6797,12.8069],[105.6843,12.8107],[105.6817,12.8169],[105.6719,12.8277],[105.6715,12.8311],[105.6833,12.8443],[105.6901,12.8657],[105.6777,12.8963],[105.6615,12.9039],[105.6553,12.9207],[105.6561,12.9249],[105.6693,12.9327],[105.6711,12.9359]]]}},{"type":"Feature","properties":{"c":"060609","en":"Tum Ring","km":"ទំរីង"},"geometry":{"type":"Polygon","coordinates":[[[105.4595,12.9531],[105.3825,13.0309],[105.3773,13.0259],[105.3667,13.0035],[105.3639,13.0017],[105.3637,12.9905],[105.3575,12.9777],[105.3435,12.9751],[105.3275,12.9661],[105.2757,12.9231],[105.2745,12.9205],[105.2819,12.9137],[105.2833,12.8995],[105.2781,12.8767],[105.2703,12.8673],[105.2759,12.8551],[105.2749,12.8469],[105.2697,12.8357],[105.2851,12.8211],[105.2921,12.8091],[105.2979,12.7891],[105.2927,12.7781],[105.3015,12.7769],[105.3135,12.7815],[105.3231,12.7777],[105.3299,12.7799],[105.3605,12.7787],[105.3903,12.7901],[105.4115,12.8053],[105.4201,12.8015],[105.4457,12.8031],[105.4531,12.7977],[105.4579,12.7973],[105.5053,12.7971],[105.4961,12.8399],[105.4845,12.8561],[105.4781,12.8883],[105.4569,12.9413],[105.4595,12.9531]]]}}]}