{"type":"FeatureCollection","features":[{"type":"Feature","properties":{"c":"060701","en":"Boeng Lvea","km":"បឹងល្វា"},"geometry":{"type":"MultiPolygon","coordinates":[[[[105.1515,12.5583],[105.1565,12.5585],[105.1603,12.5489],[105.1501,12.5385],[105.1341,12.5389],[105.1343,12.5533],[105.1435,12.5627],[105.1421,12.5867],[105.1531,12.5845],[105.1515,12.5583]]],[[[105.6381,12.8089],[105.6517,12.8083],[105.6613,12.7945],[105.6789,12.7905],[105.6765,12.7795],[105.6853,12.7733],[105.6895,12.7589],[105.6973,12.7465],[105.6917,12.7335],[105.6921,12.7217],[105.6979,12.7101],[105.7123,12.6923],[105.7121,12.6769],[105.7179,12.6643],[105.7223,12.6415],[105.7223,12.6293],[105.7179,12.6165],[105.7175,12.5953],[105.7219,12.5815],[105.7231,12.5639],[105.7295,12.5471],[105.7335,12.5013],[105.7159,12.5009],[105.7049,12.4947],[105.6905,12.4947],[105.6719,12.4903],[105.6343,12.4949],[105.5485,12.4919],[105.5339,12.4765],[105.5259,12.4917],[105.5307,12.5239],[105.5281,12.5369],[105.5355,12.5459],[105.5361,12.5507],[105.5285,12.5765],[105.5215,12.5825],[105.4965,12.5893],[105.4747,12.6079],[105.4689,12.6157],[105.4611,12.6353],[105.4477,12.6491],[105.4461,12.6571],[105.4557,12.6729],[105.4553,12.6839],[105.4523,12.6959],[105.4407,12.7079],[105.4359,12.7255],[105.4389,12.7313],[105.4469,12.7363],[105.4523,12.7547],[105.4571,12.7599],[105.4563,12.7641],[105.4479,12.7737],[105.4479,12.7869],[105.4531,12.7977],[105.4819,12.7961],[105.4997,12.7979],[105.5131,12.7959],[105.5211,12.7921],[105.5387,12.7907],[105.5685,12.7989],[105.5947,12.7977],[105.6047,12.8003],[105.6229,12.8107],[105.6355,12.8109],[105.6381,12.8089]]]]}},{"type":"Feature","properties":{"c":"060702","en":"Chroab","km":"ជ្រាប់"},"geometry":{"type":"Polygon","coordinates":[[[105.0565,12.6121],[105.0591,12.6297],[105.0513,12.6505],[105.0407,12.6513],[105.0289,12.6593],[105.0197,12.6553],[105.0147,12.6517],[105.0061,12.6109],[104.9959,12.6051],[104.9905,12.5953],[104.9709,12.5779],[104.9661,12.5675],[104.9561,12.5553],[104.9591,12.5459],[104.9709,12.5441],[104.9917,12.5535],[105.0011,12.5615],[105.0351,12.5795],[105.0431,12.5879],[105.0565,12.6121]]]}},{"type":"Feature","properties":{"c":"060704","en":"Kakaoh","km":"កកោះ"},"geometry":{"type":"Polygon","coordinates":[[[105.0147,12.6517],[105.0041,12.6693],[104.9969,12.6911],[104.9687,12.6789],[104.9671,12.6725],[104.9611,12.6765],[104.9593,12.6731],[104.9629,12.6661],[104.9561,12.6615],[104.9595,12.6547],[104.9497,12.6539],[104.9495,12.6469],[104.9453,12.6453],[104.9509,12.6389],[104.9419,12.6309],[104.9433,12.6265],[104.9495,12.6229],[104.9477,12.6193],[104.9407,12.6173],[104.9467,12.6111],[104.9419,12.6095],[104.9425,12.6057],[104.9449,12.6039],[104.9491,12.6063],[104.9523,12.6031],[104.9459,12.5957],[104.9475,12.5919],[104.9527,12.5909],[104.9545,12.5879],[104.9517,12.5775],[104.9477,12.5773],[104.9461,12.5739],[104.9403,12.5769],[104.9353,12.5709],[104.9341,12.5661],[104.9383,12.5573],[104.9371,12.5527],[104.9407,12.5495],[104.9413,12.5443],[104.9375,12.5417],[104.9295,12.5433],[104.9263,12.5413],[104.9269,12.5375],[104.9307,12.5357],[104.9305,12.5325],[104.9213,12.5381],[104.9163,12.5385],[104.9117,12.5433],[104.9079,12.5415],[104.9049,12.5345],[104.9091,12.5327],[104.9031,12.5259],[104.8963,12.5287],[104.8837,12.5201],[104.8783,12.5217],[104.8713,12.5317],[104.8667,12.5323],[104.8611,12.5281],[104.8595,12.5313],[104.8559,12.5295],[104.8499,12.5337],[104.8427,12.5317],[104.8351,12.5355],[104.8285,12.5317],[104.8207,12.5321],[104.8209,12.5283],[104.8279,12.5223],[104.8223,12.5085],[104.8255,12.5025],[104.8245,12.4993],[104.8217,12.4941],[104.8155,12.4917],[104.8159,12.4851],[104.8185,12.4819],[104.8307,12.4771],[104.8375,12.4783],[104.8409,12.4745],[104.8407,12.4703],[104.9249,12.5187],[104.9429,12.5375],[104.9661,12.5675],[104.9709,12.5779],[104.9905,12.5953],[104.9959,12.6051],[105.0061,12.6109],[105.0147,12.6517]]]}},{"type":"Feature","properties":{"c":"060703","en":"Kampong Thma","km":"កំពង់ថ្ម"},"geometry":{"type":"Polygon","coordinates":[[[105.2061,12.5345],[105.1871,12.5425],[105.1811,12.5485],[105.1797,12.5917],[105.1745,12.5877],[105.1665,12.5891],[105.1629,12.5859],[105.1531,12.5845],[105.1515,12.5583],[105.1565,12.5585],[105.1603,12.5489],[105.1501,12.5385],[105.1341,12.5389],[105.1343,12.5477],[105.1305,12.5463],[105.1191,12.5393],[105.1069,12.5221],[105.0865,12.5135],[105.0919,12.5087],[105.0899,12.5047],[105.0943,12.5033],[105.0949,12.4935],[105.1009,12.5009],[105.1047,12.4991],[105.1057,12.4957],[105.1101,12.4945],[105.1161,12.4983],[105.1199,12.4967],[105.1281,12.5025],[105.1365,12.4961],[105.1397,12.5033],[105.1535,12.5013],[105.1627,12.5057],[105.1671,12.5109],[105.1661,12.5187],[105.1703,12.5239],[105.1733,12.5249],[105.1803,12.5207],[105.1875,12.5259],[105.2015,12.5283],[105.2061,12.5345]]]}},{"type":"Feature","properties":{"c":"060705","en":"Kraya","km":"ក្រយា"},"geometry":{"type":"Polygon","coordinates":[[[105.4531,12.7977],[105.4457,12.8031],[105.4201,12.8015],[105.4115,12.8053],[105.3903,12.7901],[105.3605,12.7787],[105.3299,12.7799],[105.3231,12.7777],[105.3135,12.7815],[105.3015,12.7769],[105.2927,12.7781],[105.2905,12.7737],[105.2773,12.7725],[105.2721,12.7637],[105.2569,12.7549],[105.2573,12.7305],[105.2555,12.7241],[105.2483,12.7143],[105.2305,12.7005],[105.2293,12.6965],[105.2199,12.6883],[105.2139,12.6771],[105.2101,12.6763],[105.2071,12.6711],[105.1867,12.6647],[105.1839,12.6601],[105.1853,12.6537],[105.2035,12.6415],[105.2081,12.6357],[105.2129,12.6051],[105.2059,12.5965],[105.2059,12.5915],[105.2001,12.5869],[105.1967,12.5891],[105.1963,12.5935],[105.1797,12.5917],[105.1811,12.5485],[105.1837,12.5451],[105.2061,12.5345],[105.2105,12.5371],[105.2149,12.5359],[105.2175,12.5379],[105.2171,12.5415],[105.2201,12.5407],[105.2295,12.5305],[105.2429,12.5261],[105.2459,12.5275],[105.2493,12.5239],[105.2563,12.5273],[105.2641,12.5201],[105.2613,12.5289],[105.2687,12.5341],[105.2857,12.5289],[105.2887,12.5311],[105.2883,12.5345],[105.2927,12.5347],[105.2931,12.5313],[105.2973,12.5297],[105.3009,12.5319],[105.3059,12.5311],[105.3077,12.5267],[105.3161,12.5323],[105.3195,12.5315],[105.3201,12.5255],[105.3239,12.5253],[105.3255,12.5305],[105.3285,12.5287],[105.3395,12.5293],[105.3431,12.5265],[105.3513,12.5299],[105.3559,12.5171],[105.3607,12.5195],[105.3621,12.5153],[105.3671,12.5147],[105.3693,12.5181],[105.3733,12.5185],[105.3751,12.5157],[105.3715,12.5095],[105.3677,12.5083],[105.3671,12.4999],[105.3701,12.4987],[105.3727,12.4931],[105.3777,12.4929],[105.3777,12.4887],[105.3847,12.4899],[105.3871,12.4863],[105.3941,12.4881],[105.3927,12.4829],[105.3975,12.4819],[105.3989,12.4857],[105.4023,12.4871],[105.4133,12.4825],[105.4163,12.4843],[105.4169,12.4879],[105.4311,12.4883],[105.4407,12.4945],[105.4409,12.4909],[105.4447,12.4905],[105.4489,12.4863],[105.4535,12.4765],[105.4573,12.4789],[105.4659,12.4693],[105.4701,12.4727],[105.4765,12.4679],[105.4757,12.4619],[105.4831,12.4629],[105.4901,12.4571],[105.4871,12.4545],[105.4913,12.4517],[105.5005,12.4501],[105.5069,12.4541],[105.5241,12.4565],[105.5241,12.4597],[105.5273,12.4611],[105.5257,12.4635],[105.5339,12.4765],[105.5259,12.4917],[105.5307,12.5239],[105.5281,12.5369],[105.5355,12.5459],[105.5361,12.5507],[105.5299,12.5733],[105.5215,12.5825],[105.4965,12.5893],[105.4747,12.6079],[105.4689,12.6157],[105.4611,12.6353],[105.4495,12.6467],[105.4469,12.6523],[105.4461,12.6571],[105.4557,12.6729],[105.4553,12.6839],[105.4523,12.6959],[105.4407,12.7079],[105.4359,12.7255],[105.4389,12.7313],[105.4469,12.7363],[105.4523,12.7547],[105.4571,12.7599],[105.4563,12.7641],[105.4479,12.7737],[105.4471,12.7787],[105.4489,12.7903],[105.4531,12.7977]]]}},{"type":"Feature","properties":{"c":"060706","en":"Pnov","km":"ព្នៅ"},"geometry":{"type":"MultiPolygon","coordinates":[[[[104.9867,12.5295],[104.9787,12.5295],[104.9679,12.5243],[104.9579,12.5241],[104.9575,12.5119],[104.9533,12.5077],[104.9595,12.5017],[104.9565,12.4919],[104.9635,12.4785],[104.9629,12.4727],[104.9567,12.4687],[104.9463,12.4545],[104.9353,12.4555],[104.9313,12.4537],[104.9235,12.4563],[104.9049,12.4547],[104.9055,12.4491],[104.9021,12.4423],[104.8939,12.4429],[104.8943,12.4471],[104.8917,12.4483],[104.8853,12.4437],[104.8799,12.4347],[104.8779,12.4213],[104.8895,12.4119],[104.8883,12.4017],[104.8909,12.4003],[104.8845,12.3929],[104.8859,12.3903],[104.8829,12.3817],[104.8771,12.3793],[104.8731,12.3735],[104.8621,12.3709],[104.8607,12.3897],[104.8653,12.3945],[104.8671,12.4103],[104.8627,12.4175],[104.8637,12.4207],[104.8613,12.4223],[104.8605,12.4293],[104.8519,12.4263],[104.8459,12.4301],[104.8427,12.4343],[104.8425,12.4415],[104.8365,12.4437],[104.8419,12.4503],[104.8361,12.4517],[104.8283,12.4659],[104.8439,12.4717],[104.9141,12.5109],[104.9331,12.5259],[104.9633,12.5273],[104.9875,12.5353],[104.9915,12.5351],[104.9867,12.5295]]],[[[105.0471,12.5285],[105.0411,12.5205],[105.0371,12.5193],[105.0311,12.5237],[105.0285,12.5211],[105.0203,12.5201],[105.0133,12.5269],[105.0143,12.5297],[105.0041,12.5387],[105.0115,12.5451],[105.0165,12.5445],[105.0365,12.5397],[105.0471,12.5285]]],[[[105.0013,12.5381],[104.9963,12.5331],[104.9915,12.5351],[104.9969,12.5383],[105.0013,12.5381]]]]}},{"type":"Feature","properties":{"c":"060707","en":"Prasat","km":"ប្រាសាទ"},"geometry":{"type":"Polygon","coordinates":[[[105.1421,12.5867],[105.1395,12.5831],[105.1327,12.5819],[105.1249,12.5839],[105.1217,12.5825],[105.1177,12.5869],[105.1137,12.5871],[105.1085,12.5855],[105.1071,12.5815],[105.1027,12.5799],[105.1009,12.5739],[105.0975,12.5773],[105.0907,12.5779],[105.0893,12.5811],[105.0849,12.5757],[105.0741,12.5747],[105.0721,12.5717],[105.0641,12.5705],[105.0599,12.5669],[105.0525,12.5453],[105.0561,12.5363],[105.0647,12.5397],[105.0689,12.5375],[105.0663,12.5363],[105.0653,12.5259],[105.0675,12.5227],[105.0755,12.5237],[105.0831,12.5139],[105.1033,12.5195],[105.1191,12.5393],[105.1343,12.5477],[105.1343,12.5533],[105.1435,12.5627],[105.1421,12.5867]]]}},{"type":"Feature","properties":{"c":"060708","en":"Tang Krasang","km":"តាំងក្រសាំង"},"geometry":{"type":"Polygon","coordinates":[[[105.0687,12.5725],[105.0729,12.5777],[105.0759,12.5899],[105.0883,12.6001],[105.0893,12.6035],[105.0861,12.6127],[105.0565,12.6121],[105.0431,12.5879],[105.0351,12.5795],[105.0011,12.5615],[104.9917,12.5535],[104.9709,12.5441],[104.9591,12.5459],[104.9561,12.5553],[104.9331,12.5259],[104.9691,12.5285],[104.9969,12.5383],[105.0041,12.5387],[105.0115,12.5451],[105.0365,12.5397],[105.0471,12.5285],[105.0513,12.5299],[105.0559,12.5319],[105.0525,12.5453],[105.0599,12.5669],[105.0687,12.5725]]]}},{"type":"Feature","properties":{"c":"060710","en":"Tboung Krapeu","km":"ត្បូងក្រពើ"},"geometry":{"type":"Polygon","coordinates":[[[105.0325,12.7039],[105.0309,12.7279],[105.0283,12.7249],[104.9955,12.7179],[104.9757,12.7219],[104.9719,12.7189],[104.9629,12.7221],[104.9639,12.7085],[104.9555,12.7103],[104.9483,12.7031],[104.9531,12.6921],[104.9567,12.6909],[104.9625,12.7005],[104.9649,12.6987],[104.9647,12.6913],[104.9551,12.6829],[104.9473,12.6829],[104.9327,12.6495],[104.9453,12.6453],[104.9495,12.6469],[104.9497,12.6539],[104.9595,12.6547],[104.9561,12.6615],[104.9629,12.6661],[104.9593,12.6731],[104.9611,12.6765],[104.9671,12.6725],[104.9687,12.6789],[105.0051,12.6947],[105.0251,12.6993],[105.0325,12.7039]]]}},{"type":"Feature","properties":{"c":"060709","en":"Ti Pou","km":"ទីពោ"},"geometry":{"type":"Polygon","coordinates":[[[105.2569,12.7549],[105.2537,12.7573],[105.1087,12.7577],[105.1003,12.7539],[105.0755,12.7289],[105.0563,12.7153],[105.0251,12.6993],[105.0013,12.6933],[104.9969,12.6911],[104.9975,12.6877],[105.0041,12.6693],[105.0147,12.6517],[105.0289,12.6593],[105.0407,12.6513],[105.0513,12.6505],[105.0591,12.6297],[105.0565,12.6121],[105.0861,12.6127],[105.0893,12.6035],[105.0883,12.6001],[105.0759,12.5899],[105.0729,12.5777],[105.0687,12.5725],[105.0849,12.5757],[105.0893,12.5811],[105.0907,12.5779],[105.0975,12.5773],[105.1009,12.5739],[105.1027,12.5799],[105.1071,12.5815],[105.1085,12.5855],[105.1137,12.5871],[105.1177,12.5869],[105.1217,12.5825],[105.1249,12.5839],[105.1327,12.5819],[105.1395,12.5831],[105.1421,12.5867],[105.1577,12.5849],[105.1665,12.5891],[105.1745,12.5877],[105.1797,12.5917],[105.1963,12.5935],[105.1967,12.5891],[105.2001,12.5869],[105.2059,12.5915],[105.2059,12.5965],[105.2129,12.6051],[105.2081,12.6357],[105.2035,12.6415],[105.1853,12.6537],[105.1839,12.6601],[105.1867,12.6647],[105.2071,12.6711],[105.2101,12.6763],[105.2139,12.6771],[105.2199,12.6883],[105.2293,12.6965],[105.2305,12.7005],[105.2483,12.7143],[105.2555,12.7241],[105.2573,12.7305],[105.2569,12.7549]]]}}]}