{"type":"FeatureCollection","features":[{"type":"Feature","properties":{"c":"060801","en":"Banteay Stoung","km":"បន្ទាយស្ទោង"},"geometry":{"type":"Polygon","coordinates":[[[104.6629,12.9561],[104.6513,12.9801],[104.6355,12.9975],[104.6297,13.0111],[104.6187,12.9903],[104.6079,12.9541],[104.5981,12.9443],[104.6053,12.9231],[104.6081,12.9041],[104.6179,12.9031],[104.6217,12.9077],[104.6255,12.9057],[104.6273,12.8977],[104.6313,12.8971],[104.6501,12.9025],[104.6529,12.9107],[104.6615,12.9209],[104.6579,12.9385],[104.6633,12.9415],[104.6633,12.9465],[104.6689,12.9499],[104.6623,12.9529],[104.6629,12.9561]]]}},{"type":"Feature","properties":{"c":"060802","en":"Chamna Kraom","km":"ចំណាក្រោម"},"geometry":{"type":"Polygon","coordinates":[[[104.6273,12.8977],[104.6255,12.9057],[104.6217,12.9077],[104.6179,12.9031],[104.6081,12.9041],[104.6005,12.8951],[104.5875,12.8923],[104.5763,12.8843],[104.5723,12.8699],[104.5721,12.8593],[104.5447,12.8089],[104.5393,12.7925],[104.5237,12.7717],[104.5063,12.7615],[104.4979,12.7459],[104.5035,12.7407],[104.5139,12.7217],[104.5169,12.7025],[104.5151,12.6993],[104.5389,12.6849],[104.5605,12.6809],[104.5693,12.6733],[104.5821,12.6809],[104.6043,12.7015],[104.6189,12.7195],[104.6225,12.7285],[104.6197,12.7317],[104.6259,12.7491],[104.6363,12.7647],[104.6407,12.7777],[104.6331,12.8007],[104.6487,12.8341],[104.6561,12.8433],[104.6377,12.8553],[104.6385,12.8669],[104.6337,12.8743],[104.6371,12.8845],[104.6263,12.8905],[104.6247,12.8931],[104.6273,12.8977]]]}},{"type":"Feature","properties":{"c":"060803","en":"Chamna Leu","km":"ចំណាលើ"},"geometry":{"type":"Polygon","coordinates":[[[104.6945,12.9133],[104.6835,12.9187],[104.6615,12.9209],[104.6529,12.9107],[104.6501,12.9025],[104.6359,12.8979],[104.6273,12.8977],[104.6247,12.8931],[104.6263,12.8905],[104.6371,12.8845],[104.6337,12.8743],[104.6385,12.8669],[104.6377,12.8553],[104.6561,12.8433],[104.6617,12.8485],[104.6743,12.8667],[104.6817,12.8877],[104.6877,12.8969],[104.6889,12.9061],[104.6945,12.9133]]]}},{"type":"Feature","properties":{"c":"060804","en":"Kampong Chen Cheung","km":"កំពង់ចិនជើង"},"geometry":{"type":"Polygon","coordinates":[[[104.5707,12.9475],[104.5663,12.9607],[104.5677,12.9751],[104.5647,13.0133],[104.5531,13.0097],[104.5497,13.0013],[104.5399,12.9905],[104.5325,12.9883],[104.5301,12.9911],[104.5235,12.9907],[104.5175,12.9879],[104.5171,12.9845],[104.5033,12.9815],[104.4919,12.9827],[104.4887,12.9787],[104.4987,12.9637],[104.5291,12.9479],[104.5431,12.9475],[104.5433,12.9399],[104.5471,12.9383],[104.5513,12.9451],[104.5569,12.9401],[104.5637,12.9419],[104.5707,12.9475]]]}},{"type":"Feature","properties":{"c":"060805","en":"Kampong Chen Tboung","km":"កំពង់ចិនត្បូង"},"geometry":{"type":"Polygon","coordinates":[[[104.5825,12.9287],[104.5759,12.9361],[104.5707,12.9475],[104.5637,12.9419],[104.5569,12.9401],[104.5513,12.9451],[104.5471,12.9383],[104.5433,12.9399],[104.5377,12.9361],[104.5381,12.9297],[104.5321,12.9211],[104.5319,12.9171],[104.5453,12.9221],[104.5825,12.9287]]]}},{"type":"Feature","properties":{"c":"060806","en":"Msa Krang","km":"ម្សាក្រង"},"geometry":{"type":"Polygon","coordinates":[[[104.4911,12.9731],[104.4875,12.9733],[104.4859,12.9699],[104.4741,12.9647],[104.4653,12.9657],[104.4421,12.9491],[104.4447,12.9345],[104.4373,12.9297],[104.4365,12.9225],[104.4337,12.9193],[104.4349,12.9149],[104.4263,12.9069],[104.4253,12.9011],[104.4217,12.8999],[104.4149,12.9037],[104.4115,12.9019],[104.4089,12.8939],[104.3979,12.8871],[104.3703,12.8887],[104.3653,12.8831],[104.3547,12.8831],[104.3513,12.8801],[104.3619,12.8653],[104.3649,12.8559],[104.3603,12.8453],[104.3661,12.8321],[104.3675,12.8035],[104.3777,12.8007],[104.3869,12.7937],[104.3975,12.7897],[104.4039,12.8015],[104.4253,12.8209],[104.4635,12.8473],[104.4747,12.8525],[104.4967,12.8855],[104.5299,12.9137],[104.5381,12.9297],[104.5377,12.9361],[104.5433,12.9399],[104.5431,12.9475],[104.5291,12.9479],[104.5241,12.9501],[104.4987,12.9637],[104.4911,12.9731]]]}},{"type":"Feature","properties":{"c":"060807","en":"Peam Bang","km":"ពាមបាង"},"geometry":{"type":"Polygon","coordinates":[[[104.3511,12.8953],[104.3443,12.8979],[104.3343,12.8953],[104.3171,12.8847],[104.3085,12.8853],[104.3039,12.8791],[104.2963,12.8769],[104.2893,12.8779],[104.2805,12.8747],[104.2813,12.8697],[104.2783,12.8659],[104.2705,12.8669],[104.2671,12.8641],[104.2683,12.8569],[104.2483,12.8371],[104.2325,12.8149],[104.2323,12.8087],[104.2271,12.8043],[104.2281,12.7985],[104.2211,12.7999],[104.2127,12.7895],[104.2099,12.7821],[104.2231,12.7441],[104.2553,12.7355],[104.2569,12.7327],[104.3079,12.7325],[104.3829,12.7559],[104.3985,12.7587],[104.4137,12.7561],[104.4163,12.7641],[104.4145,12.7781],[104.3777,12.8007],[104.3675,12.8035],[104.3661,12.8321],[104.3603,12.8453],[104.3649,12.8559],[104.3619,12.8653],[104.3527,12.8761],[104.3495,12.8837],[104.3525,12.8917],[104.3511,12.8953]]]}},{"type":"Feature","properties":{"c":"060808","en":"Popok","km":"ពពក"},"geometry":{"type":"Polygon","coordinates":[[[104.6985,13.1657],[104.7033,13.1721],[104.7039,13.1903],[104.6741,13.1993],[104.6703,13.2051],[104.6679,13.2157],[104.6673,13.2319],[104.6725,13.2507],[104.6733,13.2821],[104.6155,13.2609],[104.5733,13.2521],[104.5655,13.2531],[104.5573,13.2257],[104.5491,13.2071],[104.5113,13.1947],[104.4967,13.1849],[104.4841,13.1819],[104.4773,13.1721],[104.4717,13.1505],[104.4729,13.1427],[104.4787,13.1355],[104.4969,13.1259],[104.5305,13.0983],[104.5629,13.0785],[104.5723,13.0699],[104.5943,13.0855],[104.5999,13.0941],[104.5991,13.1003],[104.6123,13.1149],[104.6165,13.1159],[104.6321,13.1087],[104.6351,13.1103],[104.6985,13.1657]]]}},{"type":"Feature","properties":{"c":"060809","en":"Pralay","km":"ប្រឡាយ"},"geometry":{"type":"Polygon","coordinates":[[[104.5723,13.0699],[104.5629,13.0785],[104.5305,13.0983],[104.4969,13.1259],[104.4747,13.1395],[104.4707,13.1267],[104.4707,13.0871],[104.4663,13.0641],[104.4665,13.0525],[104.4655,13.0479],[104.4609,13.0495],[104.4547,13.0441],[104.4527,13.0357],[104.4523,13.0239],[104.4605,13.0121],[104.4561,13.0015],[104.4487,13.0017],[104.4401,12.9859],[104.4241,12.9863],[104.4209,12.9839],[104.4041,12.9601],[104.3969,12.9547],[104.3925,12.9553],[104.3743,12.9363],[104.3685,12.9259],[104.3701,12.9195],[104.3633,12.9051],[104.3511,12.8953],[104.3525,12.8917],[104.3495,12.8837],[104.3513,12.8801],[104.3547,12.8831],[104.3653,12.8831],[104.3703,12.8887],[104.3979,12.8871],[104.4089,12.8939],[104.4115,12.9019],[104.4149,12.9037],[104.4217,12.8999],[104.4253,12.9011],[104.4263,12.9069],[104.4349,12.9149],[104.4337,12.9193],[104.4365,12.9225],[104.4373,12.9297],[104.4447,12.9345],[104.4421,12.9491],[104.4495,12.9559],[104.4567,12.9581],[104.4579,12.9617],[104.4653,12.9657],[104.4741,12.9647],[104.4859,12.9699],[104.4875,12.9733],[104.4911,12.9731],[104.4887,12.9787],[104.4919,12.9827],[104.5033,12.9815],[104.5171,12.9845],[104.5175,12.9879],[104.5235,12.9907],[104.5301,12.9911],[104.5325,12.9883],[104.5399,12.9905],[104.5561,13.0117],[104.5567,13.0425],[104.5621,13.0577],[104.5713,13.0653],[104.5723,13.0699]]]}},{"type":"Feature","properties":{"c":"060810","en":"Preah Damrei","km":"ព្រះដំរី"},"geometry":{"type":"Polygon","coordinates":[[[104.7393,12.9861],[104.7269,12.9897],[104.7227,12.9879],[104.7191,12.9849],[104.7187,12.9803],[104.7151,12.9839],[104.7107,12.9771],[104.7073,12.9771],[104.7079,12.9731],[104.7003,12.9699],[104.7013,12.9671],[104.6989,12.9649],[104.6945,12.9657],[104.6921,12.9623],[104.6847,12.9617],[104.6843,12.9379],[104.6889,12.9299],[104.7011,12.9285],[104.7009,12.9469],[104.7185,12.9651],[104.7333,12.9763],[104.7393,12.9861]]]}},{"type":"Feature","properties":{"c":"060811","en":"Rung Roeang","km":"រុងរឿង"},"geometry":{"type":"Polygon","coordinates":[[[104.6847,12.9617],[104.6787,12.9659],[104.6711,12.9595],[104.6699,12.9635],[104.6669,12.9617],[104.6623,12.9529],[104.6689,12.9499],[104.6633,12.9465],[104.6633,12.9415],[104.6579,12.9385],[104.6593,12.9291],[104.6615,12.9209],[104.6835,12.9187],[104.6945,12.9133],[104.7019,12.9229],[104.7011,12.9285],[104.6889,12.9299],[104.6843,12.9379],[104.6847,12.9617]]]}},{"type":"Feature","properties":{"c":"060812","en":"Samprouch","km":"សំព្រោជ"},"geometry":{"type":"Polygon","coordinates":[[[104.6081,12.9041],[104.6053,12.9231],[104.5991,12.9371],[104.5825,12.9287],[104.5453,12.9221],[104.5319,12.9171],[104.5257,12.9089],[104.4967,12.8855],[104.4747,12.8525],[104.4635,12.8473],[104.4253,12.8209],[104.4011,12.7981],[104.3975,12.7897],[104.4145,12.7781],[104.4155,12.7749],[104.4163,12.7641],[104.4137,12.7561],[104.4423,12.7465],[104.4497,12.7415],[104.4595,12.7289],[104.4721,12.7435],[104.4801,12.7461],[104.4817,12.7491],[104.4859,12.7465],[104.4899,12.7381],[104.4979,12.7459],[104.5063,12.7615],[104.5237,12.7717],[104.5393,12.7925],[104.5447,12.8089],[104.5721,12.8593],[104.5723,12.8699],[104.5763,12.8843],[104.5875,12.8923],[104.6005,12.8951],[104.6081,12.9041]]]}},{"type":"Feature","properties":{"c":"060813","en":"Trea","km":"ទ្រា"},"geometry":{"type":"Polygon","coordinates":[[[104.6321,13.1087],[104.6165,13.1159],[104.6049,13.1087],[104.5991,13.1003],[104.5999,13.0941],[104.5943,13.0855],[104.5723,13.0699],[104.5713,13.0653],[104.5621,13.0577],[104.5567,13.0425],[104.5561,13.0117],[104.5647,13.0133],[104.5661,13.0099],[104.5663,12.9607],[104.5719,12.9429],[104.5825,12.9287],[104.5991,12.9371],[104.5989,12.9471],[104.6079,12.9541],[104.6139,12.9775],[104.6303,13.0151],[104.6511,13.0257],[104.6577,13.0339],[104.6573,13.0479],[104.6609,13.0601],[104.6255,13.0595],[104.6195,13.0625],[104.6235,13.0807],[104.6301,13.0909],[104.6321,13.1087]]]}}]}