{"type":"FeatureCollection","features":[{"type":"Feature","properties":{"c":"070101","en":"Angk Phnum Touch","km":"អង្គភ្នំតូច"},"geometry":{"type":"Polygon","coordinates":[[[104.7053,10.8203],[104.7055,10.8395],[104.6735,10.8391],[104.6723,10.8325],[104.6581,10.8301],[104.6575,10.8177],[104.6547,10.8163],[104.6569,10.8087],[104.7061,10.8065],[104.7053,10.8203]]]}},{"type":"Feature","properties":{"c":"070102","en":"Ankor Chey","km":"អង្គរជ័យ"},"geometry":{"type":"Polygon","coordinates":[[[104.6569,10.8087],[104.6547,10.8163],[104.6575,10.8177],[104.6581,10.8301],[104.6723,10.8325],[104.6727,10.8357],[104.6077,10.8305],[104.6133,10.8149],[104.6137,10.8055],[104.6569,10.8087]]]}},{"type":"Feature","properties":{"c":"070103","en":"Champei","km":"ចំប៉ី"},"geometry":{"type":"Polygon","coordinates":[[[104.6743,10.8999],[104.6547,10.9071],[104.6309,10.9045],[104.6245,10.9015],[104.6183,10.9023],[104.5853,10.8863],[104.5623,10.8875],[104.5611,10.8761],[104.6895,10.8745],[104.6779,10.8937],[104.6743,10.8941],[104.6743,10.8999]]]}},{"type":"Feature","properties":{"c":"070106","en":"Daeum Doung","km":"ដើមដូង"},"geometry":{"type":"Polygon","coordinates":[[[104.6321,10.7421],[104.6231,10.7511],[104.6259,10.7383],[104.6381,10.7303],[104.6393,10.7253],[104.6373,10.7159],[104.6393,10.6999],[104.6351,10.6795],[104.6591,10.6837],[104.6685,10.6881],[104.6721,10.6911],[104.6679,10.6997],[104.6671,10.7095],[104.6609,10.7147],[104.6561,10.7293],[104.6539,10.7317],[104.6463,10.7325],[104.6321,10.7421]]]}},{"type":"Feature","properties":{"c":"070104","en":"Dambouk Khpos","km":"ដំបូកខ្ពស់"},"geometry":{"type":"Polygon","coordinates":[[[104.5607,10.8227],[104.5559,10.8257],[104.5335,10.8297],[104.5311,10.8261],[104.5349,10.8119],[104.5335,10.7913],[104.5309,10.7897],[104.5293,10.7789],[104.5309,10.7675],[104.5357,10.7621],[104.5491,10.7651],[104.5595,10.7475],[104.5669,10.7435],[104.5859,10.7497],[104.5907,10.7593],[104.5999,10.7545],[104.6045,10.7547],[104.6133,10.7763],[104.6137,10.8055],[104.5761,10.8153],[104.5607,10.8227]]]}},{"type":"Feature","properties":{"c":"070105","en":"Dan Koum","km":"ដានគោម"},"geometry":{"type":"Polygon","coordinates":[[[104.6125,10.8543],[104.5987,10.8579],[104.5911,10.8655],[104.5859,10.8669],[104.5617,10.8669],[104.5583,10.8519],[104.5663,10.8393],[104.5601,10.8313],[104.5607,10.8227],[104.5761,10.8153],[104.6137,10.8055],[104.6133,10.8149],[104.6053,10.8401],[104.6125,10.8543]]]}},{"type":"Feature","properties":{"c":"070107","en":"Mroum","km":"ម្រោម"},"geometry":{"type":"Polygon","coordinates":[[[104.6711,10.6955],[104.6733,10.7005],[104.6805,10.7063],[104.6877,10.7213],[104.6983,10.7345],[104.7021,10.7411],[104.7001,10.7441],[104.6321,10.7421],[104.6463,10.7325],[104.6539,10.7317],[104.6561,10.7293],[104.6609,10.7147],[104.6671,10.7095],[104.6679,10.6997],[104.6711,10.6955]]]}},{"type":"Feature","properties":{"c":"070108","en":"Phnum Kong","km":"ភ្នំកុង"},"geometry":{"type":"Polygon","coordinates":[[[104.7189,10.7751],[104.6751,10.7775],[104.6629,10.7747],[104.6335,10.7741],[104.6133,10.7763],[104.6045,10.7547],[104.6083,10.7529],[104.6227,10.7559],[104.6231,10.7511],[104.6321,10.7421],[104.7001,10.7441],[104.7039,10.7647],[104.7189,10.7751]]]}},{"type":"Feature","properties":{"c":"070109","en":"Praphnum","km":"ប្រភ្នំ"},"geometry":{"type":"Polygon","coordinates":[[[104.7055,10.8395],[104.6983,10.8587],[104.6187,10.8577],[104.6125,10.8543],[104.6053,10.8401],[104.6077,10.8305],[104.6727,10.8357],[104.6735,10.8391],[104.7055,10.8395]]]}},{"type":"Feature","properties":{"c":"070110","en":"Samlanh","km":"សំឡាញ"},"geometry":{"type":"Polygon","coordinates":[[[104.6895,10.8745],[104.5611,10.8761],[104.5597,10.8695],[104.5617,10.8669],[104.5911,10.8655],[104.5987,10.8579],[104.6125,10.8543],[104.6241,10.8581],[104.6983,10.8587],[104.6895,10.8745]]]}},{"type":"Feature","properties":{"c":"070111","en":"Tani","km":"តានី"},"geometry":{"type":"Polygon","coordinates":[[[104.7061,10.8065],[104.6569,10.8087],[104.6137,10.8055],[104.6133,10.7763],[104.6335,10.7741],[104.6629,10.7747],[104.6751,10.7775],[104.7189,10.7751],[104.7291,10.7803],[104.7231,10.7843],[104.7223,10.7883],[104.7061,10.8065]]]}}]}