{"type":"FeatureCollection","features":[{"type":"Feature","properties":{"c":"070201","en":"Banteay Meas Khang Kaeut","km":"បន្ទាយមាសខាងកើត"},"geometry":{"type":"Polygon","coordinates":[[[104.6745,10.6781],[104.6721,10.6911],[104.6591,10.6837],[104.6451,10.6821],[104.6467,10.6789],[104.6463,10.6293],[104.6425,10.6287],[104.6415,10.6207],[104.6379,10.6205],[104.6367,10.6075],[104.6323,10.6065],[104.6319,10.5811],[104.6369,10.5829],[104.6419,10.5815],[104.6509,10.5943],[104.6545,10.5973],[104.6625,10.5987],[104.6735,10.6113],[104.6769,10.6361],[104.6737,10.6519],[104.6745,10.6781]]]}},{"type":"Feature","properties":{"c":"070202","en":"Banteay Meas Khang Lech","km":"បន្ទាយមាសខាងលិច"},"geometry":{"type":"Polygon","coordinates":[[[104.6319,10.5811],[104.6323,10.6065],[104.6367,10.6075],[104.6379,10.6205],[104.6415,10.6207],[104.6425,10.6287],[104.6463,10.6293],[104.6467,10.6789],[104.6451,10.6821],[104.6271,10.6769],[104.6277,10.6461],[104.6253,10.6389],[104.6091,10.6301],[104.5939,10.6121],[104.5983,10.6111],[104.6039,10.6009],[104.6073,10.5851],[104.6027,10.5829],[104.6043,10.5763],[104.6143,10.5781],[104.6169,10.5755],[104.6285,10.5751],[104.6319,10.5811]]]}},{"type":"Feature","properties":{"c":"070203","en":"Prey Tonle","km":"ព្រៃទន្លេ"},"geometry":{"type":"Polygon","coordinates":[[[104.6419,10.5815],[104.6369,10.5829],[104.6319,10.5811],[104.6285,10.5751],[104.6169,10.5755],[104.6143,10.5781],[104.6083,10.5761],[104.6089,10.5701],[104.6033,10.5673],[104.6053,10.5509],[104.5885,10.5513],[104.5855,10.5475],[104.5881,10.5425],[104.5951,10.5411],[104.5995,10.5343],[104.6179,10.5275],[104.6449,10.5295],[104.6471,10.5391],[104.6501,10.5397],[104.6885,10.5377],[104.6895,10.5417],[104.6775,10.5581],[104.6541,10.5657],[104.6443,10.5733],[104.6419,10.5815]]]}},{"type":"Feature","properties":{"c":"070204","en":"Samraong Kraom","km":"សំរោងក្រោម"},"geometry":{"type":"Polygon","coordinates":[[[104.5625,10.7445],[104.5521,10.7605],[104.5427,10.7561],[104.5453,10.7187],[104.5545,10.7085],[104.5575,10.7015],[104.5589,10.6907],[104.5573,10.6833],[104.5607,10.6705],[104.5715,10.6781],[104.5851,10.7043],[104.5849,10.7129],[104.5811,10.7139],[104.5801,10.7179],[104.5803,10.7269],[104.5657,10.7311],[104.5609,10.7401],[104.5625,10.7445]]]}},{"type":"Feature","properties":{"c":"070205","en":"Samraong Leu","km":"សំរោងលើ"},"geometry":{"type":"Polygon","coordinates":[[[104.6045,10.7547],[104.5999,10.7545],[104.5907,10.7593],[104.5859,10.7497],[104.5669,10.7435],[104.5625,10.7445],[104.5609,10.7401],[104.5657,10.7311],[104.5803,10.7269],[104.5811,10.7139],[104.5849,10.7129],[104.5967,10.7289],[104.6127,10.7295],[104.6231,10.7511],[104.6227,10.7559],[104.6083,10.7529],[104.6045,10.7547]]]}},{"type":"Feature","properties":{"c":"070206","en":"Sdach Kong Khang Cheung","km":"ស្ដេចគង់ខាងជើង"},"geometry":{"type":"Polygon","coordinates":[[[104.5819,10.6157],[104.5645,10.6209],[104.5387,10.6123],[104.5323,10.5999],[104.5385,10.5921],[104.5451,10.5891],[104.5565,10.5907],[104.5761,10.5891],[104.6027,10.5829],[104.6073,10.5851],[104.6039,10.6009],[104.5983,10.6111],[104.5819,10.6157]]]}},{"type":"Feature","properties":{"c":"070207","en":"Sdach Kong Khang Lech","km":"ស្ដេចគង់ខាងលិច"},"geometry":{"type":"Polygon","coordinates":[[[104.5551,10.6173],[104.5545,10.6289],[104.5491,10.6339],[104.5527,10.6443],[104.5383,10.6533],[104.5229,10.6677],[104.5115,10.6733],[104.5113,10.6269],[104.5171,10.6195],[104.5205,10.6065],[104.5323,10.5999],[104.5387,10.6123],[104.5551,10.6173]]]}},{"type":"Feature","properties":{"c":"070208","en":"Sdach Kong Khang Tboung","km":"ស្ដេចគង់ខាងត្បូង"},"geometry":{"type":"Polygon","coordinates":[[[104.6027,10.5829],[104.5811,10.5885],[104.5565,10.5907],[104.5451,10.5891],[104.5385,10.5921],[104.5351,10.5775],[104.5447,10.5639],[104.5607,10.5573],[104.5779,10.5541],[104.5855,10.5475],[104.5885,10.5513],[104.6053,10.5509],[104.6033,10.5673],[104.6089,10.5701],[104.6097,10.5733],[104.6083,10.5761],[104.6043,10.5763],[104.6027,10.5829]]]}},{"type":"Feature","properties":{"c":"070209","en":"Tnoat Chong Srang","km":"ត្នោតចុងស្រង់"},"geometry":{"type":"Polygon","coordinates":[[[104.7135,10.6095],[104.7077,10.6191],[104.6739,10.6213],[104.6735,10.6113],[104.6713,10.6085],[104.6625,10.5987],[104.6545,10.5973],[104.6509,10.5943],[104.6419,10.5815],[104.6443,10.5733],[104.6541,10.5657],[104.6775,10.5581],[104.6895,10.5417],[104.6885,10.5377],[104.7145,10.5321],[104.7185,10.5373],[104.7141,10.5415],[104.7115,10.5589],[104.7129,10.5753],[104.7065,10.5891],[104.7073,10.5965],[104.7135,10.6095]]]}},{"type":"Feature","properties":{"c":"070210","en":"Trapeang Sala Khang Kaeut","km":"ត្រពាំងសាលាខាងកើត"},"geometry":{"type":"Polygon","coordinates":[[[104.6351,10.6795],[104.6393,10.6999],[104.6373,10.7081],[104.6393,10.7253],[104.6381,10.7303],[104.6259,10.7383],[104.6231,10.7511],[104.6127,10.7295],[104.6105,10.6893],[104.5997,10.6885],[104.5977,10.6749],[104.6051,10.6727],[104.6351,10.6795]]]}},{"type":"Feature","properties":{"c":"070211","en":"Trapeang Sala Khang Lech","km":"ត្រពាំងសាលាខាងលិច"},"geometry":{"type":"Polygon","coordinates":[[[104.5977,10.6749],[104.5997,10.6885],[104.6105,10.6893],[104.6127,10.7295],[104.5967,10.7289],[104.5865,10.7167],[104.5851,10.7043],[104.5715,10.6781],[104.5821,10.6753],[104.5977,10.6749]]]}},{"type":"Feature","properties":{"c":"070212","en":"Tuk Meas Khang Kaeut","km":"ទូកមាសខាងកើត"},"geometry":{"type":"Polygon","coordinates":[[[104.5939,10.6121],[104.6091,10.6301],[104.6253,10.6389],[104.6277,10.6461],[104.6271,10.6769],[104.6051,10.6727],[104.5847,10.6765],[104.5821,10.6753],[104.5809,10.6207],[104.5819,10.6157],[104.5939,10.6121]]]}},{"type":"Feature","properties":{"c":"070213","en":"Tuk Meas Khang Lech","km":"ទូកមាសខាងលិច"},"geometry":{"type":"Polygon","coordinates":[[[104.5315,10.6973],[104.5197,10.6971],[104.5135,10.6929],[104.5149,10.6845],[104.5115,10.6733],[104.5229,10.6677],[104.5383,10.6533],[104.5527,10.6443],[104.5491,10.6339],[104.5545,10.6289],[104.5551,10.6173],[104.5689,10.6211],[104.5819,10.6157],[104.5821,10.6753],[104.5753,10.6779],[104.5681,10.6773],[104.5575,10.6677],[104.5507,10.6775],[104.5431,10.6813],[104.5315,10.6973]]]}},{"type":"Feature","properties":{"c":"070214","en":"Voat Angk Khang Cheung","km":"វត្ដអង្គខាងជើង"},"geometry":{"type":"Polygon","coordinates":[[[104.5521,10.7605],[104.5491,10.7651],[104.5455,10.7655],[104.5357,10.7621],[104.5309,10.7675],[104.5293,10.7789],[104.5117,10.7707],[104.5101,10.7673],[104.5115,10.7351],[104.5425,10.7415],[104.5427,10.7561],[104.5521,10.7605]]]}},{"type":"Feature","properties":{"c":"070215","en":"Voat Angk Khang Tboung","km":"វត្ដអង្គខាងត្បូង"},"geometry":{"type":"Polygon","coordinates":[[[104.5607,10.6705],[104.5573,10.6833],[104.5589,10.6907],[104.5575,10.7015],[104.5545,10.7085],[104.5453,10.7187],[104.5425,10.7415],[104.5115,10.7351],[104.5115,10.7193],[104.5137,10.7157],[104.5219,10.7147],[104.5263,10.7117],[104.5309,10.7073],[104.5315,10.6973],[104.5431,10.6813],[104.5507,10.6775],[104.5575,10.6677],[104.5607,10.6705]]]}}]}