{"type":"FeatureCollection","features":[{"type":"Feature","properties":{"c":"070301","en":"Baniev","km":"បានៀវ"},"geometry":{"type":"Polygon","coordinates":[[[104.5183,10.7735],[104.4971,10.7971],[104.4913,10.8103],[104.4821,10.8135],[104.4665,10.8007],[104.4661,10.7961],[104.4575,10.7869],[104.4635,10.7695],[104.4735,10.7637],[104.4945,10.7695],[104.5083,10.7697],[104.5183,10.7735]]]}},{"type":"Feature","properties":{"c":"070303","en":"Boeng Nimol","km":"បឹងនិមល"},"geometry":{"type":"Polygon","coordinates":[[[104.4299,10.8191],[104.4237,10.8349],[104.4161,10.8355],[104.4125,10.8383],[104.4071,10.8517],[104.4039,10.8535],[104.3999,10.8505],[104.3955,10.8407],[104.3945,10.8265],[104.3873,10.8151],[104.3853,10.7961],[104.3891,10.7903],[104.3953,10.7893],[104.4181,10.7779],[104.4369,10.7729],[104.4385,10.8023],[104.4299,10.8191]]]}},{"type":"Feature","properties":{"c":"070304","en":"Chhuk","km":"ឈូក"},"geometry":{"type":"Polygon","coordinates":[[[104.4513,10.8851],[104.4469,10.8855],[104.4437,10.8831],[104.4363,10.8897],[104.4289,10.8897],[104.4225,10.8831],[104.4039,10.8535],[104.4071,10.8517],[104.4125,10.8383],[104.4161,10.8355],[104.4237,10.8349],[104.4299,10.8191],[104.4647,10.8431],[104.4633,10.8623],[104.4545,10.8765],[104.4553,10.8823],[104.4513,10.8851]]]}},{"type":"Feature","properties":{"c":"070315","en":"Dechou Akphivoadth","km":"តេជោអភិវឌ្ឍន៍"},"geometry":{"type":"Polygon","coordinates":[[[104.1997,11.0987],[104.1813,11.1139],[104.1705,11.1279],[104.1635,11.1435],[104.1571,11.1493],[104.0835,11.1709],[104.0521,11.1711],[104.0709,11.1469],[104.0695,11.1079],[104.0773,11.0757],[104.0737,11.0681],[104.0607,11.0619],[104.0599,11.0581],[104.0749,11.0417],[104.0743,11.0325],[104.0679,11.0253],[104.0677,11.0205],[104.0781,10.9987],[104.0897,10.9923],[104.0883,10.9833],[104.1521,10.9825],[104.1559,10.9841],[104.1637,10.9809],[104.1719,10.9889],[104.1755,10.9967],[104.1877,10.9875],[104.2225,10.9971],[104.2257,11.0101],[104.2231,11.0137],[104.2143,11.0145],[104.2131,11.0173],[104.2133,11.0371],[104.2127,11.0407],[104.2073,11.0453],[104.2111,11.0491],[104.2061,11.0569],[104.2047,11.0731],[104.2023,11.0771],[104.1959,11.0803],[104.1997,11.0987]]]}},{"type":"Feature","properties":{"c":"070305","en":"Doun Yay","km":"ដូនយ៉យ"},"geometry":{"type":"Polygon","coordinates":[[[104.4665,10.8007],[104.4575,10.8037],[104.4465,10.8005],[104.4385,10.8023],[104.4369,10.7729],[104.4469,10.7693],[104.4635,10.7695],[104.4575,10.7869],[104.4661,10.7961],[104.4665,10.8007]]]}},{"type":"Feature","properties":{"c":"070306","en":"Krang Sbov","km":"ក្រាំងស្បូវ"},"geometry":{"type":"Polygon","coordinates":[[[104.5323,10.8225],[104.5133,10.8251],[104.5029,10.8235],[104.5005,10.8167],[104.4953,10.8159],[104.4815,10.8231],[104.4815,10.8179],[104.4821,10.8135],[104.4913,10.8103],[104.4971,10.7971],[104.5183,10.7735],[104.5293,10.7789],[104.5309,10.7897],[104.5335,10.7913],[104.5349,10.8161],[104.5323,10.8225]]]}},{"type":"Feature","properties":{"c":"070307","en":"Krang Snay","km":"ក្រាំងស្នាយ"},"geometry":{"type":"Polygon","coordinates":[[[104.4975,10.8863],[104.4801,10.8879],[104.4669,10.8807],[104.4587,10.8797],[104.4553,10.8823],[104.4545,10.8765],[104.4633,10.8623],[104.4647,10.8431],[104.4733,10.8347],[104.4967,10.8469],[104.5099,10.8495],[104.5181,10.8549],[104.5127,10.8673],[104.5045,10.8719],[104.4975,10.8863]]]}},{"type":"Feature","properties":{"c":"070308","en":"Lbaeuk","km":"ល្បើក"},"geometry":{"type":"Polygon","coordinates":[[[104.3567,10.8753],[104.3519,10.8757],[104.3451,10.8709],[104.3427,10.8623],[104.3485,10.8553],[104.3487,10.8507],[104.3399,10.8501],[104.3263,10.8577],[104.3159,10.8563],[104.3079,10.8519],[104.2987,10.8507],[104.2959,10.8441],[104.2853,10.8413],[104.2799,10.8343],[104.2725,10.8319],[104.2439,10.8301],[104.2381,10.8217],[104.2463,10.8213],[104.2481,10.7947],[104.2657,10.7953],[104.2803,10.7917],[104.2841,10.7893],[104.2967,10.7665],[104.3023,10.7615],[104.3271,10.7859],[104.3379,10.7889],[104.3505,10.8009],[104.3637,10.8017],[104.3853,10.7961],[104.3873,10.8151],[104.3945,10.8265],[104.3955,10.8407],[104.3999,10.8505],[104.3861,10.8501],[104.3757,10.8553],[104.3533,10.8703],[104.3567,10.8753]]]}},{"type":"Feature","properties":{"c":"070310","en":"Mean Chey","km":"មានជ័យ"},"geometry":{"type":"Polygon","coordinates":[[[104.5597,10.8695],[104.5431,10.8691],[104.5401,10.8631],[104.5279,10.8547],[104.5283,10.8401],[104.5335,10.8297],[104.5559,10.8257],[104.5607,10.8227],[104.5601,10.8313],[104.5663,10.8393],[104.5583,10.8519],[104.5617,10.8669],[104.5597,10.8695]]]}},{"type":"Feature","properties":{"c":"070311","en":"Neareay","km":"នារាយណ៍"},"geometry":{"type":"Polygon","coordinates":[[[104.5623,10.8875],[104.5359,10.8871],[104.5215,10.8939],[104.5043,10.8907],[104.4975,10.8863],[104.5045,10.8719],[104.5127,10.8673],[104.5181,10.8549],[104.5279,10.8547],[104.5401,10.8631],[104.5431,10.8691],[104.5597,10.8695],[104.5623,10.8875]]]}},{"type":"Feature","properties":{"c":"070312","en":"Satv Pong","km":"សត្វពង"},"geometry":{"type":"Polygon","coordinates":[[[104.4733,10.8347],[104.4647,10.8431],[104.4299,10.8191],[104.4385,10.8023],[104.4465,10.8005],[104.4575,10.8037],[104.4665,10.8007],[104.4711,10.8027],[104.4821,10.8135],[104.4799,10.8271],[104.4733,10.8347]]]}},{"type":"Feature","properties":{"c":"070302","en":"Takaen","km":"តាកែន"},"geometry":{"type":"Polygon","coordinates":[[[104.3545,11.1377],[104.3427,11.1397],[104.3383,11.1377],[104.3317,11.1321],[104.3245,11.1175],[104.3183,11.1163],[104.3129,11.1065],[104.3083,11.1037],[104.2931,11.1045],[104.2463,11.0929],[104.2159,11.0941],[104.1997,11.0987],[104.1979,11.0937],[104.1959,11.0803],[104.2023,11.0771],[104.2047,11.0731],[104.2061,11.0569],[104.2111,11.0491],[104.2073,11.0453],[104.2127,11.0407],[104.2133,11.0371],[104.2131,11.0173],[104.2143,11.0145],[104.2231,11.0137],[104.2257,11.0101],[104.2205,10.9929],[104.2253,10.9837],[104.2269,10.9743],[104.2251,10.9689],[104.2321,10.9645],[104.2335,10.9569],[104.2417,10.9407],[104.2471,10.9429],[104.2491,10.9401],[104.2485,10.9321],[104.2519,10.9255],[104.2627,10.9171],[104.2603,10.8927],[104.2885,10.8419],[104.2959,10.8441],[104.2987,10.8507],[104.3079,10.8519],[104.3159,10.8563],[104.3263,10.8577],[104.3399,10.8501],[104.3487,10.8507],[104.3485,10.8553],[104.3427,10.8623],[104.3451,10.8709],[104.3519,10.8757],[104.3567,10.8753],[104.3545,11.1377]]]}},{"type":"Feature","properties":{"c":"070314","en":"Tramaeng","km":"ត្រមែង"},"geometry":{"type":"Polygon","coordinates":[[[104.5279,10.8547],[104.5181,10.8549],[104.5099,10.8495],[104.4967,10.8469],[104.4733,10.8347],[104.4815,10.8231],[104.4953,10.8159],[104.5005,10.8167],[104.5029,10.8235],[104.5133,10.8251],[104.5323,10.8225],[104.5311,10.8261],[104.5335,10.8297],[104.5283,10.8401],[104.5279,10.8547]]]}},{"type":"Feature","properties":{"c":"070313","en":"Trapeang Bei","km":"ត្រពាំងបី"},"geometry":{"type":"Polygon","coordinates":[[[104.3853,10.7961],[104.3637,10.8017],[104.3505,10.8009],[104.3379,10.7889],[104.3433,10.7809],[104.3583,10.7761],[104.3649,10.7707],[104.3733,10.7691],[104.3891,10.7903],[104.3853,10.7961]]]}},{"type":"Feature","properties":{"c":"070309","en":"Trapeang Phleang","km":"ត្រពាំងភ្លាំង"},"geometry":{"type":"Polygon","coordinates":[[[104.2885,10.8419],[104.2603,10.8927],[104.2627,10.9171],[104.2519,10.9255],[104.2485,10.9321],[104.2491,10.9401],[104.2471,10.9429],[104.2417,10.9407],[104.2335,10.9569],[104.2321,10.9645],[104.2251,10.9689],[104.2269,10.9743],[104.2253,10.9837],[104.2205,10.9929],[104.2225,10.9971],[104.1877,10.9875],[104.1755,10.9967],[104.1719,10.9889],[104.1637,10.9809],[104.1559,10.9841],[104.1521,10.9825],[104.0883,10.9833],[104.0863,10.9689],[104.0893,10.9531],[104.0869,10.9425],[104.0895,10.9251],[104.0927,10.9219],[104.0953,10.9065],[104.0993,10.8991],[104.0985,10.8779],[104.1107,10.8557],[104.1255,10.8125],[104.2177,10.8117],[104.2325,10.8139],[104.2317,10.8177],[104.2407,10.8241],[104.2439,10.8301],[104.2725,10.8319],[104.2799,10.8343],[104.2853,10.8413],[104.2885,10.8419]]]}}]}