{"type":"FeatureCollection","features":[{"type":"Feature","properties":{"c":"070401","en":"Chres","km":"ច្រេស"},"geometry":{"type":"Polygon","coordinates":[[[104.5273,10.9053],[104.4955,10.9201],[104.4757,10.9201],[104.4645,10.9141],[104.4633,10.9073],[104.4567,10.8995],[104.4513,10.8851],[104.4587,10.8797],[104.4711,10.8817],[104.4801,10.8879],[104.4975,10.8863],[104.5043,10.8907],[104.5215,10.8939],[104.5273,10.9053]]]}},{"type":"Feature","properties":{"c":"070402","en":"Chumpu Voan","km":"ជំពូវន្ដ"},"geometry":{"type":"Polygon","coordinates":[[[104.4645,10.9141],[104.4463,10.9183],[104.4049,10.9139],[104.3769,10.9139],[104.3635,10.9109],[104.3567,10.9073],[104.3567,10.8753],[104.3533,10.8703],[104.3827,10.8515],[104.3999,10.8505],[104.4067,10.8567],[104.4207,10.8805],[104.4289,10.8897],[104.4363,10.8897],[104.4437,10.8831],[104.4469,10.8855],[104.4513,10.8851],[104.4567,10.8995],[104.4633,10.9073],[104.4645,10.9141]]]}},{"type":"Feature","properties":{"c":"070403","en":"Snay Anhchit","km":"ស្នាយអញ្ជិត"},"geometry":{"type":"Polygon","coordinates":[[[104.4565,10.9693],[104.3873,10.9977],[104.3647,11.0043],[104.3559,11.0031],[104.3561,10.9481],[104.3881,10.9485],[104.4153,10.9419],[104.4205,10.9349],[104.4375,10.9257],[104.4463,10.9183],[104.4503,10.9225],[104.4525,10.9299],[104.4481,10.9513],[104.4565,10.9693]]]}},{"type":"Feature","properties":{"c":"070404","en":"Srae Chaeng","km":"ស្រែចែង"},"geometry":{"type":"Polygon","coordinates":[[[104.4105,11.1369],[104.3969,11.1477],[104.3885,11.1379],[104.3701,11.1351],[104.3679,11.1329],[104.3545,11.1377],[104.3559,11.0031],[104.3647,11.0043],[104.3873,10.9977],[104.4565,10.9693],[104.4871,11.0221],[104.5073,11.0457],[104.4995,11.0583],[104.4869,11.0597],[104.4877,11.0709],[104.4685,11.0569],[104.4611,11.0637],[104.4551,11.0579],[104.4551,11.0689],[104.4413,11.0739],[104.4335,11.0803],[104.4217,11.0823],[104.4111,11.0779],[104.4105,11.1369]]]}},{"type":"Feature","properties":{"c":"070405","en":"Srae Knong","km":"ស្រែក្នុង"},"geometry":{"type":"Polygon","coordinates":[[[104.5137,11.0385],[104.5073,11.0457],[104.5043,11.0433],[104.4757,11.0045],[104.4495,10.9553],[104.4477,10.9473],[104.4513,10.9383],[104.4751,10.9419],[104.5029,10.9563],[104.5397,10.9697],[104.5379,10.9871],[104.5325,11.0033],[104.5233,11.0237],[104.5137,11.0385]]]}},{"type":"Feature","properties":{"c":"070406","en":"Srae Samraong","km":"ស្រែសំរោង"},"geometry":{"type":"Polygon","coordinates":[[[104.5409,10.9365],[104.5413,10.9661],[104.5397,10.9697],[104.5029,10.9563],[104.4751,10.9419],[104.4513,10.9383],[104.4519,10.9269],[104.4463,10.9183],[104.4645,10.9141],[104.4757,10.9201],[104.4911,10.9211],[104.5127,10.9137],[104.5273,10.9053],[104.5411,10.9303],[104.5409,10.9365]]]}},{"type":"Feature","properties":{"c":"070407","en":"Trapeang Reang","km":"ត្រពាំងរាំង"},"geometry":{"type":"Polygon","coordinates":[[[104.4463,10.9183],[104.4375,10.9257],[104.4205,10.9349],[104.4153,10.9419],[104.3881,10.9485],[104.3561,10.9481],[104.3567,10.9073],[104.3723,10.9133],[104.4049,10.9139],[104.4463,10.9183]]]}}]}