{"type":"FeatureCollection","features":[{"type":"Feature","properties":{"c":"070509","en":"Angk Romeas","km":"អង្គ រមាស"},"geometry":{"type":"Polygon","coordinates":[[[104.4181,10.7779],[104.3953,10.7893],[104.3891,10.7903],[104.3733,10.7691],[104.3757,10.7659],[104.3763,10.7515],[104.3839,10.7471],[104.4071,10.7491],[104.4243,10.7629],[104.4181,10.7779]]]}},{"type":"Feature","properties":{"c":"070501","en":"Damnak Sokram","km":"ដំណាក់សុក្រំ"},"geometry":{"type":"Polygon","coordinates":[[[104.4369,10.7729],[104.4181,10.7779],[104.4311,10.7479],[104.4327,10.7285],[104.4659,10.7267],[104.4695,10.7273],[104.4677,10.7347],[104.4637,10.7393],[104.4859,10.7467],[104.4999,10.7461],[104.5047,10.7627],[104.5117,10.7707],[104.4945,10.7695],[104.4735,10.7637],[104.4635,10.7695],[104.4469,10.7693],[104.4369,10.7729]]]}},{"type":"Feature","properties":{"c":"070502","en":"Dang Tong","km":"ដងទង់"},"geometry":{"type":"Polygon","coordinates":[[[104.4327,10.7285],[104.4139,10.7299],[104.4037,10.7213],[104.4271,10.7027],[104.4333,10.7001],[104.4481,10.7005],[104.4453,10.6823],[104.4467,10.6725],[104.5115,10.6733],[104.5149,10.6845],[104.5135,10.6929],[104.5043,10.6871],[104.5023,10.7023],[104.4783,10.7055],[104.4721,10.7153],[104.4695,10.7273],[104.4327,10.7285]]]}},{"type":"Feature","properties":{"c":"070503","en":"Khcheay Khang Cheung","km":"ឃ្ជាយខាងជើង"},"geometry":{"type":"Polygon","coordinates":[[[104.5111,10.6459],[104.5115,10.6733],[104.4467,10.6725],[104.4489,10.6583],[104.4457,10.6425],[104.4545,10.6421],[104.4613,10.6487],[104.4825,10.6507],[104.5111,10.6459]]]}},{"type":"Feature","properties":{"c":"070504","en":"Khcheay Khang Tboung","km":"ខ្ជាយខាងត្បូង"},"geometry":{"type":"Polygon","coordinates":[[[104.5111,10.6459],[104.4825,10.6507],[104.4613,10.6487],[104.4545,10.6421],[104.4457,10.6425],[104.4451,10.6275],[104.4499,10.6203],[104.4579,10.6239],[104.4703,10.6243],[104.4723,10.6323],[104.4825,10.6315],[104.5079,10.6209],[104.5135,10.6157],[104.5173,10.6077],[104.5205,10.6065],[104.5171,10.6195],[104.5113,10.6269],[104.5111,10.6459]]]}},{"type":"Feature","properties":{"c":"070510","en":"L'ang","km":"ល្អាង"},"geometry":{"type":"Polygon","coordinates":[[[104.3733,10.7691],[104.3649,10.7707],[104.3583,10.7761],[104.3433,10.7809],[104.3379,10.7889],[104.3271,10.7859],[104.3023,10.7615],[104.3129,10.7427],[104.3141,10.7317],[104.3119,10.7195],[104.3245,10.7027],[104.3463,10.6927],[104.3623,10.6983],[104.3541,10.7171],[104.3839,10.7471],[104.3763,10.7515],[104.3757,10.7659],[104.3733,10.7691]]]}},{"type":"Feature","properties":{"c":"070505","en":"Mean Ritth","km":"មានរិទ្ធិ"},"geometry":{"type":"Polygon","coordinates":[[[104.4327,10.7285],[104.4311,10.7479],[104.4243,10.7629],[104.4035,10.7473],[104.3839,10.7471],[104.3541,10.7171],[104.3647,10.6925],[104.3733,10.6889],[104.3757,10.6855],[104.4333,10.7001],[104.4183,10.7085],[104.4037,10.7213],[104.4139,10.7299],[104.4327,10.7285]]]}},{"type":"Feature","properties":{"c":"070506","en":"Srae Chea Khang Cheung","km":"ស្រែជាខាងជើង"},"geometry":{"type":"Polygon","coordinates":[[[104.4467,10.6725],[104.4453,10.6823],[104.4481,10.7005],[104.4333,10.7001],[104.3757,10.6855],[104.4167,10.6569],[104.4347,10.6631],[104.4489,10.6583],[104.4467,10.6725]]]}},{"type":"Feature","properties":{"c":"070507","en":"Srae Chea Khang Tboung","km":"ស្រែជាខាងត្បូង"},"geometry":{"type":"Polygon","coordinates":[[[104.3757,10.6855],[104.3733,10.6889],[104.3647,10.6925],[104.3675,10.6877],[104.3615,10.6841],[104.3617,10.6723],[104.3669,10.6473],[104.3727,10.6399],[104.3721,10.6363],[104.3779,10.6267],[104.3911,10.6313],[104.3949,10.6297],[104.4183,10.6315],[104.4293,10.6273],[104.4327,10.6299],[104.4451,10.6275],[104.4489,10.6583],[104.4347,10.6631],[104.4167,10.6569],[104.3757,10.6855]]]}},{"type":"Feature","properties":{"c":"070508","en":"Totung","km":"ទទុង"},"geometry":{"type":"Polygon","coordinates":[[[104.5115,10.7351],[104.5101,10.7673],[104.5047,10.7627],[104.4999,10.7461],[104.4859,10.7467],[104.4637,10.7393],[104.4677,10.7347],[104.4757,10.7083],[104.4817,10.7045],[104.5023,10.7023],[104.5043,10.6871],[104.5197,10.6971],[104.5315,10.6973],[104.5309,10.7073],[104.5219,10.7147],[104.5137,10.7157],[104.5115,10.7193],[104.5115,10.7351]]]}}]}