{"type":"FeatureCollection","features":[{"type":"Feature","properties":{"c":"070609","en":"Ang Sophy","km":"អង្គសុរភី"},"geometry":{"type":"Polygon","coordinates":[[[104.5353,10.5809],[104.5165,10.5921],[104.5099,10.5883],[104.5011,10.5897],[104.4983,10.5875],[104.4911,10.5875],[104.4833,10.5807],[104.4769,10.5829],[104.4729,10.5803],[104.4705,10.5713],[104.4823,10.5685],[104.4815,10.5535],[104.5025,10.5523],[104.5063,10.5533],[104.5027,10.5605],[104.5057,10.5697],[104.5201,10.5697],[104.5303,10.5723],[104.5351,10.5775],[104.5353,10.5809]]]}},{"type":"Feature","properties":{"c":"070601","en":"Boeng Sala Khang Cheung","km":"បឹងសាលាខាងជើង"},"geometry":{"type":"Polygon","coordinates":[[[104.5063,10.5533],[104.4815,10.5535],[104.4817,10.5353],[104.4853,10.5289],[104.4905,10.5271],[104.4911,10.5183],[104.4951,10.5141],[104.5035,10.5129],[104.5163,10.5151],[104.5417,10.5081],[104.5475,10.5255],[104.5465,10.5295],[104.5317,10.5361],[104.5237,10.5505],[104.5063,10.5533]]]}},{"type":"Feature","properties":{"c":"070602","en":"Boeng Sala Khang Tboung","km":"បឹងសាលាខាងត្បូង"},"geometry":{"type":"Polygon","coordinates":[[[104.5417,10.5081],[104.5163,10.5151],[104.5035,10.5129],[104.4951,10.5141],[104.4911,10.5183],[104.4859,10.5135],[104.4867,10.5041],[104.4993,10.4851],[104.4993,10.4729],[104.5027,10.4673],[104.4965,10.4609],[104.4875,10.4447],[104.4847,10.4323],[104.4845,10.4259],[104.4979,10.4051],[104.5193,10.4415],[104.5289,10.4471],[104.5449,10.4501],[104.5405,10.4747],[104.5357,10.4823],[104.5375,10.4891],[104.5467,10.4977],[104.5417,10.5081]]]}},{"type":"Feature","properties":{"c":"070603","en":"Damnak Kantuot Khang Cheung","km":"ដំណាក់កន្ទួតខាងជើង"},"geometry":{"type":"Polygon","coordinates":[[[104.5017,10.6239],[104.4757,10.6329],[104.4723,10.6323],[104.4703,10.6243],[104.4579,10.6239],[104.4499,10.6203],[104.4569,10.6035],[104.4619,10.6003],[104.4735,10.5983],[104.4759,10.5949],[104.4751,10.5861],[104.4799,10.5805],[104.4833,10.5807],[104.4911,10.5875],[104.4983,10.5875],[104.5011,10.5897],[104.5017,10.6239]]]}},{"type":"Feature","properties":{"c":"070604","en":"Damnak Kantuot Khang Tboung","km":"ដំណាក់កន្ទួតខាងត្បូង"},"geometry":{"type":"Polygon","coordinates":[[[104.4451,10.6275],[104.4327,10.6299],[104.4293,10.6273],[104.4263,10.5973],[104.4295,10.5909],[104.4297,10.5605],[104.4533,10.5683],[104.4705,10.5713],[104.4729,10.5803],[104.4769,10.5829],[104.4751,10.5861],[104.4759,10.5949],[104.4735,10.5983],[104.4619,10.6003],[104.4569,10.6035],[104.4451,10.6275]]]}},{"type":"Feature","properties":{"c":"070605","en":"Kampong Trach Khang Kaeut","km":"កំពង់ត្រាចខាងកើត"},"geometry":{"type":"Polygon","coordinates":[[[104.4815,10.5535],[104.4823,10.5685],[104.4735,10.5713],[104.4613,10.5691],[104.4653,10.5627],[104.4659,10.5561],[104.4687,10.5551],[104.4677,10.5469],[104.4525,10.5305],[104.4615,10.5127],[104.4859,10.5135],[104.4911,10.5183],[104.4905,10.5271],[104.4853,10.5289],[104.4817,10.5353],[104.4815,10.5535]]]}},{"type":"Feature","properties":{"c":"070606","en":"Kampong Trach Khang Lech","km":"កំពង់ត្រាចខាងលិច"},"geometry":{"type":"Polygon","coordinates":[[[104.4293,10.6273],[104.4183,10.6315],[104.3949,10.6297],[104.3911,10.6313],[104.3779,10.6267],[104.3785,10.5999],[104.3711,10.5899],[104.3665,10.5895],[104.3633,10.5861],[104.3625,10.5821],[104.3631,10.5775],[104.3693,10.5763],[104.3733,10.5705],[104.3753,10.5755],[104.3839,10.5713],[104.3861,10.5641],[104.3863,10.5417],[104.3943,10.5355],[104.3987,10.5259],[104.4147,10.5197],[104.4301,10.5203],[104.4351,10.5293],[104.4405,10.5265],[104.4489,10.5281],[104.4581,10.5351],[104.4595,10.5401],[104.4657,10.5439],[104.4683,10.5513],[104.4687,10.5551],[104.4659,10.5561],[104.4653,10.5627],[104.4613,10.5691],[104.4297,10.5605],[104.4295,10.5909],[104.4263,10.5973],[104.4293,10.6273]]]}},{"type":"Feature","properties":{"c":"070608","en":"Phnom Prasat","km":"ភ្នំប្រាសាទ"},"geometry":{"type":"Polygon","coordinates":[[[104.5653,10.5563],[104.5447,10.5639],[104.5351,10.5775],[104.5263,10.5711],[104.5057,10.5697],[104.5027,10.5605],[104.5063,10.5533],[104.5237,10.5505],[104.5317,10.5361],[104.5465,10.5295],[104.5527,10.5377],[104.5631,10.5407],[104.5653,10.5485],[104.5707,10.5521],[104.5653,10.5563]]]}},{"type":"Feature","properties":{"c":"070607","en":"Prasat Phnom Khyang","km":"ប្រាសាទភ្នំខ្យង"},"geometry":{"type":"Polygon","coordinates":[[[104.5205,10.6065],[104.5173,10.6077],[104.5105,10.6189],[104.5017,10.6239],[104.5011,10.5897],[104.5099,10.5883],[104.5165,10.5921],[104.5353,10.5809],[104.5383,10.5881],[104.5367,10.5957],[104.5205,10.6065]]]}},{"type":"Feature","properties":{"c":"070612","en":"Preaek Kroes","km":"ព្រែកក្រឹស"},"geometry":{"type":"Polygon","coordinates":[[[104.5855,10.5475],[104.5779,10.5541],[104.5653,10.5563],[104.5707,10.5521],[104.5653,10.5485],[104.5631,10.5407],[104.5527,10.5377],[104.5465,10.5295],[104.5475,10.5255],[104.5417,10.5081],[104.5467,10.4977],[104.5357,10.4863],[104.5357,10.4823],[104.5405,10.4747],[104.5449,10.4501],[104.5545,10.4621],[104.5595,10.4925],[104.5821,10.5039],[104.5869,10.5127],[104.5877,10.5279],[104.5995,10.5343],[104.5981,10.5385],[104.5881,10.5425],[104.5855,10.5475]]]}},{"type":"Feature","properties":{"c":"070613","en":"Ruessei Srok Khang Kaeut","km":"ឫស្សីស្រុកខាងកើត"},"geometry":{"type":"Polygon","coordinates":[[[104.4859,10.5135],[104.4703,10.5127],[104.4605,10.4939],[104.4605,10.4901],[104.4685,10.4905],[104.4823,10.4845],[104.4831,10.4709],[104.4803,10.4639],[104.4673,10.4641],[104.4633,10.4619],[104.4671,10.4413],[104.4635,10.4337],[104.4661,10.4315],[104.4789,10.4319],[104.4845,10.4259],[104.4875,10.4447],[104.4965,10.4609],[104.5027,10.4673],[104.4993,10.4729],[104.4993,10.4851],[104.4867,10.5041],[104.4859,10.5135]]]}},{"type":"Feature","properties":{"c":"070614","en":"Ruessei Srok Khang Lech","km":"ឫស្សីស្រុកខាងលិច"},"geometry":{"type":"Polygon","coordinates":[[[104.4749,10.4315],[104.4661,10.4315],[104.4635,10.4337],[104.4671,10.4413],[104.4633,10.4619],[104.4673,10.4641],[104.4803,10.4639],[104.4831,10.4709],[104.4823,10.4845],[104.4685,10.4905],[104.4605,10.4901],[104.4629,10.5007],[104.4703,10.5127],[104.4615,10.5127],[104.4515,10.5003],[104.4545,10.4923],[104.4495,10.4859],[104.4519,10.4675],[104.4455,10.4631],[104.4373,10.4619],[104.4299,10.4563],[104.4261,10.4581],[104.4243,10.4539],[104.4151,10.4461],[104.4169,10.4435],[104.4265,10.4437],[104.4283,10.4351],[104.4381,10.4241],[104.4423,10.4233],[104.4749,10.4315]]]}},{"type":"Feature","properties":{"c":"070615","en":"Svay Tong Khang Cheung","km":"ស្វាយទងខាងជើង"},"geometry":{"type":"Polygon","coordinates":[[[104.4615,10.5127],[104.4525,10.5305],[104.4447,10.5265],[104.4351,10.5293],[104.4301,10.5203],[104.4147,10.5197],[104.4139,10.5143],[104.4179,10.5041],[104.4163,10.4991],[104.4215,10.4935],[104.4315,10.4921],[104.4331,10.4839],[104.4503,10.4817],[104.4495,10.4859],[104.4545,10.4923],[104.4515,10.5003],[104.4615,10.5127]]]}},{"type":"Feature","properties":{"c":"070616","en":"Svay Tong Khang Tboung","km":"ស្វាយទងខាងត្បូង"},"geometry":{"type":"MultiPolygon","coordinates":[[[[104.4019,10.4709],[104.4019,10.4745],[104.4051,10.4719],[104.4019,10.4709]]],[[[104.4079,10.4795],[104.4073,10.4831],[104.4041,10.4807],[104.4013,10.4849],[104.4027,10.4929],[104.4079,10.4937],[104.4061,10.4905],[104.4121,10.4875],[104.4201,10.4901],[104.4215,10.4935],[104.4279,10.4935],[104.4315,10.4921],[104.4331,10.4839],[104.4503,10.4817],[104.4527,10.4711],[104.4485,10.4649],[104.4373,10.4619],[104.4299,10.4563],[104.4231,10.4593],[104.4195,10.4649],[104.4159,10.4663],[104.4193,10.4715],[104.4145,10.4739],[104.4123,10.4705],[104.4055,10.4677],[104.4051,10.4719],[104.4079,10.4795]]]]}}]}