{"type":"FeatureCollection","features":[{"type":"Feature","properties":{"c":"070701","en":"Boeng Tuk","km":"បឹងទូក"},"geometry":{"type":"Polygon","coordinates":[[[104.1191,10.6315],[104.1079,10.6315],[104.0989,10.6345],[104.0993,10.5809],[104.0969,10.5701],[104.0999,10.5667],[104.1005,10.5611],[104.0985,10.5471],[104.1069,10.5487],[104.1185,10.5569],[104.1343,10.5633],[104.1437,10.5639],[104.1537,10.5601],[104.1637,10.5659],[104.1709,10.5767],[104.1709,10.5807],[104.1495,10.5893],[104.1445,10.5943],[104.1475,10.5973],[104.1311,10.6093],[104.1191,10.6315]]]}},{"type":"Feature","properties":{"c":"070702","en":"Chum Kriel","km":"ជុំគ្រៀល"},"geometry":{"type":"Polygon","coordinates":[[[104.2175,10.6099],[104.2219,10.6101],[104.2233,10.6133],[104.2053,10.6205],[104.2017,10.6195],[104.2049,10.6101],[104.1959,10.6101],[104.1915,10.6039],[104.1897,10.5927],[104.2049,10.5799],[104.2099,10.5715],[104.2227,10.5673],[104.2189,10.5661],[104.2227,10.5613],[104.2241,10.5639],[104.2267,10.5627],[104.2263,10.5663],[104.2401,10.5687],[104.2429,10.5815],[104.2367,10.5859],[104.2345,10.6001],[104.2273,10.6009],[104.2175,10.6099]]]}},{"type":"Feature","properties":{"c":"070703","en":"Kampong Kraeng","km":"កំពង់ក្រែង"},"geometry":{"type":"Polygon","coordinates":[[[104.1843,10.6329],[104.1811,10.6347],[104.1813,10.6387],[104.1855,10.6401],[104.1909,10.6489],[104.1867,10.6683],[104.1789,10.6723],[104.1801,10.6797],[104.1777,10.6963],[104.1623,10.6953],[104.1629,10.6907],[104.1601,10.6871],[104.1621,10.6829],[104.1589,10.6819],[104.1577,10.6783],[104.1625,10.6769],[104.1643,10.6735],[104.1653,10.6573],[104.1719,10.6469],[104.1637,10.6453],[104.1615,10.6419],[104.1689,10.6393],[104.1681,10.6211],[104.1709,10.6191],[104.1821,10.6279],[104.1843,10.6329]]]}},{"type":"Feature","properties":{"c":"070704","en":"Kampong Samraong","km":"កំពង់សំរោង"},"geometry":{"type":"Polygon","coordinates":[[[104.2243,10.6373],[104.2189,10.6383],[104.2207,10.6441],[104.2119,10.6519],[104.2047,10.6285],[104.1987,10.6309],[104.2017,10.6195],[104.2053,10.6205],[104.2233,10.6133],[104.2289,10.6147],[104.2263,10.6209],[104.2311,10.6233],[104.2299,10.6261],[104.2235,10.6249],[104.2207,10.6279],[104.2243,10.6373]]]}},{"type":"Feature","properties":{"c":"070705","en":"Kandaol","km":"កណ្ដោល"},"geometry":{"type":"Polygon","coordinates":[[[104.3623,10.6983],[104.3463,10.6927],[104.3245,10.7027],[104.3065,10.6875],[104.2931,10.6849],[104.2733,10.6843],[104.2597,10.6935],[104.2553,10.6927],[104.2439,10.6835],[104.2439,10.6705],[104.2411,10.6677],[104.2335,10.6631],[104.2307,10.6637],[104.2281,10.6685],[104.2249,10.6677],[104.2217,10.6625],[104.2209,10.6547],[104.2101,10.6559],[104.2137,10.6491],[104.2207,10.6441],[104.2189,10.6383],[104.2519,10.6351],[104.2677,10.6479],[104.2789,10.6413],[104.2943,10.6419],[104.3029,10.6389],[104.3121,10.6439],[104.3301,10.6409],[104.3633,10.6455],[104.3669,10.6473],[104.3669,10.6527],[104.3617,10.6723],[104.3615,10.6841],[104.3675,10.6877],[104.3623,10.6983]]]}},{"type":"Feature","properties":{"c":"070707","en":"Kaoh Touch","km":"កោះតូច"},"geometry":{"type":"Polygon","coordinates":[[[104.0679,11.0253],[104.0617,11.0243],[104.0461,11.0135],[104.0221,11.0095],[104.0181,11.0197],[103.9967,11.0199],[103.9719,10.9933],[103.9383,10.9711],[103.9327,10.9637],[103.9161,10.9551],[103.9207,10.9467],[103.9335,10.9405],[103.9343,10.9277],[103.9321,10.9161],[103.9333,10.9029],[103.9315,10.8995],[103.9269,10.8993],[103.9243,10.8957],[103.9189,10.8785],[103.9193,10.8739],[103.9317,10.8641],[103.9241,10.8591],[103.9229,10.8517],[103.9261,10.8461],[103.9377,10.8363],[103.9455,10.8217],[103.9333,10.8017],[103.9359,10.7885],[103.9349,10.7821],[103.9331,10.7779],[103.9223,10.7691],[103.9225,10.7647],[103.9263,10.7441],[103.9465,10.7121],[103.9573,10.7077],[103.9621,10.6983],[103.9647,10.6829],[103.9983,10.6525],[104.0111,10.6357],[104.0227,10.6283],[104.0155,10.5901],[104.0073,10.5763],[104.0129,10.5739],[104.0093,10.5703],[104.0153,10.5623],[104.0277,10.5599],[104.0505,10.5495],[104.0731,10.5479],[104.0815,10.5499],[104.0985,10.5471],[104.1005,10.5611],[104.0999,10.5667],[104.0969,10.5701],[104.0993,10.5809],[104.0989,10.6345],[104.1089,10.6497],[104.1071,10.6683],[104.1221,10.6859],[104.1255,10.6983],[104.1247,10.7019],[104.1109,10.7089],[104.1121,10.7121],[104.1235,10.7161],[104.1149,10.7259],[104.1153,10.7375],[104.1165,10.7411],[104.1253,10.7437],[104.1323,10.7521],[104.1371,10.7637],[104.1333,10.8031],[104.1255,10.8125],[104.1107,10.8557],[104.0985,10.8779],[104.0993,10.8991],[104.0953,10.9065],[104.0927,10.9219],[104.0895,10.9251],[104.0869,10.9425],[104.0893,10.9565],[104.0863,10.9689],[104.0897,10.9923],[104.0781,10.9987],[104.0749,11.0031],[104.0687,11.0163],[104.0679,11.0253]]]}},{"type":"Feature","properties":{"c":"070708","en":"Koun Satv","km":"កូនសត្វ"},"geometry":{"type":"Polygon","coordinates":[[[104.3779,10.6077],[104.3475,10.6151],[104.3361,10.6207],[104.3081,10.6231],[104.2941,10.6271],[104.2757,10.6259],[104.2711,10.6229],[104.2675,10.6155],[104.2663,10.5995],[104.2599,10.5807],[104.2561,10.5821],[104.2479,10.5699],[104.2549,10.5577],[104.2665,10.5515],[104.2661,10.5587],[104.2709,10.5631],[104.2729,10.5797],[104.2769,10.5905],[104.2943,10.5767],[104.3183,10.5735],[104.3469,10.5783],[104.3631,10.5775],[104.3633,10.5861],[104.3665,10.5895],[104.3711,10.5899],[104.3785,10.5999],[104.3779,10.6077]]]}},{"type":"Feature","properties":{"c":"070709","en":"Makprang","km":"ម៉ាក់ប្រាង្គ"},"geometry":{"type":"Polygon","coordinates":[[[104.1623,10.6953],[104.1499,10.6965],[104.1253,10.7437],[104.1165,10.7411],[104.1149,10.7259],[104.1235,10.7161],[104.1121,10.7121],[104.1109,10.7089],[104.1247,10.7019],[104.1255,10.6983],[104.1221,10.6859],[104.1071,10.6683],[104.1089,10.6497],[104.0989,10.6345],[104.1079,10.6315],[104.1191,10.6315],[104.1403,10.6403],[104.1615,10.6419],[104.1637,10.6453],[104.1719,10.6469],[104.1653,10.6573],[104.1643,10.6735],[104.1625,10.6769],[104.1577,10.6783],[104.1589,10.6819],[104.1621,10.6829],[104.1601,10.6871],[104.1629,10.6907],[104.1623,10.6953]]]}},{"type":"Feature","properties":{"c":"070711","en":"Preaek Tnoat","km":"ព្រែកត្នោត"},"geometry":{"type":"Polygon","coordinates":[[[104.0093,10.5703],[104.0129,10.5739],[104.0073,10.5763],[104.0155,10.5901],[104.0227,10.6283],[104.0111,10.6357],[103.9983,10.6525],[103.9647,10.6829],[103.9675,10.6717],[103.9655,10.6599],[103.9561,10.6393],[103.9531,10.6251],[103.9465,10.6225],[103.9417,10.6167],[103.9393,10.6203],[103.9357,10.6191],[103.9327,10.6217],[103.9299,10.6191],[103.9305,10.6155],[103.9203,10.6083],[103.9301,10.5953],[103.9407,10.5875],[103.9615,10.5869],[103.9763,10.5821],[103.9931,10.5721],[104.0051,10.5691],[104.0093,10.5703]]]}},{"type":"Feature","properties":{"c":"070712","en":"Prey Khmum","km":"ព្រៃឃ្មុំ"},"geometry":{"type":"Polygon","coordinates":[[[104.2101,10.6559],[104.2029,10.6615],[104.1989,10.6705],[104.2019,10.6803],[104.2067,10.6825],[104.2083,10.6873],[104.2089,10.7071],[104.1937,10.7213],[104.1819,10.7073],[104.1777,10.6963],[104.1801,10.6797],[104.1789,10.6723],[104.1867,10.6683],[104.1909,10.6489],[104.1855,10.6401],[104.1813,10.6387],[104.1811,10.6347],[104.1843,10.6329],[104.1859,10.6359],[104.1893,10.6365],[104.2047,10.6285],[104.2111,10.6473],[104.2101,10.6559]]]}},{"type":"Feature","properties":{"c":"070713","en":"Prey Thnang","km":"ព្រៃថ្នង"},"geometry":{"type":"Polygon","coordinates":[[[104.3023,10.7615],[104.2967,10.7665],[104.2841,10.7893],[104.2657,10.7953],[104.2513,10.7937],[104.2473,10.7529],[104.2393,10.7425],[104.2413,10.7209],[104.2485,10.7119],[104.2477,10.7033],[104.2527,10.6907],[104.2597,10.6935],[104.2733,10.6843],[104.2931,10.6849],[104.3065,10.6875],[104.3245,10.7027],[104.3119,10.7195],[104.3141,10.7317],[104.3129,10.7427],[104.3023,10.7615]]]}},{"type":"Feature","properties":{"c":"070715","en":"Stueng Kaev","km":"ស្ទឹងកែវ"},"geometry":{"type":"Polygon","coordinates":[[[104.2147,10.8121],[104.1255,10.8125],[104.1333,10.8031],[104.1371,10.7637],[104.1323,10.7521],[104.1253,10.7437],[104.1499,10.6965],[104.1777,10.6963],[104.1819,10.7073],[104.1937,10.7213],[104.1971,10.7395],[104.2117,10.7441],[104.2131,10.7467],[104.2169,10.7455],[104.2189,10.7665],[104.2173,10.7745],[104.2229,10.7853],[104.2233,10.7941],[104.2177,10.8117],[104.2163,10.8091],[104.2147,10.8121]]]}},{"type":"Feature","properties":{"c":"070716","en":"Thmei","km":"ថ្មី"},"geometry":{"type":"MultiPolygon","coordinates":[[[[104.2325,10.8139],[104.2317,10.8177],[104.2381,10.8217],[104.2463,10.8213],[104.2481,10.7947],[104.2513,10.7937],[104.2473,10.7529],[104.2393,10.7425],[104.2413,10.7209],[104.2485,10.7119],[104.2477,10.7033],[104.2527,10.6907],[104.2439,10.6835],[104.2439,10.6705],[104.2335,10.6631],[104.2307,10.6637],[104.2281,10.6685],[104.2249,10.6677],[104.2217,10.6625],[104.2209,10.6547],[104.2101,10.6559],[104.2029,10.6615],[104.1989,10.6705],[104.2019,10.6803],[104.2067,10.6825],[104.2083,10.6873],[104.2089,10.7071],[104.1937,10.7213],[104.1971,10.7395],[104.2117,10.7441],[104.2131,10.7467],[104.2169,10.7455],[104.2181,10.7491],[104.2173,10.7745],[104.2229,10.7853],[104.2233,10.7941],[104.2177,10.8117],[104.2325,10.8139]]],[[[104.2163,10.8091],[104.2147,10.8121],[104.2177,10.8117],[104.2163,10.8091]]]]}},{"type":"Feature","properties":{"c":"070717","en":"Trapeang Pring","km":"ត្រពាំងព្រីង"},"geometry":{"type":"Polygon","coordinates":[[[104.3669,10.6473],[104.3301,10.6409],[104.3121,10.6439],[104.3029,10.6389],[104.2943,10.6419],[104.2789,10.6413],[104.2677,10.6479],[104.2519,10.6351],[104.2243,10.6373],[104.2207,10.6279],[104.2235,10.6249],[104.2299,10.6261],[104.2311,10.6233],[104.2263,10.6209],[104.2281,10.6183],[104.2433,10.6141],[104.2551,10.6051],[104.2669,10.6039],[104.2689,10.6191],[104.2757,10.6259],[104.2941,10.6271],[104.3081,10.6231],[104.3361,10.6207],[104.3475,10.6151],[104.3779,10.6077],[104.3779,10.6267],[104.3721,10.6363],[104.3727,10.6399],[104.3669,10.6473]]]}},{"type":"Feature","properties":{"c":"070718","en":"Trapeang Sangkae","km":"ត្រពាំងសង្កែ"},"geometry":{"type":"Polygon","coordinates":[[[104.2669,10.6039],[104.2551,10.6051],[104.2433,10.6141],[104.2315,10.6185],[104.2281,10.6183],[104.2289,10.6147],[104.2233,10.6133],[104.2219,10.6101],[104.2175,10.6099],[104.2273,10.6009],[104.2345,10.6001],[104.2367,10.5859],[104.2429,10.5815],[104.2401,10.5687],[104.2435,10.5709],[104.2479,10.5699],[104.2561,10.5821],[104.2599,10.5807],[104.2669,10.6039]]]}},{"type":"Feature","properties":{"c":"070719","en":"Trapeang Thum","km":"ត្រពាំងធំ"},"geometry":{"type":"Polygon","coordinates":[[[104.1987,10.6309],[104.1893,10.6365],[104.1859,10.6359],[104.1821,10.6279],[104.1883,10.6289],[104.1927,10.6267],[104.1923,10.6157],[104.1959,10.6139],[104.1959,10.6101],[104.2005,10.6091],[104.2049,10.6101],[104.1987,10.6309]]]}}]}