{"type":"FeatureCollection","features":[{"type":"Feature","properties":{"c":"070804","en":"Andoung Khmer","km":"សង្កាត់អណ្ដូងខ្មែរ"},"geometry":{"type":"Polygon","coordinates":[[[104.1709,10.6191],[104.1673,10.6239],[104.1689,10.6393],[104.1657,10.6411],[104.1403,10.6403],[104.1191,10.6315],[104.1281,10.6129],[104.1383,10.6027],[104.1475,10.5973],[104.1445,10.5943],[104.1495,10.5893],[104.1709,10.5807],[104.1731,10.5845],[104.1717,10.5985],[104.1797,10.6019],[104.1709,10.6191]]]}},{"type":"Feature","properties":{"c":"070803","en":"Kampong Bay","km":"សង្កាត់កំពង់បាយ"},"geometry":{"type":"Polygon","coordinates":[[[104.1811,10.6107],[104.1831,10.6229],[104.1821,10.6279],[104.1709,10.6191],[104.1777,10.6083],[104.1811,10.6107]]]}},{"type":"Feature","properties":{"c":"070801","en":"Kampong Kandal","km":"សង្កាត់កំពង់កណ្ដាល"},"geometry":{"type":"Polygon","coordinates":[[[104.1959,10.6101],[104.1871,10.6089],[104.1811,10.6107],[104.1777,10.6083],[104.1797,10.6019],[104.1897,10.5927],[104.1915,10.6039],[104.1959,10.6101]]]}},{"type":"Feature","properties":{"c":"070802","en":"Krang Ampil","km":"សង្កាត់ក្រាំងអំពិល"},"geometry":{"type":"Polygon","coordinates":[[[104.1959,10.6101],[104.1959,10.6139],[104.1915,10.6187],[104.1927,10.6267],[104.1883,10.6289],[104.1821,10.6279],[104.1811,10.6107],[104.1871,10.6089],[104.1959,10.6101]]]}},{"type":"Feature","properties":{"c":"070805","en":"Traeuy Kaoh","km":"សង្កាត់ត្រើយកោះ"},"geometry":{"type":"Polygon","coordinates":[[[104.1897,10.5927],[104.1797,10.6019],[104.1717,10.5985],[104.1731,10.5845],[104.1709,10.5767],[104.1637,10.5659],[104.1537,10.5601],[104.1645,10.5537],[104.1797,10.5399],[104.1835,10.5465],[104.2013,10.5597],[104.2139,10.5573],[104.2167,10.5597],[104.2131,10.5703],[104.1897,10.5927]]]}}]}