{"type":"FeatureCollection","features":[{"type":"Feature","properties":{"c":"080101","en":"Ampov Prey","km":"អំពៅព្រៃ"},"geometry":{"type":"Polygon","coordinates":[[[104.8795,11.3913],[104.8671,11.3907],[104.8597,11.3939],[104.8591,11.3861],[104.8705,11.3801],[104.8981,11.3741],[104.9467,11.3741],[104.9495,11.3777],[104.9441,11.3823],[104.9191,11.3913],[104.9113,11.3885],[104.8795,11.3913]]]}},{"type":"Feature","properties":{"c":"080102","en":"Anlong Romiet","km":"អន្លង់រមៀត"},"geometry":{"type":"Polygon","coordinates":[[[104.8089,11.4305],[104.7985,11.4391],[104.7883,11.4101],[104.8153,11.4113],[104.8109,11.4175],[104.8089,11.4305]]]}},{"type":"Feature","properties":{"c":"080103","en":"Barku","km":"បារគូ"},"geometry":{"type":"Polygon","coordinates":[[[104.8267,11.4389],[104.8229,11.4439],[104.8197,11.4427],[104.8171,11.4395],[104.8191,11.4363],[104.8175,11.4321],[104.8089,11.4305],[104.8109,11.4175],[104.8153,11.4113],[104.8257,11.4081],[104.8311,11.4095],[104.8349,11.4201],[104.8339,11.4273],[104.8267,11.4389]]]}},{"type":"Feature","properties":{"c":"080104","en":"Boeng Khyang","km":"បឹងខ្យាង"},"geometry":{"type":"Polygon","coordinates":[[[104.9311,11.3625],[104.9207,11.3651],[104.9045,11.3637],[104.8977,11.3655],[104.8871,11.3629],[104.8725,11.3681],[104.8647,11.3657],[104.8653,11.3519],[104.8733,11.3511],[104.8759,11.3481],[104.8947,11.3493],[104.9033,11.3425],[104.9133,11.3401],[104.9209,11.3295],[104.9299,11.3279],[104.9347,11.3305],[104.9353,11.3341],[104.9311,11.3625]]]}},{"type":"Feature","properties":{"c":"080105","en":"Cheung Kaeub","km":"ជើងកើប"},"geometry":{"type":"Polygon","coordinates":[[[104.9223,11.4289],[104.9047,11.4357],[104.8975,11.4355],[104.8881,11.4305],[104.8821,11.4363],[104.8707,11.4141],[104.8839,11.4081],[104.8853,11.4109],[104.8907,11.4077],[104.9209,11.4185],[104.9393,11.4143],[104.9565,11.4053],[104.9495,11.4179],[104.9413,11.4193],[104.9411,11.4285],[104.9223,11.4289]]]}},{"type":"Feature","properties":{"c":"080106","en":"Daeum Rues","km":"ដើមឫស"},"geometry":{"type":"Polygon","coordinates":[[[104.7733,11.4623],[104.7647,11.4631],[104.7641,11.4577],[104.7557,11.4573],[104.7597,11.4521],[104.7545,11.4527],[104.7529,11.4563],[104.7447,11.4553],[104.7415,11.4491],[104.7381,11.4503],[104.7375,11.4553],[104.7253,11.4445],[104.7285,11.4367],[104.7363,11.4283],[104.7499,11.4249],[104.7531,11.4277],[104.7613,11.4273],[104.7675,11.4217],[104.7745,11.4291],[104.7745,11.4217],[104.7823,11.4217],[104.7809,11.4177],[104.7843,11.4161],[104.7869,11.4237],[104.7917,11.4231],[104.7985,11.4391],[104.7981,11.4445],[104.7943,11.4437],[104.7927,11.4471],[104.7851,11.4471],[104.7829,11.4497],[104.7847,11.4539],[104.7745,11.4587],[104.7733,11.4623]]]}},{"type":"Feature","properties":{"c":"080107","en":"Kandaok","km":"កណ្ដោក"},"geometry":{"type":"Polygon","coordinates":[[[104.9565,11.4053],[104.9393,11.4143],[104.9209,11.4185],[104.8907,11.4077],[104.8853,11.4109],[104.8845,11.4051],[104.8773,11.3951],[104.8795,11.3913],[104.9031,11.3885],[104.9191,11.3913],[104.9441,11.3823],[104.9495,11.3777],[104.9561,11.3849],[104.9595,11.3941],[104.9565,11.4053]]]}},{"type":"Feature","properties":{"c":"080109","en":"Kouk Trab","km":"គោកត្រប់"},"geometry":{"type":"Polygon","coordinates":[[[104.8591,11.4033],[104.8351,11.4089],[104.8227,11.4093],[104.8219,11.4011],[104.8309,11.4015],[104.8309,11.3919],[104.8493,11.3919],[104.8495,11.3841],[104.8597,11.3819],[104.8591,11.4033]]]}},{"type":"Feature","properties":{"c":"080115","en":"Preaek Roka","km":"ព្រែករកា"},"geometry":{"type":"Polygon","coordinates":[[[104.8597,11.3819],[104.8495,11.3841],[104.8487,11.3713],[104.8413,11.3719],[104.8401,11.3689],[104.8403,11.3575],[104.8311,11.3555],[104.8321,11.3437],[104.8525,11.3417],[104.8653,11.3519],[104.8647,11.3657],[104.8597,11.3819]]]}},{"type":"Feature","properties":{"c":"080116","en":"Preaek Slaeng","km":"ព្រែកស្លែង"},"geometry":{"type":"Polygon","coordinates":[[[104.9467,11.3741],[104.8981,11.3741],[104.8705,11.3801],[104.8591,11.3861],[104.8647,11.3657],[104.8725,11.3681],[104.8871,11.3629],[104.8977,11.3655],[104.9045,11.3637],[104.9207,11.3651],[104.9311,11.3625],[104.9467,11.3741]]]}},{"type":"Feature","properties":{"c":"080113","en":"Preah Putth","km":"ព្រះពុទ្ធ"},"geometry":{"type":"Polygon","coordinates":[[[104.8529,11.4297],[104.8309,11.4313],[104.8349,11.4239],[104.8311,11.4095],[104.8627,11.4027],[104.8707,11.4141],[104.8729,11.4215],[104.8675,11.4269],[104.8589,11.4239],[104.8529,11.4297]]]}},{"type":"Feature","properties":{"c":"080117","en":"Roka","km":"រកា"},"geometry":{"type":"Polygon","coordinates":[[[104.7375,11.4553],[104.7283,11.4547],[104.7243,11.4583],[104.7151,11.4549],[104.7139,11.4463],[104.7009,11.4457],[104.6995,11.4303],[104.7045,11.4295],[104.7153,11.4335],[104.7199,11.4391],[104.7241,11.4347],[104.7285,11.4367],[104.7253,11.4445],[104.7375,11.4553]]]}},{"type":"Feature","properties":{"c":"080118","en":"Roleang Kaen","km":"រលាំងកែន"},"geometry":{"type":"Polygon","coordinates":[[[104.6973,11.4507],[104.6831,11.4547],[104.6777,11.4591],[104.6697,11.4583],[104.6605,11.4483],[104.6565,11.4495],[104.6565,11.4355],[104.6615,11.4343],[104.6787,11.4219],[104.6871,11.4299],[104.6897,11.4363],[104.6959,11.4347],[104.6995,11.4303],[104.7009,11.4457],[104.6973,11.4507]]]}},{"type":"Feature","properties":{"c":"080122","en":"Siem Reab","km":"សៀមរាប"},"geometry":{"type":"Polygon","coordinates":[[[104.8839,11.4081],[104.8707,11.4141],[104.8627,11.4027],[104.8591,11.4033],[104.8597,11.3939],[104.8671,11.3907],[104.8795,11.3913],[104.8779,11.3983],[104.8845,11.4051],[104.8839,11.4081]]]}},{"type":"Feature","properties":{"c":"080125","en":"Tbaeng","km":"ត្បែង"},"geometry":{"type":"Polygon","coordinates":[[[104.8013,11.3543],[104.8027,11.3685],[104.7995,11.3813],[104.7901,11.3743],[104.7761,11.3735],[104.7619,11.3807],[104.7325,11.3499],[104.7551,11.3369],[104.7727,11.3461],[104.8013,11.3543]]]}},{"type":"Feature","properties":{"c":"080108","en":"Thmei","km":"ថ្មី"},"geometry":{"type":"Polygon","coordinates":[[[104.8227,11.4093],[104.8153,11.4113],[104.8055,11.4097],[104.8051,11.3951],[104.8001,11.3955],[104.7995,11.3813],[104.8217,11.3831],[104.8227,11.4093]]]}},{"type":"Feature","properties":{"c":"080127","en":"Trapeang Veaeng","km":"ត្រពាំងវែង"},"geometry":{"type":"Polygon","coordinates":[[[104.8055,11.4097],[104.7883,11.4101],[104.7651,11.3865],[104.7619,11.3807],[104.7761,11.3735],[104.7929,11.3759],[104.7995,11.3813],[104.8001,11.3955],[104.8051,11.3951],[104.8055,11.4097]]]}},{"type":"Feature","properties":{"c":"080128","en":"Trea","km":"ទ្រា"},"geometry":{"type":"Polygon","coordinates":[[[104.8495,11.3841],[104.8493,11.3919],[104.8309,11.3919],[104.8309,11.4015],[104.8219,11.4011],[104.8217,11.3831],[104.7995,11.3813],[104.8027,11.3685],[104.8013,11.3543],[104.8217,11.3463],[104.8305,11.3469],[104.8311,11.3555],[104.8403,11.3575],[104.8413,11.3719],[104.8487,11.3713],[104.8495,11.3841]]]}}]}