{"type":"FeatureCollection","features":[{"type":"Feature","properties":{"c":"080201","en":"Banteay Daek","km":"បន្ទាយដែក"},"geometry":{"type":"Polygon","coordinates":[[[105.1547,11.4779],[105.1257,11.4939],[105.1213,11.4897],[105.1125,11.4899],[105.1083,11.4813],[105.1099,11.4591],[105.1081,11.4547],[105.1111,11.4473],[105.1247,11.4463],[105.1235,11.3659],[105.1529,11.3657],[105.1527,11.4381],[105.1677,11.4505],[105.1739,11.4589],[105.1547,11.4779]]]}},{"type":"Feature","properties":{"c":"080202","en":"Chheu Teal","km":"ឈើទាល"},"geometry":{"type":"Polygon","coordinates":[[[105.0755,11.4727],[105.0491,11.4823],[105.0383,11.4777],[105.0289,11.4693],[105.0297,11.4657],[105.0459,11.4571],[105.0533,11.4445],[105.0637,11.4503],[105.0665,11.4411],[105.0809,11.4415],[105.0831,11.4513],[105.0917,11.4563],[105.0907,11.4619],[105.0755,11.4727]]]}},{"type":"Feature","properties":{"c":"080203","en":"Dei Edth","km":"ដីឥដ្ឋ"},"geometry":{"type":"Polygon","coordinates":[[[105.1221,11.4959],[105.1097,11.5015],[105.0911,11.5151],[105.0761,11.5035],[105.0755,11.4727],[105.0975,11.4569],[105.1081,11.4547],[105.1099,11.4591],[105.1083,11.4813],[105.1103,11.4873],[105.1125,11.4899],[105.1241,11.4913],[105.1257,11.4939],[105.1221,11.4959]]]}},{"type":"Feature","properties":{"c":"080204","en":"Kampong Svay","km":"កំពង់ស្វាយ"},"geometry":{"type":"Polygon","coordinates":[[[105.1081,11.4547],[105.0975,11.4569],[105.0907,11.4619],[105.0917,11.4563],[105.0831,11.4513],[105.0809,11.4415],[105.0665,11.4411],[105.0637,11.4503],[105.0579,11.4481],[105.0533,11.4445],[105.0521,11.4255],[105.0417,11.4131],[105.0855,11.3929],[105.1099,11.3679],[105.1235,11.3659],[105.1247,11.4463],[105.1111,11.4473],[105.1081,11.4547]]]}},{"type":"Feature","properties":{"c":"080206","en":"Kokir","km":"គគីរ"},"geometry":{"type":"Polygon","coordinates":[[[105.0911,11.5151],[105.0729,11.5255],[105.0513,11.5133],[105.0423,11.5117],[105.0447,11.5019],[105.0481,11.5007],[105.0491,11.4823],[105.0755,11.4727],[105.0761,11.5035],[105.0911,11.5151]]]}},{"type":"Feature","properties":{"c":"080207","en":"Kokir Thum","km":"គគីរធំ"},"geometry":{"type":"Polygon","coordinates":[[[105.2597,11.3545],[105.1677,11.3569],[105.1691,11.3231],[105.1783,11.3225],[105.1957,11.3285],[105.2241,11.3267],[105.2329,11.3245],[105.2407,11.3177],[105.2571,11.3199],[105.2757,11.3059],[105.2717,11.3309],[105.2597,11.3545]]]}},{"type":"Feature","properties":{"c":"080208","en":"Phum Thum","km":"ភូមិធំ"},"geometry":{"type":"Polygon","coordinates":[[[105.0595,11.5331],[105.0417,11.5389],[105.0299,11.5233],[105.0263,11.5157],[105.0293,11.4835],[105.0491,11.4823],[105.0481,11.5007],[105.0447,11.5019],[105.0423,11.5117],[105.0513,11.5133],[105.0729,11.5255],[105.0595,11.5331]]]}},{"type":"Feature","properties":{"c":"080211","en":"Samraong Thum","km":"សំរោងធំ"},"geometry":{"type":"Polygon","coordinates":[[[105.2013,11.4413],[105.1739,11.4589],[105.1677,11.4505],[105.1527,11.4381],[105.1529,11.3657],[105.1625,11.3639],[105.1677,11.3569],[105.2597,11.3545],[105.2557,11.3915],[105.2503,11.4037],[105.2013,11.4413]]]}}]}