{"type":"FeatureCollection","features":[{"type":"Feature","properties":{"c":"080301","en":"Bak Dav","km":"បាក់ដាវ"},"geometry":{"type":"Polygon","coordinates":[[[105.1171,11.5611],[105.1131,11.5719],[105.1175,11.5769],[105.1123,11.5949],[105.1103,11.6093],[105.1119,11.6127],[105.1043,11.6201],[105.0933,11.6067],[105.1007,11.5921],[105.0997,11.5759],[105.1083,11.5611],[105.1117,11.5591],[105.1171,11.5611]]]}},{"type":"Feature","properties":{"c":"080302","en":"Chey Thum","km":"ជ័យធំ"},"geometry":{"type":"Polygon","coordinates":[[[105.1431,11.7349],[105.1211,11.7419],[105.1061,11.7347],[105.0967,11.7367],[105.0969,11.7313],[105.0937,11.7305],[105.0907,11.7133],[105.0981,11.6927],[105.1131,11.6915],[105.1143,11.6951],[105.1211,11.6959],[105.1287,11.6931],[105.1339,11.6993],[105.1371,11.7009],[105.1453,11.6991],[105.1481,11.7011],[105.1483,11.7057],[105.1569,11.7087],[105.1579,11.7173],[105.1551,11.7241],[105.1559,11.7283],[105.1597,11.7313],[105.1593,11.7355],[105.1431,11.7349]]]}},{"type":"Feature","properties":{"c":"080303","en":"Kampong Chamlang","km":"កំពង់ចំលង"},"geometry":{"type":"Polygon","coordinates":[[[105.1135,11.6339],[105.1117,11.6411],[105.1305,11.6499],[105.1323,11.6531],[105.1301,11.6597],[105.1225,11.6647],[105.1219,11.6717],[105.1179,11.6717],[105.1165,11.6691],[105.1185,11.6647],[105.1163,11.6597],[105.1207,11.6581],[105.1191,11.6549],[105.1155,11.6531],[105.1105,11.6449],[105.1041,11.6427],[105.1025,11.6397],[105.0937,11.6395],[105.0957,11.6365],[105.0883,11.6239],[105.0817,11.6249],[105.0849,11.6163],[105.0933,11.6067],[105.1021,11.6163],[105.1067,11.6295],[105.1135,11.6339]]]}},{"type":"Feature","properties":{"c":"080304","en":"Kaoh Chouram","km":"កោះចូរ៉ាម"},"geometry":{"type":"Polygon","coordinates":[[[105.0495,11.8191],[105.0293,11.8143],[105.0225,11.8269],[105.0051,11.8341],[104.9995,11.8393],[104.9861,11.8271],[104.9789,11.8123],[104.9843,11.8027],[105.0051,11.7969],[105.0125,11.8055],[105.0259,11.8073],[105.0495,11.8191]]]}},{"type":"Feature","properties":{"c":"080305","en":"Kaoh Oknha Tei","km":"កោះឧកញ៉ាតី"},"geometry":{"type":"Polygon","coordinates":[[[104.9501,11.6395],[104.9467,11.6549],[104.9377,11.6423],[104.9323,11.6237],[104.9391,11.6057],[104.9501,11.6395]]]}},{"type":"Feature","properties":{"c":"080307","en":"Preaek Ampil","km":"ព្រែកអំពិល"},"geometry":{"type":"Polygon","coordinates":[[[105.0097,11.6783],[105.0027,11.6697],[104.9971,11.6683],[104.9865,11.6739],[104.9697,11.6745],[104.9581,11.6789],[104.9545,11.6751],[104.9467,11.6549],[104.9501,11.6395],[104.9611,11.6381],[104.9687,11.6327],[104.9783,11.6361],[104.9903,11.6313],[104.9987,11.6335],[105.0193,11.6493],[105.0133,11.6581],[105.0143,11.6741],[105.0097,11.6783]]]}},{"type":"Feature","properties":{"c":"080308","en":"Preaek Luong","km":"ព្រែកលួង"},"geometry":{"type":"Polygon","coordinates":[[[105.0295,11.6437],[105.0259,11.6437],[105.0193,11.6493],[104.9945,11.6313],[104.9823,11.6359],[104.9687,11.6327],[104.9611,11.6381],[104.9501,11.6395],[104.9463,11.6241],[104.9619,11.6237],[104.9651,11.6185],[104.9663,11.6229],[104.9691,11.6239],[104.9993,11.6169],[105.0137,11.6191],[105.0179,11.6201],[105.0137,11.6273],[105.0295,11.6437]]]}},{"type":"Feature","properties":{"c":"080309","en":"Preaek Ta Kov","km":"ព្រែកតាកូវ"},"geometry":{"type":"Polygon","coordinates":[[[105.0179,11.6201],[104.9993,11.6169],[104.9691,11.6239],[104.9663,11.6229],[104.9651,11.6185],[104.9619,11.6237],[104.9463,11.6241],[104.9391,11.6057],[104.9393,11.6009],[104.9409,11.5971],[104.9501,11.5997],[104.9831,11.6001],[104.9971,11.5973],[105.0239,11.6095],[105.0217,11.6173],[105.0179,11.6201]]]}},{"type":"Feature","properties":{"c":"080310","en":"Preaek Ta Meak","km":"ព្រែកតាមាក់"},"geometry":{"type":"Polygon","coordinates":[[[105.0481,11.7521],[105.0309,11.7551],[105.0155,11.7675],[105.0021,11.7501],[104.9893,11.7383],[105.0039,11.7223],[105.0047,11.7163],[105.0141,11.7145],[105.0237,11.7089],[105.0311,11.7215],[105.0419,11.7223],[105.0393,11.7315],[105.0477,11.7409],[105.0481,11.7521]]]}},{"type":"Feature","properties":{"c":"080306","en":"Preah Prasab","km":"ព្រះប្រសប់"},"geometry":{"type":"Polygon","coordinates":[[[105.0505,11.7891],[105.0287,11.7893],[105.0165,11.7845],[105.0155,11.7675],[105.0309,11.7551],[105.0481,11.7521],[105.0471,11.7761],[105.0505,11.7891]]]}},{"type":"Feature","properties":{"c":"080311","en":"Puk Ruessei","km":"ពុកឫស្សី"},"geometry":{"type":"Polygon","coordinates":[[[105.0237,11.7089],[105.0141,11.7145],[105.0047,11.7163],[105.0039,11.7223],[104.9893,11.7383],[104.9677,11.7109],[104.9581,11.6789],[104.9697,11.6745],[104.9865,11.6739],[104.9971,11.6683],[105.0027,11.6697],[105.0097,11.6783],[105.0069,11.6879],[105.0089,11.7015],[105.0151,11.7047],[105.0225,11.7049],[105.0237,11.7089]]]}},{"type":"Feature","properties":{"c":"080312","en":"Roka Chonlueng","km":"រកាជន្លឹង"},"geometry":{"type":"Polygon","coordinates":[[[105.0967,11.7367],[105.0881,11.7501],[105.0481,11.7521],[105.0477,11.7409],[105.0393,11.7315],[105.0419,11.7223],[105.0509,11.7213],[105.0541,11.7185],[105.0695,11.7175],[105.0701,11.7133],[105.0855,11.7125],[105.0907,11.7133],[105.0937,11.7305],[105.0969,11.7313],[105.0967,11.7367]]]}},{"type":"Feature","properties":{"c":"080313","en":"Sanlung","km":"សន្លុង"},"geometry":{"type":"Polygon","coordinates":[[[105.0907,11.7133],[105.0701,11.7133],[105.0695,11.7175],[105.0541,11.7185],[105.0509,11.7213],[105.0419,11.7223],[105.0311,11.7215],[105.0225,11.7049],[105.0151,11.7047],[105.0089,11.7015],[105.0299,11.6985],[105.0371,11.7019],[105.0509,11.6999],[105.0485,11.7061],[105.0585,11.7057],[105.0591,11.6949],[105.0531,11.6947],[105.0613,11.6863],[105.0639,11.6729],[105.0757,11.6681],[105.0791,11.6627],[105.0875,11.6663],[105.0921,11.6925],[105.0981,11.6927],[105.0907,11.7133]]]}},{"type":"Feature","properties":{"c":"080314","en":"Sithor","km":"ស៊ីធរ"},"geometry":{"type":"Polygon","coordinates":[[[105.1287,11.6931],[105.1211,11.6959],[105.1143,11.6951],[105.1131,11.6915],[105.1095,11.6911],[105.0921,11.6925],[105.0875,11.6663],[105.0791,11.6627],[105.0775,11.6589],[105.0755,11.6437],[105.0811,11.6341],[105.0817,11.6249],[105.0883,11.6239],[105.0957,11.6365],[105.0937,11.6395],[105.1025,11.6397],[105.1041,11.6427],[105.1105,11.6449],[105.1155,11.6531],[105.1191,11.6549],[105.1207,11.6581],[105.1163,11.6597],[105.1185,11.6647],[105.1165,11.6691],[105.1281,11.6761],[105.1287,11.6931]]]}},{"type":"Feature","properties":{"c":"080315","en":"Svay Chrum","km":"ស្វាយជ្រំ"},"geometry":{"type":"Polygon","coordinates":[[[105.0245,11.5981],[105.0239,11.6095],[104.9971,11.5973],[104.9831,11.6001],[104.9501,11.5997],[104.9409,11.5971],[104.9451,11.5759],[104.9739,11.5829],[104.9919,11.5761],[105.0169,11.5867],[105.0245,11.5981]]]}},{"type":"Feature","properties":{"c":"080316","en":"Svay Romiet","km":"ស្វាយរមៀត"},"geometry":{"type":"Polygon","coordinates":[[[105.0671,11.8087],[105.0655,11.8159],[105.0597,11.8215],[105.0495,11.8191],[105.0259,11.8073],[105.0125,11.8055],[105.0051,11.7969],[105.0165,11.7845],[105.0287,11.7893],[105.0505,11.7891],[105.0529,11.8011],[105.0595,11.8023],[105.0671,11.8087]]]}},{"type":"Feature","properties":{"c":"080317","en":"Ta Aek","km":"តាឯក"},"geometry":{"type":"Polygon","coordinates":[[[105.0383,11.8503],[105.0225,11.8523],[104.9995,11.8393],[105.0051,11.8341],[105.0225,11.8269],[105.0293,11.8143],[105.0597,11.8215],[105.0485,11.8325],[105.0383,11.8503]]]}},{"type":"Feature","properties":{"c":"080318","en":"Vihear Suork","km":"វិហារសួគ៌"},"geometry":{"type":"Polygon","coordinates":[[[105.0791,11.6627],[105.0757,11.6681],[105.0639,11.6729],[105.0613,11.6863],[105.0531,11.6947],[105.0591,11.6949],[105.0585,11.7057],[105.0485,11.7061],[105.0509,11.6999],[105.0371,11.7019],[105.0299,11.6985],[105.0089,11.7015],[105.0069,11.6879],[105.0079,11.6811],[105.0143,11.6741],[105.0133,11.6581],[105.0167,11.6511],[105.0259,11.6437],[105.0339,11.6445],[105.0417,11.6373],[105.0441,11.6259],[105.0489,11.6199],[105.0527,11.6203],[105.0575,11.6255],[105.0565,11.6407],[105.0599,11.6429],[105.0691,11.6405],[105.0755,11.6437],[105.0791,11.6627]]]}}]}