{"type":"FeatureCollection","features":[{"type":"Feature","properties":{"c":"080401","en":"Chheu Kmau","km":"ឈើខ្មៅ"},"geometry":{"type":"Polygon","coordinates":[[[105.1159,11.0487],[105.0897,11.0501],[105.0937,11.0599],[105.0691,11.0651],[105.0681,11.0509],[105.0613,11.0235],[105.0647,10.9941],[105.0603,10.9731],[105.0687,10.9645],[105.0801,10.9585],[105.0831,10.9585],[105.0895,10.9649],[105.0923,10.9737],[105.0877,10.9803],[105.0877,10.9849],[105.1151,10.9851],[105.1159,11.0487]]]}},{"type":"Feature","properties":{"c":"080402","en":"Chrouy Ta Kaev","km":"ជ្រោយតាកែវ"},"geometry":{"type":"Polygon","coordinates":[[[105.1093,11.1071],[105.0953,11.1075],[105.0745,11.1153],[105.0597,11.1147],[105.0609,11.0999],[105.0685,11.0803],[105.0691,11.0651],[105.0937,11.0599],[105.0897,11.0501],[105.1159,11.0487],[105.1203,11.0545],[105.1199,11.0875],[105.1145,11.0943],[105.1093,11.1071]]]}},{"type":"Feature","properties":{"c":"080403","en":"Kampong Kong","km":"កំពង់កុង"},"geometry":{"type":"Polygon","coordinates":[[[105.1285,11.1737],[105.1065,11.1745],[105.0971,11.1827],[105.0935,11.1833],[105.0809,11.1831],[105.0737,11.1805],[105.0837,11.1657],[105.0835,11.1551],[105.0767,11.1435],[105.0675,11.1369],[105.0613,11.1279],[105.0597,11.1147],[105.0745,11.1153],[105.0953,11.1075],[105.1093,11.1071],[105.1087,11.1291],[105.1377,11.1557],[105.1367,11.1617],[105.1285,11.1737]]]}},{"type":"Feature","properties":{"c":"080404","en":"Kaoh Thum Ka","km":"កោះធំ ‹ក›"},"geometry":{"type":"Polygon","coordinates":[[[105.0737,11.1805],[105.0631,11.1887],[105.0641,11.1589],[105.0675,11.1369],[105.0767,11.1435],[105.0841,11.1583],[105.0837,11.1657],[105.0737,11.1805]]]}},{"type":"Feature","properties":{"c":"080405","en":"Kaoh Thum Kha","km":"កោះធំ ‹ខ›"},"geometry":{"type":"Polygon","coordinates":[[[105.0631,11.1887],[105.0473,11.2057],[105.0365,11.1951],[105.0333,11.1887],[105.0201,11.1823],[105.0189,11.1691],[105.0135,11.1621],[105.0415,11.1631],[105.0529,11.1667],[105.0579,11.1721],[105.0649,11.1725],[105.0631,11.1887]]]}},{"type":"Feature","properties":{"c":"080407","en":"Leuk Daek","km":"លើកដែក"},"geometry":{"type":"Polygon","coordinates":[[[105.1567,11.2105],[105.1633,11.2273],[105.1607,11.2425],[105.1475,11.2305],[105.1291,11.2023],[105.1285,11.1737],[105.1367,11.1617],[105.1377,11.1557],[105.1143,11.1359],[105.1079,11.1259],[105.1079,11.1143],[105.1121,11.0989],[105.1279,11.0757],[105.1419,11.0759],[105.1381,11.0863],[105.1493,11.1027],[105.1493,11.1097],[105.1613,11.1233],[105.1625,11.1533],[105.1515,11.1655],[105.1521,11.2039],[105.1567,11.2105]]]}},{"type":"Feature","properties":{"c":"080408","en":"Pouthi Ban","km":"ពោធិ៍បាន"},"geometry":{"type":"Polygon","coordinates":[[[105.1357,11.2419],[105.0565,11.2441],[105.0365,11.2409],[105.0393,11.2333],[105.0373,11.2175],[105.0601,11.1917],[105.0737,11.1805],[105.0809,11.1831],[105.0935,11.1833],[105.0971,11.1827],[105.1065,11.1745],[105.1285,11.1737],[105.1291,11.2023],[105.1475,11.2305],[105.1607,11.2425],[105.1357,11.2419]]]}},{"type":"Feature","properties":{"c":"080410","en":"Preaek Sdei","km":"ព្រែកស្ដី"},"geometry":{"type":"Polygon","coordinates":[[[105.0601,11.1051],[105.0191,11.1049],[105.0167,11.0983],[105.0125,11.0957],[105.0023,11.0603],[104.9963,11.0559],[104.9987,11.0493],[104.9931,11.0355],[104.9979,11.0293],[105.0223,11.0295],[105.0473,11.0409],[105.0571,11.0427],[105.0655,11.0411],[105.0693,11.0729],[105.0601,11.1051]]]}},{"type":"Feature","properties":{"c":"080411","en":"Preaek Thmei","km":"ព្រែកថ្មី"},"geometry":{"type":"Polygon","coordinates":[[[105.0649,11.1725],[105.0579,11.1721],[105.0529,11.1667],[105.0415,11.1631],[105.0263,11.1619],[105.0257,11.1589],[105.0201,11.1559],[105.0167,11.1353],[105.0191,11.1267],[105.0161,11.1243],[105.0185,11.1161],[105.0171,11.1077],[105.0191,11.1049],[105.0601,11.1051],[105.0597,11.1237],[105.0675,11.1369],[105.0641,11.1589],[105.0649,11.1725]]]}},{"type":"Feature","properties":{"c":"080409","en":"Preaek Chrey","km":"ព្រែកជ្រៃ"},"geometry":{"type":"Polygon","coordinates":[[[105.1419,11.0759],[105.1279,11.0757],[105.1199,11.0875],[105.1207,11.0583],[105.1159,11.0487],[105.1151,10.9851],[105.0877,10.9849],[105.0877,10.9803],[105.0923,10.9737],[105.0895,10.9649],[105.0831,10.9585],[105.0945,10.9567],[105.1081,10.9615],[105.1161,10.9611],[105.1167,10.9443],[105.1023,10.9249],[105.1029,10.9215],[105.1063,10.9195],[105.1311,10.9223],[105.1307,10.9265],[105.1333,10.9301],[105.1445,10.9371],[105.1497,10.9441],[105.1523,10.9731],[105.1439,10.9913],[105.1449,11.0029],[105.1327,11.0085],[105.1285,11.0183],[105.1345,11.0237],[105.1305,11.0307],[105.1405,11.0311],[105.1437,11.0347],[105.1409,11.0591],[105.1419,11.0759]]]}},{"type":"Feature","properties":{"c":"080412","en":"Sampeou Poun","km":"សំពៅពូន"},"geometry":{"type":"Polygon","coordinates":[[[105.0655,11.0411],[105.0571,11.0427],[105.0473,11.0409],[105.0223,11.0295],[104.9979,11.0293],[104.9909,11.0077],[104.9937,10.9983],[105.0287,10.9917],[105.0311,10.9887],[105.0315,10.9605],[105.0375,10.9479],[105.0425,10.9281],[105.0335,10.9107],[105.0329,10.9057],[105.0363,10.8977],[105.0449,10.9025],[105.0425,10.9095],[105.0439,10.9135],[105.0519,10.9163],[105.0533,10.9299],[105.0671,10.9389],[105.0789,10.9367],[105.0831,10.9585],[105.0687,10.9645],[105.0603,10.9731],[105.0647,10.9941],[105.0613,11.0235],[105.0655,11.0411]]]}}]}