{"type":"FeatureCollection","features":[{"type":"Feature","properties":{"c":"080502","en":"K'am Samnar","km":"ក្អមសំណរ"},"geometry":{"type":"Polygon","coordinates":[[[105.1895,10.9135],[105.1839,10.9519],[105.1845,10.9681],[105.1875,10.9791],[105.1499,10.9789],[105.1523,10.9699],[105.1497,10.9441],[105.1445,10.9371],[105.1333,10.9301],[105.1307,10.9265],[105.1311,10.9223],[105.1563,10.9231],[105.1791,10.9131],[105.1895,10.9135]]]}},{"type":"Feature","properties":{"c":"080501","en":"Kampong Phnum","km":"កំពង់ភ្នំ"},"geometry":{"type":"Polygon","coordinates":[[[105.2757,11.3059],[105.2571,11.3199],[105.2407,11.3177],[105.2329,11.3245],[105.2241,11.3267],[105.1957,11.3285],[105.1783,11.3225],[105.1691,11.3231],[105.1611,11.2993],[105.1617,11.2653],[105.2707,11.2649],[105.2803,11.2613],[105.2757,11.3059]]]}},{"type":"Feature","properties":{"c":"080503","en":"Khpob Ateav","km":"ខ្ពបអាទាវ"},"geometry":{"type":"Polygon","coordinates":[[[105.1985,11.0933],[105.1427,11.0941],[105.1381,11.0863],[105.1419,11.0759],[105.1409,11.0591],[105.1437,11.0347],[105.1795,11.0347],[105.1969,11.0323],[105.1943,11.0865],[105.1985,11.0933]]]}},{"type":"Feature","properties":{"c":"080504","en":"Peam Reang","km":"ពាមរាំង"},"geometry":{"type":"Polygon","coordinates":[[[105.2091,11.1029],[105.2237,11.1161],[105.2339,11.1297],[105.2445,11.1581],[105.2123,11.1537],[105.1625,11.1533],[105.1613,11.1233],[105.1493,11.1097],[105.1493,11.1027],[105.1427,11.0941],[105.1985,11.0933],[105.2091,11.1029]]]}},{"type":"Feature","properties":{"c":"080505","en":"Preaek Dach","km":"ព្រែកដាច់"},"geometry":{"type":"Polygon","coordinates":[[[105.2555,11.1971],[105.2165,11.2111],[105.1567,11.2105],[105.1521,11.2039],[105.1515,11.1655],[105.1625,11.1533],[105.2123,11.1537],[105.2445,11.1581],[105.2461,11.1879],[105.2555,11.1971]]]}},{"type":"Feature","properties":{"c":"080506","en":"Preaek Tonloab","km":"ព្រែកទន្លាប់"},"geometry":{"type":"Polygon","coordinates":[[[105.2803,11.2613],[105.2707,11.2649],[105.1617,11.2653],[105.1607,11.2425],[105.1633,11.2273],[105.1567,11.2105],[105.2165,11.2111],[105.2555,11.1971],[105.2627,11.2039],[105.2725,11.2273],[105.2799,11.2481],[105.2803,11.2613]]]}},{"type":"Feature","properties":{"c":"080507","en":"Sandar","km":"សណ្ដារ"},"geometry":{"type":"Polygon","coordinates":[[[105.1969,11.0323],[105.1795,11.0347],[105.1437,11.0347],[105.1405,11.0311],[105.1305,11.0307],[105.1345,11.0237],[105.1285,11.0183],[105.1287,11.0143],[105.1327,11.0085],[105.1449,11.0029],[105.1439,10.9913],[105.1499,10.9789],[105.1875,10.9791],[105.1969,11.0323]]]}}]}