{"type":"FeatureCollection","features":[{"type":"Feature","properties":{"c":"080601","en":"Akreiy Ksatr","km":"អរិយក្សត្រ"},"geometry":{"type":"Polygon","coordinates":[[[104.9839,11.5797],[104.9739,11.5829],[104.9451,11.5759],[104.9459,11.5631],[104.9713,11.5475],[105.0031,11.5437],[105.0025,11.5477],[104.9853,11.5643],[104.9839,11.5797]]]}},{"type":"Feature","properties":{"c":"080602","en":"Barong","km":"បារុង"},"geometry":{"type":"Polygon","coordinates":[[[105.0755,11.6437],[105.0691,11.6405],[105.0599,11.6429],[105.0565,11.6407],[105.0555,11.6371],[105.0585,11.6295],[105.0527,11.6203],[105.0489,11.6199],[105.0453,11.6231],[105.0417,11.6373],[105.0339,11.6445],[105.0231,11.6383],[105.0137,11.6273],[105.0233,11.6135],[105.0245,11.5981],[105.0371,11.5891],[105.0419,11.5811],[105.0485,11.5777],[105.0573,11.5669],[105.0985,11.5959],[105.0933,11.6067],[105.0829,11.6195],[105.0811,11.6341],[105.0755,11.6437]]]}},{"type":"Feature","properties":{"c":"080603","en":"Boeng Krum","km":"បឹងគ្រំ"},"geometry":{"type":"Polygon","coordinates":[[[105.1927,11.4775],[105.1741,11.4927],[105.1629,11.4959],[105.1547,11.4779],[105.1739,11.4589],[105.1927,11.4775]]]}},{"type":"Feature","properties":{"c":"080604","en":"Kaoh Kaev","km":"កោះកែវ"},"geometry":{"type":"Polygon","coordinates":[[[105.2419,11.4437],[105.2261,11.4525],[105.2139,11.4563],[105.2013,11.4413],[105.2357,11.4155],[105.2419,11.4437]]]}},{"type":"Feature","properties":{"c":"080605","en":"Kaoh Reah","km":"កោះរះ"},"geometry":{"type":"Polygon","coordinates":[[[105.0879,11.5323],[105.0731,11.5417],[105.0651,11.5589],[105.0573,11.5669],[105.0601,11.5481],[105.0595,11.5331],[105.0911,11.5151],[105.0925,11.5273],[105.0879,11.5323]]]}},{"type":"Feature","properties":{"c":"080606","en":"Lvea Sar","km":"ល្វាសរ"},"geometry":{"type":"Polygon","coordinates":[[[105.2085,11.4719],[105.1997,11.4773],[105.1973,11.4755],[105.1927,11.4775],[105.1739,11.4589],[105.2013,11.4413],[105.2139,11.4563],[105.2085,11.4719]]]}},{"type":"Feature","properties":{"c":"080607","en":"Peam Oknha Ong","km":"ពាមឧកញ៉ាអុង"},"geometry":{"type":"Polygon","coordinates":[[[105.0573,11.5669],[105.0485,11.5777],[105.0419,11.5811],[105.0225,11.5585],[105.0187,11.5525],[105.0177,11.5453],[105.0595,11.5331],[105.0601,11.5481],[105.0573,11.5669]]]}},{"type":"Feature","properties":{"c":"080608","en":"Phum Thum","km":"ភូមិធំ"},"geometry":{"type":"Polygon","coordinates":[[[105.1983,11.5211],[105.1807,11.5183],[105.1667,11.5285],[105.1599,11.5313],[105.1525,11.5311],[105.1497,11.5295],[105.1515,11.5131],[105.1481,11.5063],[105.1639,11.5053],[105.1629,11.4959],[105.1711,11.4945],[105.1927,11.4775],[105.1973,11.4755],[105.1997,11.4773],[105.2085,11.4719],[105.2121,11.4791],[105.2079,11.4833],[105.2137,11.4877],[105.2115,11.5031],[105.2053,11.5089],[105.1983,11.5211]]]}},{"type":"Feature","properties":{"c":"080609","en":"Preaek Kmeng","km":"ព្រែកក្មេង"},"geometry":{"type":"Polygon","coordinates":[[[105.1083,11.5611],[105.0997,11.5759],[105.1013,11.5881],[105.0985,11.5959],[105.0573,11.5669],[105.0651,11.5589],[105.0731,11.5417],[105.0879,11.5323],[105.1071,11.5537],[105.1083,11.5611]]]}},{"type":"Feature","properties":{"c":"080610","en":"Preaek Rey","km":"ព្រែករៃ"},"geometry":{"type":"Polygon","coordinates":[[[105.1203,11.5587],[105.1171,11.5611],[105.1117,11.5591],[105.1083,11.5611],[105.1071,11.5537],[105.1003,11.5441],[105.1287,11.5157],[105.1481,11.5063],[105.1515,11.5131],[105.1497,11.5295],[105.1431,11.5279],[105.1281,11.5367],[105.1299,11.5467],[105.1339,11.5495],[105.1289,11.5533],[105.1245,11.5525],[105.1203,11.5587]]]}},{"type":"Feature","properties":{"c":"080611","en":"Preaek Ruessei","km":"ព្រែកឫស្សី"},"geometry":{"type":"Polygon","coordinates":[[[105.2273,11.4807],[105.2277,11.4853],[105.2211,11.4897],[105.2169,11.4895],[105.2079,11.4833],[105.2121,11.4791],[105.2085,11.4719],[105.2139,11.4563],[105.2261,11.4525],[105.2419,11.4437],[105.2501,11.4463],[105.2543,11.4443],[105.2569,11.4455],[105.2717,11.4239],[105.2747,11.4221],[105.2781,11.4253],[105.2815,11.4239],[105.2859,11.4171],[105.2927,11.4197],[105.2965,11.4253],[105.2927,11.4285],[105.2903,11.4359],[105.2827,11.4431],[105.2867,11.4491],[105.2845,11.4529],[105.2777,11.4579],[105.2699,11.4501],[105.2623,11.4581],[105.2561,11.4527],[105.2519,11.4537],[105.2455,11.4573],[105.2439,11.4615],[105.2367,11.4635],[105.2269,11.4747],[105.2273,11.4807]]]}},{"type":"Feature","properties":{"c":"080612","en":"Sambuor","km":"សំបួរ"},"geometry":{"type":"Polygon","coordinates":[[[105.2927,11.4197],[105.2859,11.4171],[105.2815,11.4239],[105.2781,11.4253],[105.2747,11.4221],[105.2717,11.4239],[105.2595,11.4433],[105.2501,11.4463],[105.2419,11.4437],[105.2357,11.4155],[105.2503,11.4037],[105.2557,11.3915],[105.2715,11.3995],[105.2927,11.4197]]]}},{"type":"Feature","properties":{"c":"080613","en":"Sarikakaev","km":"សារិកាកែវ"},"geometry":{"type":"Polygon","coordinates":[[[105.0419,11.5811],[105.0371,11.5891],[105.0245,11.5981],[105.0195,11.5889],[105.0073,11.5813],[104.9989,11.5801],[104.9919,11.5761],[104.9839,11.5797],[104.9839,11.5673],[104.9933,11.5547],[105.0025,11.5477],[105.0031,11.5437],[105.0149,11.5439],[105.0177,11.5453],[105.0187,11.5525],[105.0251,11.5621],[105.0419,11.5811]]]}},{"type":"Feature","properties":{"c":"080614","en":"Thma Kor","km":"ថ្មគរ"},"geometry":{"type":"Polygon","coordinates":[[[105.1159,11.5271],[105.1003,11.5441],[105.0879,11.5323],[105.0925,11.5273],[105.0911,11.5151],[105.1097,11.5015],[105.1221,11.4959],[105.1207,11.5225],[105.1159,11.5271]]]}},{"type":"Feature","properties":{"c":"080615","en":"Tuek Khleang","km":"ទឹកឃ្លាំង"},"geometry":{"type":"Polygon","coordinates":[[[105.1481,11.5063],[105.1377,11.5099],[105.1207,11.5225],[105.1221,11.4959],[105.1547,11.4779],[105.1629,11.4959],[105.1639,11.5053],[105.1481,11.5063]]]}}]}