{"type":"FeatureCollection","features":[{"type":"Feature","properties":{"c":"080703","en":"Preaek Anhchanh","km":"ព្រែកអញ្ចាញ"},"geometry":{"type":"Polygon","coordinates":[[[105.0121,11.7633],[104.9695,11.7693],[104.9413,11.7835],[104.9199,11.7643],[104.9175,11.7397],[104.9189,11.7365],[104.9443,11.7349],[104.9603,11.7117],[104.9677,11.7109],[104.9779,11.7257],[105.0121,11.7633]]]}},{"type":"Feature","properties":{"c":"080704","en":"Preaek Dambang","km":"ព្រែកដំបង"},"geometry":{"type":"Polygon","coordinates":[[[104.9915,11.8411],[104.9675,11.8417],[104.9607,11.8471],[104.9579,11.8395],[104.9573,11.8259],[104.9479,11.7985],[104.9589,11.7961],[104.9805,11.7963],[104.9869,11.7973],[104.9905,11.8005],[104.9807,11.8063],[104.9789,11.8123],[104.9861,11.8271],[104.9995,11.8393],[104.9915,11.8411]]]}},{"type":"Feature","properties":{"c":"080707","en":"Roka Kong Ti Muoy","km":"រកាកោង ទី ១"},"geometry":{"type":"Polygon","coordinates":[[[104.9989,11.8671],[104.9937,11.8775],[104.9871,11.8819],[104.9719,11.8619],[104.9885,11.8577],[104.9915,11.8411],[104.9995,11.8393],[105.0225,11.8523],[105.0055,11.8545],[104.9989,11.8671]]]}},{"type":"Feature","properties":{"c":"080708","en":"Roka Kong Ti Pir","km":"រកាកោង ទី ២"},"geometry":{"type":"Polygon","coordinates":[[[104.9915,11.8411],[104.9885,11.8577],[104.9719,11.8619],[104.9641,11.8569],[104.9607,11.8471],[104.9635,11.8433],[104.9915,11.8411]]]}},{"type":"Feature","properties":{"c":"080709","en":"Ruessei Chrouy","km":"ឫស្សីជ្រោយ"},"geometry":{"type":"Polygon","coordinates":[[[105.0051,11.7969],[104.9947,11.8011],[104.9805,11.7963],[104.9589,11.7961],[104.9479,11.7985],[104.9413,11.7835],[104.9695,11.7693],[105.0121,11.7633],[105.0155,11.7675],[105.0165,11.7845],[105.0051,11.7969]]]}},{"type":"Feature","properties":{"c":"080710","en":"Sambuor Meas","km":"សំបួរមាស"},"geometry":{"type":"Polygon","coordinates":[[[104.9181,11.8093],[104.9035,11.8091],[104.8995,11.8159],[104.8907,11.8223],[104.8841,11.8237],[104.8779,11.8189],[104.8825,11.8131],[104.8881,11.7977],[104.8759,11.7697],[104.8753,11.7649],[104.8813,11.7477],[104.8683,11.7423],[104.8605,11.7187],[104.8631,11.6823],[104.8565,11.6771],[104.8613,11.6685],[104.8627,11.6727],[104.8977,11.6723],[104.9005,11.6915],[104.9093,11.7003],[104.9125,11.7123],[104.9161,11.7169],[104.9199,11.7643],[104.9413,11.7835],[104.9331,11.7893],[104.9181,11.8093]]]}},{"type":"Feature","properties":{"c":"080711","en":"Svay Ampear","km":"ស្វាយអំពារ"},"geometry":{"type":"Polygon","coordinates":[[[104.9641,11.8569],[104.9597,11.8619],[104.9557,11.8747],[104.9539,11.8649],[104.9449,11.8523],[104.9455,11.8481],[104.9395,11.8343],[104.9323,11.8311],[104.9279,11.8235],[104.9217,11.8187],[104.9181,11.8093],[104.9331,11.7893],[104.9413,11.7835],[104.9573,11.8259],[104.9579,11.8395],[104.9641,11.8569]]]}}]}