{"type":"FeatureCollection","features":[{"type":"Feature","properties":{"c":"080801","en":"Baek Chan","km":"បែកចាន"},"geometry":{"type":"Polygon","coordinates":[[[104.7673,11.5201],[104.7559,11.5303],[104.7481,11.5279],[104.7435,11.5347],[104.7353,11.5275],[104.7369,11.5089],[104.7269,11.5069],[104.7277,11.5023],[104.7333,11.5021],[104.7329,11.4979],[104.7493,11.4971],[104.7503,11.4893],[104.7589,11.4903],[104.7629,11.4927],[104.7685,11.5051],[104.7673,11.5201]]]}},{"type":"Feature","properties":{"c":"080803","en":"Chhak Chheu Neang","km":"ឆក់ឈើនាង"},"geometry":{"type":"Polygon","coordinates":[[[104.7279,11.5447],[104.7181,11.5473],[104.7187,11.5393],[104.7159,11.5309],[104.7271,11.5223],[104.7269,11.5069],[104.7301,11.5065],[104.7369,11.5089],[104.7353,11.5275],[104.7435,11.5347],[104.7439,11.5397],[104.7385,11.5455],[104.7279,11.5447]]]}},{"type":"Feature","properties":{"c":"080804","en":"Damnak Ampil","km":"ដំណាក់អំពិល"},"geometry":{"type":"Polygon","coordinates":[[[104.6877,11.5203],[104.6841,11.5197],[104.6823,11.5345],[104.6759,11.5447],[104.6619,11.4949],[104.6789,11.4991],[104.6859,11.5039],[104.6877,11.5203]]]}},{"type":"Feature","properties":{"c":"080807","en":"Krang Mkak","km":"ក្រាំងម្កាក់"},"geometry":{"type":"Polygon","coordinates":[[[104.7503,11.4893],[104.7493,11.4971],[104.7329,11.4979],[104.7333,11.5021],[104.7277,11.5023],[104.7285,11.4979],[104.7211,11.4959],[104.7219,11.4907],[104.7259,11.4889],[104.7269,11.4843],[104.7151,11.4549],[104.7243,11.4583],[104.7283,11.4547],[104.7375,11.4553],[104.7381,11.4503],[104.7415,11.4491],[104.7447,11.4553],[104.7463,11.4825],[104.7503,11.4893]]]}},{"type":"Feature","properties":{"c":"080808","en":"Lumhach","km":"លំហាច"},"geometry":{"type":"Polygon","coordinates":[[[104.6973,11.4507],[104.6977,11.4809],[104.6897,11.4915],[104.6821,11.4897],[104.6793,11.4929],[104.6789,11.4991],[104.6619,11.4949],[104.6621,11.4759],[104.6565,11.4495],[104.6605,11.4483],[104.6665,11.4565],[104.6777,11.4591],[104.6831,11.4547],[104.6973,11.4507]]]}},{"type":"Feature","properties":{"c":"080809","en":"Mkak","km":"ម្កាក់"},"geometry":{"type":"Polygon","coordinates":[[[104.7475,11.6605],[104.7427,11.6709],[104.7305,11.6823],[104.7285,11.6891],[104.7111,11.6821],[104.7069,11.6755],[104.6991,11.6703],[104.6957,11.6709],[104.6865,11.6413],[104.6863,11.6327],[104.6983,11.6291],[104.7167,11.6281],[104.7247,11.6347],[104.7327,11.6359],[104.7489,11.6563],[104.7475,11.6605]]]}},{"type":"Feature","properties":{"c":"080811","en":"Peuk","km":"ពើក"},"geometry":{"type":"Polygon","coordinates":[[[104.7269,11.5069],[104.7271,11.5223],[104.7159,11.5309],[104.6987,11.5239],[104.6903,11.5235],[104.6877,11.5203],[104.6853,11.5083],[104.6859,11.5039],[104.6923,11.5009],[104.6947,11.4953],[104.7095,11.4947],[104.7285,11.4979],[104.7269,11.5069]]]}},{"type":"Feature","properties":{"c":"080813","en":"Prey Puoch","km":"ព្រៃពួច"},"geometry":{"type":"Polygon","coordinates":[[[104.7211,11.4959],[104.6947,11.4953],[104.6923,11.5009],[104.6859,11.5039],[104.6789,11.4991],[104.6793,11.4929],[104.6821,11.4897],[104.6897,11.4915],[104.6977,11.4809],[104.6973,11.4507],[104.7009,11.4457],[104.7139,11.4463],[104.7173,11.4643],[104.7219,11.4683],[104.7269,11.4843],[104.7259,11.4889],[104.7219,11.4907],[104.7211,11.4959]]]}},{"type":"Feature","properties":{"c":"080814","en":"Samraong Leu","km":"សំរោងលើ"},"geometry":{"type":"Polygon","coordinates":[[[104.7127,11.5765],[104.7091,11.5773],[104.7087,11.5861],[104.7051,11.5885],[104.6955,11.5871],[104.6873,11.5957],[104.6787,11.5967],[104.6787,11.5607],[104.6759,11.5447],[104.6823,11.5345],[104.6841,11.5197],[104.6903,11.5235],[104.6987,11.5239],[104.7159,11.5309],[104.7187,11.5393],[104.7181,11.5473],[104.7279,11.5447],[104.7251,11.5571],[104.7201,11.5617],[104.7227,11.5645],[104.7209,11.5717],[104.7135,11.5731],[104.7127,11.5765]]]}},{"type":"Feature","properties":{"c":"080816","en":"Tuol Prech","km":"ទួលព្រេជ"},"geometry":{"type":"Polygon","coordinates":[[[104.7355,11.5821],[104.7321,11.5927],[104.7357,11.5985],[104.7345,11.6059],[104.7419,11.6291],[104.7439,11.6407],[104.7425,11.6463],[104.7327,11.6359],[104.7247,11.6347],[104.7167,11.6281],[104.6983,11.6291],[104.6863,11.6327],[104.6821,11.6227],[104.6787,11.5967],[104.6873,11.5957],[104.6955,11.5871],[104.7051,11.5885],[104.7087,11.5861],[104.7091,11.5773],[104.7293,11.5757],[104.7355,11.5821]]]}}]}