{"type":"FeatureCollection","features":[{"type":"Feature","properties":{"c":"080901","en":"Chhveang","km":"ឈ្វាំង"},"geometry":{"type":"Polygon","coordinates":[[[104.8147,11.6927],[104.8059,11.6945],[104.7995,11.7009],[104.7745,11.6979],[104.7569,11.7021],[104.7423,11.6991],[104.7285,11.6891],[104.7305,11.6823],[104.7427,11.6709],[104.7475,11.6605],[104.7523,11.6659],[104.7669,11.6667],[104.7881,11.6721],[104.8133,11.6739],[104.8107,11.6769],[104.8113,11.6815],[104.8167,11.6893],[104.8147,11.6927]]]}},{"type":"Feature","properties":{"c":"080902","en":"Chrey Loas","km":"ជ្រៃលាស់"},"geometry":{"type":"Polygon","coordinates":[[[104.8261,11.7175],[104.8253,11.7249],[104.8215,11.7235],[104.8187,11.7309],[104.8095,11.7393],[104.8039,11.7359],[104.7917,11.7359],[104.7855,11.7383],[104.7745,11.7357],[104.7559,11.7371],[104.7521,11.7363],[104.7485,11.7301],[104.7489,11.7265],[104.7323,11.7167],[104.7299,11.6979],[104.7313,11.6925],[104.7347,11.6925],[104.7423,11.6991],[104.7487,11.7013],[104.7569,11.7021],[104.7825,11.6977],[104.7957,11.7015],[104.7995,11.7009],[104.8059,11.6945],[104.8147,11.6927],[104.8153,11.7039],[104.8193,11.7085],[104.8233,11.7089],[104.8229,11.7133],[104.8261,11.7175]]]}},{"type":"Feature","properties":{"c":"080903","en":"Kampong Luong","km":"កំពង់ហ្លួង"},"geometry":{"type":"Polygon","coordinates":[[[104.7809,11.8813],[104.7725,11.8867],[104.7647,11.8817],[104.7713,11.8675],[104.7693,11.8611],[104.7717,11.8579],[104.7709,11.8539],[104.7869,11.8303],[104.7863,11.8171],[104.7937,11.8157],[104.7905,11.8051],[104.8129,11.8065],[104.8033,11.8253],[104.7999,11.8539],[104.7853,11.8721],[104.7809,11.8813]]]}},{"type":"Feature","properties":{"c":"080904","en":"Kampong Os","km":"កំពង់អុស"},"geometry":{"type":"Polygon","coordinates":[[[104.8779,11.8189],[104.8693,11.8233],[104.8663,11.8275],[104.8537,11.8331],[104.8519,11.8269],[104.8463,11.8247],[104.8343,11.8243],[104.8309,11.8267],[104.8277,11.8245],[104.8255,11.7961],[104.8219,11.7937],[104.8291,11.7727],[104.8315,11.7483],[104.8455,11.6917],[104.8565,11.6771],[104.8631,11.6823],[104.8605,11.7187],[104.8669,11.7391],[104.8701,11.7445],[104.8813,11.7477],[104.8753,11.7649],[104.8759,11.7697],[104.8881,11.7977],[104.8825,11.8131],[104.8779,11.8189]]]}},{"type":"Feature","properties":{"c":"080905","en":"Kaoh Chen","km":"កោះចិន"},"geometry":{"type":"Polygon","coordinates":[[[104.8211,11.8881],[104.8107,11.8941],[104.7873,11.8889],[104.7809,11.8813],[104.7853,11.8721],[104.7999,11.8539],[104.8033,11.8253],[104.8219,11.7937],[104.8255,11.7961],[104.8277,11.8245],[104.8325,11.8297],[104.8335,11.8373],[104.8315,11.8431],[104.8369,11.8685],[104.8211,11.8881]]]}},{"type":"Feature","properties":{"c":"080906","en":"Phnum Bat","km":"ភ្នំបាត"},"geometry":{"type":"Polygon","coordinates":[[[104.8123,11.7555],[104.8085,11.7563],[104.8077,11.7599],[104.8131,11.7669],[104.8111,11.7725],[104.8147,11.7809],[104.8139,11.7843],[104.8075,11.7873],[104.8023,11.7939],[104.7999,11.7917],[104.7801,11.7917],[104.7613,11.7847],[104.7689,11.7767],[104.7683,11.7693],[104.7611,11.7557],[104.7497,11.7579],[104.7483,11.7415],[104.7521,11.7363],[104.7681,11.7377],[104.7745,11.7357],[104.7855,11.7383],[104.7917,11.7359],[104.8039,11.7359],[104.8095,11.7393],[104.8089,11.7457],[104.8123,11.7555]]]}},{"type":"Feature","properties":{"c":"080911","en":"Phsar Daek","km":"ផ្សារដែក"},"geometry":{"type":"Polygon","coordinates":[[[104.7863,11.8171],[104.7669,11.8111],[104.7643,11.8237],[104.7517,11.8213],[104.7511,11.8005],[104.7455,11.7859],[104.7613,11.7847],[104.7801,11.7917],[104.7999,11.7917],[104.8023,11.7939],[104.7999,11.7983],[104.7925,11.8009],[104.7905,11.8051],[104.7937,11.8157],[104.7863,11.8171]]]}},{"type":"Feature","properties":{"c":"080907","en":"Ponhea Lueu","km":"ពញាឮ"},"geometry":{"type":"Polygon","coordinates":[[[104.8219,11.7937],[104.8129,11.8065],[104.7905,11.8051],[104.7925,11.8009],[104.7999,11.7983],[104.8075,11.7873],[104.8139,11.7843],[104.8147,11.7809],[104.8111,11.7725],[104.8131,11.7669],[104.8077,11.7599],[104.8085,11.7563],[104.8123,11.7555],[104.8185,11.7609],[104.8295,11.7617],[104.8291,11.7727],[104.8219,11.7937]]]}},{"type":"Feature","properties":{"c":"080910","en":"Preaek Ta Teaen","km":"ព្រែកតាទែន"},"geometry":{"type":"Polygon","coordinates":[[[104.8399,11.7145],[104.8295,11.7617],[104.8185,11.7609],[104.8123,11.7555],[104.8089,11.7457],[104.8095,11.7393],[104.8187,11.7309],[104.8215,11.7235],[104.8253,11.7249],[104.8261,11.7175],[104.8399,11.7145]]]}},{"type":"Feature","properties":{"c":"080913","en":"Tumnob Thum","km":"ទំនប់ធំ"},"geometry":{"type":"Polygon","coordinates":[[[104.7549,11.7845],[104.7455,11.7859],[104.7275,11.7327],[104.6957,11.6709],[104.6991,11.6703],[104.7069,11.6755],[104.7111,11.6821],[104.7285,11.6891],[104.7313,11.6925],[104.7303,11.7089],[104.7323,11.7167],[104.7489,11.7265],[104.7485,11.7301],[104.7521,11.7363],[104.7483,11.7415],[104.7497,11.7579],[104.7611,11.7557],[104.7693,11.7729],[104.7669,11.7799],[104.7613,11.7847],[104.7549,11.7845]]]}},{"type":"Feature","properties":{"c":"080914","en":"Vihear Luong","km":"វិហារហ្លួង"},"geometry":{"type":"Polygon","coordinates":[[[104.7863,11.8171],[104.7879,11.8267],[104.7825,11.8391],[104.7557,11.8277],[104.7461,11.8303],[104.7393,11.8285],[104.7407,11.8247],[104.7517,11.8213],[104.7643,11.8237],[104.7669,11.8111],[104.7863,11.8171]]]}}]}