{"type":"FeatureCollection","features":[{"type":"Feature","properties":{"c":"081002","en":"Kaoh Anlong Chen","km":"កោះអន្លង់ចិន"},"geometry":{"type":"Polygon","coordinates":[[[105.0297,11.4657],[105.0027,11.4659],[104.9825,11.4615],[104.9899,11.4575],[105.0005,11.4561],[105.0249,11.4605],[105.0339,11.4589],[105.0421,11.4507],[105.0433,11.4391],[105.0491,11.4219],[105.0539,11.4299],[105.0533,11.4445],[105.0459,11.4571],[105.0297,11.4657]]]}},{"type":"Feature","properties":{"c":"081003","en":"Kaoh Khael","km":"កោះខែល"},"geometry":{"type":"Polygon","coordinates":[[[105.0391,11.2927],[105.0009,11.2935],[104.9957,11.2839],[104.9921,11.2835],[104.9903,11.2793],[104.9895,11.2671],[104.9867,11.2643],[104.9883,11.2563],[104.9951,11.2561],[104.9959,11.2525],[105.0305,11.2519],[105.0307,11.2727],[105.0397,11.2883],[105.0391,11.2927]]]}},{"type":"Feature","properties":{"c":"081004","en":"Kaoh Khsach Tonlea","km":"កោះខ្សាច់ទន្លា"},"geometry":{"type":"Polygon","coordinates":[[[105.0593,11.3189],[105.0485,11.3327],[105.0353,11.3413],[105.0341,11.3147],[105.0397,11.2883],[105.0569,11.3101],[105.0593,11.3189]]]}},{"type":"Feature","properties":{"c":"081001","en":"Khpob","km":"ខ្ពប"},"geometry":{"type":"Polygon","coordinates":[[[105.0979,11.2651],[105.0835,11.2747],[105.0809,11.2795],[105.0589,11.2713],[105.0513,11.2731],[105.0369,11.2831],[105.0335,11.2797],[105.0297,11.2679],[105.0311,11.2465],[105.0293,11.2331],[105.0373,11.2175],[105.0393,11.2333],[105.0365,11.2409],[105.0565,11.2441],[105.1357,11.2419],[105.1205,11.2531],[105.0979,11.2651]]]}},{"type":"Feature","properties":{"c":"081005","en":"Krang Yov","km":"ក្រាំងយ៉ូវ"},"geometry":{"type":"Polygon","coordinates":[[[104.9851,11.3147],[104.9591,11.3141],[104.9493,11.3087],[104.9399,11.3071],[104.9361,11.2871],[104.9261,11.2715],[104.9333,11.2519],[104.9389,11.2437],[104.9627,11.2323],[104.9659,11.2365],[104.9771,11.2387],[104.9871,11.2501],[104.9959,11.2525],[104.9951,11.2561],[104.9883,11.2563],[104.9867,11.2643],[104.9895,11.2671],[104.9921,11.2835],[104.9957,11.2839],[105.0009,11.2935],[104.9947,11.3035],[104.9881,11.3055],[104.9851,11.3147]]]}},{"type":"Feature","properties":{"c":"081006","en":"Prasat","km":"ប្រាសាទ"},"geometry":{"type":"Polygon","coordinates":[[[105.1529,11.3657],[105.1185,11.3657],[105.0935,11.3231],[105.1061,11.3107],[105.1061,11.2745],[105.0979,11.2651],[105.1205,11.2531],[105.1357,11.2419],[105.1607,11.2425],[105.1611,11.2993],[105.1691,11.3231],[105.1677,11.3569],[105.1625,11.3639],[105.1529,11.3657]]]}},{"type":"Feature","properties":{"c":"081007","en":"Preaek Ambel","km":"ព្រែកអំបិល"},"geometry":{"type":"Polygon","coordinates":[[[105.0305,11.2519],[104.9911,11.2515],[104.9871,11.2501],[104.9771,11.2387],[104.9659,11.2365],[104.9627,11.2323],[104.9805,11.2205],[104.9853,11.2031],[104.9803,11.1831],[104.9863,11.1741],[105.0193,11.1735],[105.0201,11.1823],[105.0333,11.1887],[105.0365,11.1951],[105.0459,11.2027],[105.0473,11.2057],[105.0389,11.2149],[105.0293,11.2331],[105.0305,11.2519]]]}},{"type":"Feature","properties":{"c":"081008","en":"Preaek Koy","km":"ព្រែកគយ"},"geometry":{"type":"Polygon","coordinates":[[[105.0039,11.3741],[104.9869,11.3757],[104.9857,11.3679],[104.9917,11.3607],[104.9919,11.3565],[104.9873,11.3435],[104.9871,11.3295],[104.9885,11.3255],[104.9929,11.3239],[104.9951,11.3277],[105.0057,11.3329],[105.0347,11.3373],[105.0353,11.3413],[105.0153,11.3537],[105.0039,11.3741]]]}},{"type":"Feature","properties":{"c":"081009","en":"Roka Khpos","km":"រកាខ្ពស់"},"geometry":{"type":"Polygon","coordinates":[[[105.0051,11.4339],[104.9961,11.4353],[104.9595,11.4327],[104.9579,11.4247],[104.9537,11.4243],[104.9495,11.4179],[104.9557,11.4093],[104.9595,11.3971],[104.9561,11.3849],[104.9905,11.3743],[105.0039,11.3741],[105.0067,11.3973],[105.0153,11.4045],[105.0083,11.4177],[105.0053,11.4191],[105.0051,11.4339]]]}},{"type":"Feature","properties":{"c":"081010","en":"S'ang Phnum","km":"ស្អាងភ្នំ"},"geometry":{"type":"Polygon","coordinates":[[[104.9869,11.3757],[104.9561,11.3849],[104.9433,11.3707],[104.9311,11.3625],[104.9347,11.3305],[104.9393,11.3251],[104.9399,11.3071],[104.9493,11.3087],[104.9591,11.3141],[104.9851,11.3147],[104.9915,11.3201],[104.9929,11.3239],[104.9885,11.3255],[104.9871,11.3295],[104.9873,11.3435],[104.9919,11.3565],[104.9917,11.3607],[104.9857,11.3679],[104.9869,11.3757]]]}},{"type":"Feature","properties":{"c":"081011","en":"Setbou","km":"សិត្បូ"},"geometry":{"type":"Polygon","coordinates":[[[105.0491,11.4219],[105.0403,11.4539],[105.0339,11.4589],[105.0249,11.4605],[105.0241,11.4377],[105.0193,11.4375],[105.0191,11.4323],[105.0051,11.4339],[105.0053,11.4191],[105.0083,11.4177],[105.0153,11.4045],[105.0417,11.4131],[105.0491,11.4219]]]}},{"type":"Feature","properties":{"c":"081012","en":"Svay Prateal","km":"ស្វាយប្រទាល"},"geometry":{"type":"Polygon","coordinates":[[[105.0909,11.3871],[105.0801,11.3955],[105.0417,11.4131],[105.0371,11.4127],[105.0089,11.4007],[105.0053,11.3919],[105.0039,11.3741],[105.0109,11.3597],[105.0191,11.3655],[105.0311,11.3693],[105.0543,11.3659],[105.0909,11.3871]]]}},{"type":"Feature","properties":{"c":"081013","en":"Svay Rolum","km":"ស្វាយរលំ"},"geometry":{"type":"Polygon","coordinates":[[[104.9777,11.4623],[104.9731,11.4627],[104.9601,11.4553],[104.9721,11.4333],[104.9961,11.4353],[105.0191,11.4323],[105.0193,11.4375],[105.0241,11.4377],[105.0249,11.4605],[105.0005,11.4561],[104.9777,11.4623]]]}},{"type":"Feature","properties":{"c":"081014","en":"Ta Lon","km":"តាលន់"},"geometry":{"type":"Polygon","coordinates":[[[105.0979,11.2651],[105.1061,11.2745],[105.1061,11.3107],[105.0935,11.3231],[105.0889,11.3185],[105.0735,11.3143],[105.0633,11.3143],[105.0593,11.3189],[105.0569,11.3101],[105.0369,11.2831],[105.0513,11.2731],[105.0589,11.2713],[105.0809,11.2795],[105.0835,11.2747],[105.0979,11.2651]]]}},{"type":"Feature","properties":{"c":"081015","en":"Traeuy Sla","km":"ត្រើយស្លា"},"geometry":{"type":"Polygon","coordinates":[[[105.1185,11.3657],[105.1099,11.3679],[105.0909,11.3871],[105.0543,11.3659],[105.0311,11.3693],[105.0191,11.3655],[105.0109,11.3597],[105.0177,11.3517],[105.0451,11.3359],[105.0633,11.3143],[105.0693,11.3139],[105.0913,11.3201],[105.1185,11.3657]]]}},{"type":"Feature","properties":{"c":"081016","en":"Tuek Vil","km":"ទឹកវិល"},"geometry":{"type":"Polygon","coordinates":[[[105.0391,11.2927],[105.0341,11.3147],[105.0363,11.3323],[105.0347,11.3373],[105.0057,11.3329],[104.9951,11.3277],[104.9891,11.3169],[104.9851,11.3147],[104.9881,11.3055],[104.9947,11.3035],[105.0009,11.2935],[105.0391,11.2927]]]}}]}