{"type":"FeatureCollection","features":[{"type":"Feature","properties":{"c":"081103","en":"Doeum Mien","km":"សង្កាត់ដើមមៀន"},"geometry":{"type":"Polygon","coordinates":[[[104.9511,11.4851],[104.9471,11.4937],[104.9215,11.4845],[104.9213,11.4809],[104.9297,11.4787],[104.9363,11.4739],[104.9405,11.4787],[104.9399,11.4831],[104.9511,11.4851]]]}},{"type":"Feature","properties":{"c":"081106","en":"Kampong Samnanh","km":"សង្កាត់កំពង់សំណាញ់"},"geometry":{"type":"Polygon","coordinates":[[[104.9497,11.4337],[104.9501,11.4641],[104.9479,11.4721],[104.9447,11.4739],[104.9387,11.4663],[104.9389,11.4587],[104.9427,11.4535],[104.9463,11.4377],[104.9497,11.4337]]]}},{"type":"Feature","properties":{"c":"081105","en":"Prek Ho","km":"សង្កាត់ព្រែកហូរ"},"geometry":{"type":"Polygon","coordinates":[[[104.9389,11.4587],[104.9315,11.4579],[104.9345,11.4661],[104.9215,11.4609],[104.9223,11.4289],[104.9411,11.4285],[104.9413,11.4193],[104.9495,11.4179],[104.9537,11.4243],[104.9463,11.4377],[104.9415,11.4565],[104.9389,11.4587]]]}},{"type":"Feature","properties":{"c":"081102","en":"Prek Ruessey","km":"សង្កាត់ព្រែកឫស្សី"},"geometry":{"type":"Polygon","coordinates":[[[104.9405,11.4787],[104.9363,11.4739],[104.9251,11.4803],[104.9213,11.4809],[104.9201,11.4771],[104.9267,11.4719],[104.9341,11.4697],[104.9345,11.4661],[104.9387,11.4663],[104.9447,11.4739],[104.9405,11.4787]]]}},{"type":"Feature","properties":{"c":"081101","en":"Ta Kdol","km":"សង្កាត់តាក្ដុល"},"geometry":{"type":"MultiPolygon","coordinates":[[[[104.9387,11.4663],[104.9401,11.4631],[104.9389,11.4587],[104.9347,11.4573],[104.9315,11.4579],[104.9323,11.4625],[104.9345,11.4661],[104.9387,11.4663]]],[[[104.9215,11.4609],[104.9193,11.4633],[104.9201,11.4771],[104.9267,11.4719],[104.9341,11.4697],[104.9345,11.4661],[104.9215,11.4609]]]]}},{"type":"Feature","properties":{"c":"081104","en":"Ta Khmao","km":"សង្កាត់តាខ្មៅ"},"geometry":{"type":"Polygon","coordinates":[[[104.9511,11.4851],[104.9399,11.4831],[104.9405,11.4787],[104.9495,11.4683],[104.9497,11.4337],[104.9537,11.4243],[104.9579,11.4247],[104.9595,11.4327],[104.9721,11.4333],[104.9601,11.4553],[104.9731,11.4627],[104.9633,11.4665],[104.9511,11.4851]]]}}]}