{"type":"FeatureCollection","features":[{"type":"Feature","properties":{"c":"090101","en":"Andoung Tuek","km":"អណ្ដូងទឹក"},"geometry":{"type":"Polygon","coordinates":[[[103.4577,11.2667],[103.4641,11.2783],[103.4717,11.2833],[103.4781,11.3025],[103.4691,11.3103],[103.4623,11.3125],[103.4541,11.3111],[103.4489,11.3075],[103.4455,11.3125],[103.4367,11.3075],[103.4339,11.3145],[103.4305,11.3129],[103.4291,11.3087],[103.4259,11.3093],[103.4175,11.3179],[103.4075,11.3019],[103.4065,11.2965],[103.3931,11.2869],[103.3879,11.2757],[103.3731,11.2733],[103.3663,11.2673],[103.3653,11.2635],[103.3719,11.2541],[103.3701,11.2509],[103.3599,11.2455],[103.3587,11.2423],[103.3629,11.2359],[103.3619,11.2291],[103.3475,11.2407],[103.3369,11.2405],[103.3329,11.2361],[103.3355,11.2301],[103.3095,11.2205],[103.3071,11.2179],[103.3089,11.2133],[103.3063,11.2097],[103.2961,11.2017],[103.2841,11.1987],[103.2819,11.1953],[103.2999,11.1797],[103.3075,11.1637],[103.2815,11.1189],[103.3823,11.0813],[103.4003,11.0681],[103.4191,11.0593],[103.4273,11.0573],[103.4399,11.0587],[103.4471,11.0515],[103.4499,11.0721],[103.4675,11.0891],[103.4689,11.1029],[103.4643,11.1051],[103.4445,11.0985],[103.4437,11.1023],[103.4683,11.1275],[103.4739,11.1435],[103.4857,11.1475],[103.5011,11.1641],[103.5055,11.1661],[103.4915,11.1849],[103.4909,11.1885],[103.4939,11.1905],[103.4917,11.1973],[103.4875,11.1989],[103.4855,11.2057],[103.4763,11.2125],[103.4577,11.2667]]]}},{"type":"Feature","properties":{"c":"090102","en":"Kandaol","km":"កណ្ដោល"},"geometry":{"type":"Polygon","coordinates":[[[103.6031,11.1821],[103.6027,11.1857],[103.5985,11.1859],[103.5911,11.1957],[103.5949,11.2059],[103.5959,11.2211],[103.5999,11.2277],[103.6035,11.2529],[103.6001,11.2587],[103.5863,11.2679],[103.5719,11.2819],[103.4955,11.2715],[103.4915,11.2693],[103.4751,11.2697],[103.4577,11.2667],[103.4763,11.2125],[103.4855,11.2057],[103.4875,11.1989],[103.4917,11.1973],[103.4939,11.1905],[103.4909,11.1885],[103.4915,11.1849],[103.5055,11.1661],[103.5283,11.1689],[103.5531,11.1679],[103.5577,11.1749],[103.5591,11.1711],[103.5675,11.1713],[103.5645,11.1687],[103.5655,11.1647],[103.5737,11.1641],[103.5771,11.1665],[103.5801,11.1605],[103.5839,11.1627],[103.5863,11.1597],[103.5951,11.1667],[103.5949,11.1763],[103.6045,11.1785],[103.6031,11.1821]]]}},{"type":"Feature","properties":{"c":"090103","en":"Ta Noun","km":"តានូន"},"geometry":{"type":"MultiPolygon","coordinates":[[[[103.1943,10.8013],[103.1923,10.8041],[103.1997,10.8073],[103.2045,10.8053],[103.1993,10.8029],[103.1943,10.8013]]],[[[103.1969,10.8241],[103.1951,10.8211],[103.1775,10.8171],[103.1725,10.8197],[103.1673,10.8313],[103.1715,10.8303],[103.1835,10.8361],[103.1889,10.8319],[103.1907,10.8275],[103.1969,10.8241]]],[[[103.3367,11.0349],[103.3307,11.0359],[103.3295,11.0321],[103.3325,11.0259],[103.3297,11.0239],[103.3255,11.0249],[103.3139,11.0213],[103.3157,11.0149],[103.3133,11.0123],[103.3121,11.0023],[103.3117,10.9149],[103.3073,10.9131],[103.3019,10.9159],[103.2875,10.9163],[103.2877,10.9205],[103.2843,10.9239],[103.2755,10.9219],[103.2553,10.9227],[103.2433,10.9175],[103.2397,10.9099],[103.2287,10.9043],[103.2283,10.8981],[103.2257,10.8955],[103.2143,10.8905],[103.2115,10.8805],[103.1847,10.8731],[103.1805,10.8799],[103.1659,10.8875],[103.1687,10.8891],[103.1669,10.8915],[103.1639,10.8907],[103.1565,10.9009],[103.1567,10.9127],[103.1623,10.9221],[103.1803,10.9321],[103.1821,10.9359],[103.1775,10.9433],[103.1755,10.9607],[103.2129,10.9735],[103.2209,10.9829],[103.2377,10.9883],[103.2393,10.9921],[103.2345,11.0017],[103.2271,11.0065],[103.2247,11.0111],[103.2243,11.0215],[103.2181,11.0335],[103.2177,11.0575],[103.2447,11.0553],[103.2573,11.0613],[103.2613,11.0693],[103.2633,11.0835],[103.2769,11.0983],[103.2779,11.1117],[103.2815,11.1189],[103.3391,11.0967],[103.3389,11.0385],[103.3367,11.0349]]]]}},{"type":"Feature","properties":{"c":"090104","en":"Thma Sa","km":"ថ្មស"},"geometry":{"type":"Polygon","coordinates":[[[103.4471,11.0515],[103.4399,11.0587],[103.4273,11.0573],[103.4191,11.0593],[103.4003,11.0681],[103.3823,11.0813],[103.3391,11.0967],[103.3389,11.0385],[103.3367,11.0349],[103.3307,11.0359],[103.3295,11.0321],[103.3325,11.0259],[103.3297,11.0239],[103.3255,11.0249],[103.3139,11.0213],[103.3157,11.0149],[103.3133,11.0123],[103.3121,11.0023],[103.3117,10.9149],[103.3123,10.9101],[103.3215,10.9043],[103.3265,10.9045],[103.3343,10.9005],[103.3469,10.8875],[103.3515,10.8743],[103.3509,10.8677],[103.3545,10.8659],[103.3579,10.8731],[103.3707,10.8811],[103.3755,10.8817],[103.3869,10.8765],[103.4029,10.8853],[103.4089,10.8929],[103.4249,10.8935],[103.4201,10.9097],[103.4211,10.9249],[103.4137,10.9401],[103.4105,10.9583],[103.4149,10.9731],[103.4231,10.9867],[103.4285,11.0087],[103.4465,11.0443],[103.4471,11.0515]]]}}]}