{"type":"FeatureCollection","features":[{"type":"Feature","properties":{"c":"090201","en":"Kaoh Sdach","km":"កោះស្ដេច"},"geometry":{"type":"MultiPolygon","coordinates":[[[[103.0673,10.8905],[103.0727,10.9057],[103.0903,10.8939],[103.0909,10.8901],[103.0693,10.8883],[103.0673,10.8905]]],[[[103.0605,10.9099],[103.0627,10.9081],[103.0589,10.9065],[103.0573,10.9111],[103.0605,10.9099]]],[[[103.0797,10.9449],[103.0797,10.9391],[103.0757,10.9347],[103.0733,10.9311],[103.0731,10.9381],[103.0797,10.9449]]],[[[103.0475,10.9565],[103.0505,10.9601],[103.0555,10.9609],[103.0549,10.9575],[103.0533,10.9545],[103.0475,10.9565]]],[[[103.2385,10.9963],[103.2377,10.9883],[103.2209,10.9829],[103.2129,10.9735],[103.1755,10.9607],[103.1775,10.9433],[103.1821,10.9359],[103.1803,10.9321],[103.1623,10.9221],[103.1567,10.9127],[103.1565,10.9009],[103.1639,10.8907],[103.1669,10.8915],[103.1687,10.8891],[103.1659,10.8875],[103.1835,10.8769],[103.1847,10.8731],[103.1795,10.8621],[103.1811,10.8581],[103.1735,10.8591],[103.1565,10.8737],[103.1473,10.8729],[103.1459,10.8643],[103.1433,10.8625],[103.1237,10.8705],[103.1215,10.8743],[103.1279,10.8745],[103.1317,10.8809],[103.1293,10.8953],[103.1145,10.9099],[103.0989,10.9165],[103.0963,10.9315],[103.0981,10.9443],[103.0965,10.9487],[103.1019,10.9593],[103.1079,10.9629],[103.1085,10.9673],[103.1071,11.0201],[103.1181,11.0237],[103.1255,11.0145],[103.1397,11.0185],[103.1655,11.0373],[103.2019,11.0533],[103.2177,11.0575],[103.2181,11.0335],[103.2251,11.0187],[103.2247,11.0111],[103.2271,11.0065],[103.2385,10.9963]]],[[[103.0789,10.9819],[103.0779,10.9785],[103.0735,10.9773],[103.0679,10.9745],[103.0713,10.9815],[103.0789,10.9819]]]]}},{"type":"Feature","properties":{"c":"090202","en":"Phnhi Meas","km":"ភ្ញីមាស"},"geometry":{"type":"Polygon","coordinates":[[[103.2779,11.1117],[103.1947,11.1515],[103.1875,11.1585],[103.1839,11.1663],[103.1831,11.1875],[103.1785,11.1911],[103.1637,11.1879],[103.1613,11.1919],[103.1475,11.1907],[103.1419,11.1853],[103.1385,11.1745],[103.1353,11.1729],[103.1397,11.1623],[103.1315,11.1535],[103.1321,11.1373],[103.1299,11.1341],[103.1241,11.1367],[103.1219,11.1445],[103.1185,11.1469],[103.1111,11.1475],[103.1171,11.1005],[103.1113,11.0947],[103.1099,11.0859],[103.1041,11.0785],[103.1001,11.0773],[103.0953,11.0831],[103.0897,11.0783],[103.0969,11.0741],[103.0971,11.0535],[103.1071,11.0201],[103.1181,11.0237],[103.1255,11.0145],[103.1397,11.0185],[103.1557,11.0283],[103.1621,11.0355],[103.2069,11.0551],[103.2177,11.0575],[103.2447,11.0553],[103.2531,11.0583],[103.2603,11.0659],[103.2633,11.0835],[103.2769,11.0983],[103.2779,11.1117]]]}},{"type":"Feature","properties":{"c":"090203","en":"Preaek Khsach","km":"ព្រែកខ្សាច់"},"geometry":{"type":"Polygon","coordinates":[[[103.3071,11.2179],[103.2253,11.2275],[103.2099,11.2241],[103.1965,11.2327],[103.1893,11.2409],[103.1875,11.2539],[103.1805,11.2665],[103.1681,11.2719],[103.1649,11.2809],[103.1663,11.2875],[103.1609,11.2973],[103.1497,11.2955],[103.1471,11.2971],[103.1451,11.3205],[103.1315,11.3123],[103.1199,11.3179],[103.1187,11.3095],[103.1155,11.3061],[103.1081,11.3039],[103.1031,11.2983],[103.0933,11.2995],[103.0931,11.2867],[103.0781,11.2849],[103.0719,11.2863],[103.0709,11.2831],[103.0767,11.2697],[103.0759,11.2643],[103.0725,11.2607],[103.0665,11.2595],[103.0657,11.2557],[103.0711,11.2427],[103.0707,11.2383],[103.0565,11.2335],[103.0557,11.2301],[103.0519,11.2291],[103.0479,11.2233],[103.0533,11.2165],[103.0687,11.2229],[103.0769,11.2229],[103.0797,11.2203],[103.0937,11.1951],[103.1075,11.1527],[103.1111,11.1475],[103.1219,11.1445],[103.1269,11.1339],[103.1321,11.1373],[103.1315,11.1535],[103.1397,11.1623],[103.1353,11.1729],[103.1385,11.1745],[103.1419,11.1853],[103.1525,11.1923],[103.1571,11.1901],[103.1613,11.1919],[103.1637,11.1879],[103.1785,11.1911],[103.1831,11.1875],[103.1839,11.1663],[103.1875,11.1585],[103.1947,11.1515],[103.2779,11.1117],[103.3075,11.1637],[103.2999,11.1797],[103.2819,11.1953],[103.2841,11.1987],[103.2961,11.2017],[103.3063,11.2097],[103.3089,11.2133],[103.3071,11.2179]]]}}]}