{"type":"FeatureCollection","features":[{"type":"Feature","properties":{"c":"090301","en":"Chrouy Pras","km":"ជ្រោយប្រស់"},"geometry":{"type":"MultiPolygon","coordinates":[[[[102.9853,11.4085],[102.9887,11.4083],[103.0051,11.4183],[103.0133,11.4185],[103.0171,11.4163],[103.0343,11.3773],[103.0283,11.3487],[103.0407,11.3353],[103.0387,11.3207],[103.0441,11.3059],[103.0405,11.2879],[103.0333,11.2753],[103.0329,11.2687],[103.0253,11.2489],[103.0173,11.2435],[103.0135,11.2439],[103.0073,11.2501],[102.9997,11.2483],[102.9981,11.2551],[102.9895,11.2555],[102.9915,11.2599],[102.9897,11.2689],[102.9817,11.2757],[102.9855,11.2781],[102.9853,11.2965],[102.9809,11.3055],[102.9899,11.3193],[102.9757,11.3577],[102.9801,11.3705],[102.9711,11.4005],[102.9783,11.4187],[102.9821,11.4213],[102.9867,11.4169],[102.9851,11.4127],[102.9853,11.4085]]],[[[103.0551,11.4351],[103.0539,11.4383],[103.0473,11.4379],[103.0447,11.4415],[103.0547,11.4465],[103.0787,11.4441],[103.0843,11.4457],[103.1169,11.4655],[103.1315,11.4625],[103.1293,11.4549],[103.1301,11.4479],[103.1499,11.4269],[103.2465,11.3623],[103.2507,11.3571],[103.2653,11.3555],[103.2699,11.3407],[103.2677,11.3291],[103.2801,11.3169],[103.2799,11.3073],[103.2761,11.2975],[103.2787,11.2891],[103.2891,11.2861],[103.2903,11.2831],[103.2871,11.2647],[103.2891,11.2597],[103.3021,11.2457],[103.3059,11.2357],[103.3187,11.2253],[103.3071,11.2179],[103.2253,11.2275],[103.2099,11.2241],[103.1965,11.2327],[103.1879,11.2437],[103.1875,11.2539],[103.1805,11.2665],[103.1681,11.2719],[103.1649,11.2809],[103.1663,11.2875],[103.1609,11.2973],[103.1497,11.2955],[103.1471,11.2971],[103.1451,11.3039],[103.1463,11.3163],[103.1443,11.3239],[103.1345,11.3399],[103.1367,11.3465],[103.1345,11.3493],[103.1309,11.3507],[103.1191,11.3489],[103.1093,11.3429],[103.1041,11.3443],[103.0941,11.3537],[103.0881,11.3737],[103.0857,11.3939],[103.0881,11.4013],[103.0861,11.4091],[103.0769,11.4207],[103.0749,11.4161],[103.0719,11.4179],[103.0717,11.4313],[103.0649,11.4273],[103.0649,11.4319],[103.0551,11.4351]]],[[[103.0617,11.4241],[103.0649,11.4273],[103.0645,11.4215],[103.0617,11.4241]]]]}},{"type":"Feature","properties":{"c":"090302","en":"Kaoh Kapi","km":"កោះកាពិ"},"geometry":{"type":"MultiPolygon","coordinates":[[[[103.0065,11.4331],[103.0057,11.4361],[103.0093,11.4349],[103.0065,11.4331]]],[[[103.0797,11.4897],[103.0817,11.4865],[103.0793,11.4847],[103.0801,11.4775],[103.0873,11.4753],[103.0959,11.4773],[103.1059,11.4709],[103.1131,11.4693],[103.1133,11.4645],[103.0843,11.4457],[103.0787,11.4441],[103.0547,11.4465],[103.0447,11.4415],[103.0419,11.4433],[103.0293,11.4297],[103.0187,11.4221],[103.0153,11.4227],[103.0119,11.4331],[103.0151,11.4429],[103.0137,11.4577],[102.9925,11.4937],[103.0165,11.4995],[103.0543,11.4993],[103.0797,11.4897]]]]}},{"type":"Feature","properties":{"c":"090303","en":"Ta Tai Kraom","km":"តាតៃក្រោម"},"geometry":{"type":"Polygon","coordinates":[[[103.2743,11.6371],[103.2503,11.6393],[103.2341,11.6317],[103.2281,11.6337],[103.2257,11.6409],[103.2137,11.6437],[103.2105,11.6409],[103.2075,11.6289],[103.2131,11.6209],[103.2109,11.6161],[103.1971,11.6159],[103.1949,11.6055],[103.1895,11.5985],[103.1829,11.5971],[103.1767,11.5915],[103.1669,11.5955],[103.1613,11.5917],[103.1579,11.5923],[103.1571,11.6075],[103.1537,11.6079],[103.1477,11.6049],[103.1389,11.5915],[103.1297,11.5869],[103.1287,11.5765],[103.1255,11.5697],[103.1063,11.5797],[103.0997,11.5791],[103.1051,11.5579],[103.1049,11.5295],[103.1007,11.5101],[103.1065,11.5025],[103.1051,11.4985],[103.0919,11.4871],[103.0793,11.4847],[103.0801,11.4775],[103.0873,11.4753],[103.0959,11.4773],[103.1059,11.4709],[103.1131,11.4693],[103.1133,11.4645],[103.1201,11.4657],[103.1315,11.4625],[103.1537,11.4421],[103.1571,11.4349],[103.1643,11.4375],[103.1671,11.4455],[103.1713,11.4441],[103.1733,11.4559],[103.1719,11.4601],[103.1749,11.4621],[103.1753,11.4821],[103.1717,11.4929],[103.1723,11.4993],[103.1775,11.5039],[103.1881,11.5041],[103.1921,11.5093],[103.2091,11.5117],[103.2245,11.5407],[103.2259,11.5575],[103.2389,11.5945],[103.2515,11.6053],[103.2743,11.6371]]]}},{"type":"Feature","properties":{"c":"090304","en":"Trapeang Rung","km":"ត្រពាំងរូង"},"geometry":{"type":"Polygon","coordinates":[[[103.4157,11.5413],[103.3719,11.5781],[103.3181,11.6313],[103.2743,11.6371],[103.2515,11.6053],[103.2389,11.5945],[103.2259,11.5575],[103.2245,11.5407],[103.2091,11.5117],[103.1921,11.5093],[103.1881,11.5041],[103.1775,11.5039],[103.1723,11.4993],[103.1757,11.4737],[103.1749,11.4621],[103.1719,11.4601],[103.1733,11.4559],[103.1713,11.4441],[103.1671,11.4455],[103.1643,11.4375],[103.1571,11.4349],[103.1537,11.4421],[103.1315,11.4625],[103.1293,11.4549],[103.1301,11.4479],[103.1499,11.4269],[103.2465,11.3623],[103.2507,11.3571],[103.2653,11.3555],[103.2699,11.3407],[103.2677,11.3291],[103.2801,11.3169],[103.2799,11.3073],[103.2761,11.2975],[103.2787,11.2891],[103.2891,11.2861],[103.2903,11.2831],[103.2871,11.2647],[103.2891,11.2597],[103.3021,11.2457],[103.3059,11.2357],[103.3187,11.2253],[103.3355,11.2301],[103.3329,11.2361],[103.3369,11.2405],[103.3413,11.2415],[103.3475,11.2407],[103.3619,11.2291],[103.3629,11.2359],[103.3587,11.2423],[103.3599,11.2455],[103.3701,11.2509],[103.3719,11.2541],[103.3653,11.2635],[103.3663,11.2673],[103.3731,11.2733],[103.3879,11.2757],[103.3931,11.2869],[103.4065,11.2965],[103.4075,11.3019],[103.4237,11.3293],[103.4295,11.3361],[103.4363,11.3387],[103.4395,11.3373],[103.4423,11.3469],[103.4461,11.3449],[103.4517,11.3491],[103.4631,11.3673],[103.4719,11.3733],[103.4781,11.3889],[103.4701,11.3977],[103.4675,11.4105],[103.4583,11.4191],[103.4521,11.4331],[103.4557,11.4903],[103.4503,11.5107],[103.4449,11.5183],[103.4157,11.5413]]]}}]}