{"type":"FeatureCollection","features":[{"type":"Feature","properties":{"c":"090402","en":"Dang Tong","km":"សង្កាត់ដងទង់"},"geometry":{"type":"Polygon","coordinates":[[[102.9887,11.6039],[102.9855,11.6085],[102.9727,11.6091],[102.9719,11.5935],[102.9887,11.6039]]]}},{"type":"Feature","properties":{"c":"090401","en":"Smach Mean Chey","km":"សង្កាត់ស្មាច់មានជ័យ"},"geometry":{"type":"Polygon","coordinates":[[[103.0923,11.5927],[103.0953,11.5987],[103.0917,11.6069],[103.0901,11.6393],[103.0821,11.6495],[103.0781,11.6499],[103.0693,11.6411],[103.0575,11.6363],[103.0433,11.6351],[103.0335,11.6263],[103.0253,11.6233],[103.0187,11.6251],[103.0095,11.6223],[103.0067,11.6281],[103.0069,11.6357],[103.0037,11.6389],[102.9915,11.6413],[102.9799,11.6383],[102.9735,11.6259],[102.9727,11.6091],[102.9855,11.6085],[102.9887,11.6039],[103.0019,11.5991],[103.0061,11.6025],[103.0249,11.6019],[103.0351,11.5887],[103.0365,11.5731],[103.0387,11.5703],[103.0429,11.5753],[103.0409,11.5861],[103.0437,11.5883],[103.0553,11.5807],[103.0595,11.5827],[103.0567,11.5885],[103.0577,11.5925],[103.0923,11.5927]]]}},{"type":"Feature","properties":{"c":"090403","en":"Stueng Veaeng","km":"សង្កាត់ស្ទឹងវែង"},"geometry":{"type":"Polygon","coordinates":[[[103.0387,11.5703],[103.0365,11.5731],[103.0351,11.5887],[103.0249,11.6019],[103.0061,11.6025],[103.0019,11.5991],[102.9887,11.6039],[102.9719,11.5935],[102.9675,11.5731],[102.9793,11.5603],[102.9907,11.5577],[102.9977,11.5415],[103.0041,11.5391],[103.0159,11.5447],[103.0363,11.5427],[103.0389,11.5511],[103.0387,11.5703]]]}}]}