{"type":"FeatureCollection","features":[{"type":"Feature","properties":{"c":"090501","en":"Pak Khlang","km":"ប៉ាក់ខ្លង"},"geometry":{"type":"Polygon","coordinates":[[[103.0037,11.9941],[102.9727,12.0023],[102.7977,12.0135],[102.7797,12.0231],[102.7765,12.0139],[102.7773,12.0029],[102.7847,11.9779],[102.7913,11.9763],[102.8011,11.9489],[102.8095,11.9451],[102.8153,11.9355],[102.8141,11.9225],[102.8197,11.9163],[102.8221,11.9067],[102.8199,11.8931],[102.8335,11.8569],[102.8453,11.8445],[102.8489,11.8331],[102.8537,11.8263],[102.8613,11.8253],[102.8665,11.8069],[102.8849,11.7997],[102.8827,11.7905],[102.8925,11.7869],[102.9049,11.7675],[102.9111,11.7435],[102.9113,11.6831],[102.9145,11.6523],[102.9113,11.6491],[102.9197,11.6301],[102.9235,11.6311],[102.9269,11.6287],[102.9357,11.6131],[102.9387,11.6019],[102.9327,11.5997],[102.9311,11.5967],[102.9331,11.5863],[102.9397,11.5877],[102.9427,11.5841],[102.9487,11.5695],[102.9535,11.5651],[102.9557,11.5579],[102.9529,11.5553],[102.9559,11.5537],[102.9599,11.5553],[102.9697,11.5785],[102.9735,11.6259],[102.9799,11.6383],[102.9829,11.6401],[102.9915,11.6413],[103.0037,11.6389],[103.0069,11.6357],[103.0067,11.6281],[103.0095,11.6223],[103.0187,11.6251],[103.0253,11.6233],[103.0335,11.6263],[103.0433,11.6351],[103.0575,11.6363],[103.0693,11.6411],[103.0781,11.6499],[103.0821,11.6495],[103.0901,11.6393],[103.0917,11.6069],[103.0953,11.5987],[103.0923,11.5927],[103.0953,11.5789],[103.0989,11.5763],[103.0963,11.5911],[103.1123,11.5901],[103.1191,11.5951],[103.1203,11.6239],[103.1289,11.6361],[103.1299,11.6479],[103.1373,11.6583],[103.1389,11.6697],[103.1455,11.6807],[103.1577,11.6929],[103.1875,11.8441],[103.1987,11.9635],[103.1943,11.9621],[103.1851,11.9525],[103.1743,11.9487],[103.1713,11.9497],[103.1665,11.9457],[103.1597,11.9443],[103.1525,11.9479],[103.1401,11.9443],[103.1199,11.9457],[103.0037,11.9941]]]}},{"type":"Feature","properties":{"c":"090502","en":"Peam Krasaob","km":"ពាមក្រសោប"},"geometry":{"type":"Polygon","coordinates":[[[103.0363,11.5427],[103.0159,11.5447],[103.0073,11.5395],[103.0001,11.5399],[102.9907,11.5577],[102.9793,11.5603],[102.9675,11.5731],[102.9599,11.5553],[102.9559,11.5537],[102.9529,11.5553],[102.9507,11.5525],[102.9533,11.5445],[102.9681,11.5249],[102.9805,11.5187],[102.9849,11.5127],[102.9837,11.5039],[102.9887,11.4953],[102.9925,11.4937],[103.0121,11.4991],[103.0507,11.5005],[103.0495,11.5079],[103.0373,11.5207],[103.0401,11.5337],[103.0363,11.5427]]]}},{"type":"Feature","properties":{"c":"090503","en":"Tuol Kokir","km":"ទួលគគីរ"},"geometry":{"type":"Polygon","coordinates":[[[103.0923,11.5927],[103.0577,11.5925],[103.0567,11.5885],[103.0595,11.5827],[103.0553,11.5807],[103.0473,11.5877],[103.0409,11.5861],[103.0429,11.5753],[103.0379,11.5669],[103.0389,11.5511],[103.0363,11.5427],[103.0401,11.5337],[103.0373,11.5207],[103.0495,11.5079],[103.0507,11.5005],[103.0771,11.4917],[103.0817,11.4865],[103.0859,11.4861],[103.0919,11.4871],[103.1051,11.4985],[103.1065,11.5025],[103.1007,11.5101],[103.1049,11.5295],[103.1051,11.5579],[103.0989,11.5763],[103.0953,11.5789],[103.0923,11.5927]]]}}]}