{"type":"FeatureCollection","features":[{"type":"Feature","properties":{"c":"090601","en":"Boeng Preav","km":"បឹងព្រាវ"},"geometry":{"type":"Polygon","coordinates":[[[103.8173,11.0555],[103.8115,11.0759],[103.8119,11.0959],[103.8065,11.1031],[103.8107,11.1097],[103.7987,11.1169],[103.8013,11.1227],[103.7971,11.1281],[103.7873,11.1273],[103.7819,11.1375],[103.7783,11.1395],[103.7699,11.1361],[103.7605,11.1273],[103.7641,11.1125],[103.7607,11.1061],[103.7633,11.1031],[103.7535,11.0873],[103.7533,11.0823],[103.7639,11.0757],[103.7689,11.0607],[103.7627,11.0267],[103.7587,11.0213],[103.7591,11.0015],[103.7653,10.9861],[103.7543,10.9601],[103.7535,10.9511],[103.7557,10.9435],[103.7673,10.9315],[103.7971,10.9395],[103.7909,10.9541],[103.7937,10.9811],[103.7859,11.0235],[103.7917,11.0407],[103.7963,11.0471],[103.8055,11.0487],[103.8173,11.0555]]]}},{"type":"Feature","properties":{"c":"090602","en":"Chi Kha Kraom","km":"ជី ខ ក្រោម"},"geometry":{"type":"Polygon","coordinates":[[[103.6515,11.1389],[103.6259,11.1735],[103.6153,11.1739],[103.6045,11.1785],[103.5949,11.1763],[103.5951,11.1667],[103.5863,11.1597],[103.5839,11.1627],[103.5801,11.1605],[103.5771,11.1665],[103.5737,11.1641],[103.5655,11.1647],[103.5645,11.1687],[103.5675,11.1713],[103.5591,11.1711],[103.5577,11.1749],[103.5541,11.1719],[103.5545,11.1581],[103.5711,11.1357],[103.5801,11.1159],[103.5899,11.1023],[103.5923,11.0941],[103.6069,11.0881],[103.6147,11.0861],[103.6255,11.0889],[103.6509,11.0793],[103.6593,11.0803],[103.6593,11.0879],[103.6447,11.0987],[103.6403,11.1153],[103.6515,11.1389]]]}},{"type":"Feature","properties":{"c":"090603","en":"Chi kha Leu","km":"ជី ខ លើ"},"geometry":{"type":"Polygon","coordinates":[[[103.6515,11.1389],[103.6537,11.1431],[103.6687,11.1487],[103.6829,11.1495],[103.6921,11.1451],[103.7059,11.1489],[103.7081,11.1517],[103.7173,11.1529],[103.7207,11.1825],[103.7359,11.2487],[103.7389,11.2989],[103.7453,11.3225],[103.7431,11.3247],[103.7251,11.3245],[103.7181,11.3293],[103.7103,11.3421],[103.7153,11.3673],[103.7117,11.3781],[103.7097,11.3815],[103.7037,11.3837],[103.6851,11.3981],[103.6727,11.4117],[103.6749,11.4231],[103.7035,11.4611],[103.7157,11.4831],[103.7235,11.5187],[103.7251,11.5657],[103.7211,11.5647],[103.7075,11.5531],[103.7033,11.5459],[103.6815,11.5555],[103.6789,11.5527],[103.6541,11.5503],[103.6473,11.5463],[103.6457,11.5345],[103.6303,11.5147],[103.6295,11.5037],[103.6341,11.4827],[103.6299,11.4677],[103.6315,11.4635],[103.6401,11.4567],[103.6425,11.4505],[103.6365,11.4445],[103.6333,11.4351],[103.6307,11.4331],[103.6277,11.4345],[103.6219,11.4301],[103.6195,11.4319],[103.6107,11.4249],[103.6075,11.4257],[103.6021,11.4191],[103.5963,11.4217],[103.5875,11.4213],[103.5823,11.4165],[103.5739,11.4143],[103.5763,11.4085],[103.5751,11.4045],[103.5395,11.3761],[103.5369,11.3683],[103.5387,11.3511],[103.5421,11.3489],[103.5377,11.3361],[103.5447,11.3289],[103.5419,11.3195],[103.5479,11.2983],[103.5595,11.2869],[103.5757,11.2795],[103.5863,11.2679],[103.6001,11.2587],[103.6035,11.2529],[103.5999,11.2277],[103.5959,11.2211],[103.5949,11.2059],[103.5911,11.1957],[103.5985,11.1859],[103.6027,11.1857],[103.6045,11.1785],[103.6075,11.1765],[103.6197,11.1729],[103.6259,11.1735],[103.6515,11.1389]]]}},{"type":"Feature","properties":{"c":"090604","en":"Chrouy Svay","km":"ជ្រោយស្វាយ"},"geometry":{"type":"Polygon","coordinates":[[[103.7139,11.0719],[103.7105,11.0727],[103.7055,11.0661],[103.6949,11.0679],[103.6601,11.0601],[103.6489,11.0529],[103.6483,11.0495],[103.6627,11.0297],[103.6641,11.0229],[103.6611,11.0161],[103.6645,11.0085],[103.6637,11.0033],[103.6587,10.9979],[103.6833,10.9613],[103.6855,10.9509],[103.6949,10.9357],[103.7057,10.9063],[103.7129,10.9083],[103.7123,10.9035],[103.7185,10.8967],[103.7245,10.8955],[103.7307,10.9047],[103.7367,10.8989],[103.7371,10.9019],[103.7451,10.9073],[103.7463,10.9119],[103.7529,10.9143],[103.7513,10.9175],[103.7535,10.9207],[103.7623,10.9241],[103.7673,10.9315],[103.7557,10.9435],[103.7535,10.9511],[103.7543,10.9601],[103.7653,10.9861],[103.7591,11.0015],[103.7587,11.0213],[103.7627,11.0267],[103.7689,11.0607],[103.7669,11.0679],[103.7519,11.0639],[103.7401,11.0727],[103.7385,11.0697],[103.7349,11.0699],[103.7327,11.0669],[103.7295,11.0681],[103.7283,11.0647],[103.7243,11.0645],[103.7245,11.0681],[103.7215,11.0707],[103.7173,11.0695],[103.7171,11.0665],[103.7145,11.0677],[103.7173,11.0695],[103.7139,11.0719]]]}},{"type":"Feature","properties":{"c":"090605","en":"Dang Peaeng","km":"ដងពែង"},"geometry":{"type":"Polygon","coordinates":[[[104.0237,11.5059],[104.0145,11.5199],[104.0017,11.5299],[103.9967,11.5301],[103.9821,11.5239],[103.9757,11.5265],[103.9581,11.5173],[103.9375,11.5171],[103.9335,11.5213],[103.9289,11.5329],[103.9253,11.5359],[103.9177,11.5371],[103.9137,11.5515],[103.9049,11.5561],[103.8877,11.5587],[103.8817,11.5671],[103.8739,11.5677],[103.8619,11.5745],[103.8633,11.5789],[103.8585,11.5839],[103.8387,11.5961],[103.8327,11.6075],[103.8189,11.6181],[103.8127,11.6117],[103.8075,11.5935],[103.7997,11.5795],[103.7763,11.5607],[103.7663,11.5697],[103.7441,11.5759],[103.7327,11.5735],[103.7251,11.5657],[103.7235,11.5187],[103.7157,11.4831],[103.7035,11.4611],[103.6749,11.4231],[103.6727,11.4117],[103.6851,11.3981],[103.7037,11.3837],[103.7097,11.3815],[103.7117,11.3781],[103.7153,11.3673],[103.7103,11.3421],[103.7181,11.3293],[103.7251,11.3245],[103.7431,11.3247],[103.7451,11.3189],[103.7397,11.3045],[103.7359,11.2487],[103.7207,11.1825],[103.7173,11.1529],[103.7081,11.1517],[103.7059,11.1489],[103.6921,11.1451],[103.6829,11.1495],[103.6687,11.1487],[103.6537,11.1431],[103.6413,11.1193],[103.6403,11.1153],[103.6447,11.0987],[103.6593,11.0879],[103.6601,11.0601],[103.6699,11.0629],[103.6719,11.0865],[103.6809,11.0979],[103.6843,11.1105],[103.6949,11.1191],[103.7111,11.1231],[103.7381,11.1235],[103.7451,11.1279],[103.7605,11.1273],[103.7699,11.1361],[103.7783,11.1395],[103.7819,11.1375],[103.7873,11.1273],[103.7971,11.1281],[103.8001,11.1255],[103.8013,11.1227],[103.7987,11.1169],[103.8107,11.1097],[103.8065,11.1031],[103.8119,11.0959],[103.8115,11.0759],[103.8173,11.0555],[103.8225,11.0571],[103.8351,11.0725],[103.8465,11.0727],[103.8483,11.0789],[103.8425,11.0807],[103.8461,11.0831],[103.8449,11.0875],[103.8411,11.0853],[103.8403,11.0971],[103.8515,11.1037],[103.8591,11.1133],[103.8609,11.1207],[103.8641,11.1225],[103.8639,11.1313],[103.8719,11.1359],[103.8719,11.1491],[103.8799,11.1547],[103.8823,11.1531],[103.8867,11.1583],[103.8813,11.1673],[103.8813,11.1723],[103.8745,11.1821],[103.8689,11.2039],[103.8517,11.2221],[103.8603,11.2261],[103.8725,11.2407],[103.8727,11.2535],[103.8871,11.2663],[103.8845,11.2727],[103.8945,11.2777],[103.9011,11.2845],[103.9009,11.2973],[103.9045,11.3037],[103.9491,11.3541],[103.9759,11.3889],[103.9899,11.4013],[104.0419,11.4359],[104.0473,11.4419],[104.0489,11.4489],[104.0613,11.4541],[104.0643,11.4575],[104.0629,11.4715],[104.0543,11.4951],[104.0465,11.4979],[104.0399,11.4949],[104.0253,11.5015],[104.0237,11.5059]]]}},{"type":"Feature","properties":{"c":"090606","en":"Srae Ambel","km":"ស្រែអំបិល"},"geometry":{"type":"MultiPolygon","coordinates":[[[[103.7171,11.0665],[103.7145,11.0677],[103.7173,11.0695],[103.7171,11.0665]]],[[[103.7105,11.0727],[103.7055,11.0661],[103.6949,11.0679],[103.6699,11.0629],[103.6719,11.0865],[103.6809,11.0979],[103.6843,11.1105],[103.6949,11.1191],[103.7037,11.1219],[103.7381,11.1235],[103.7451,11.1279],[103.7605,11.1273],[103.7641,11.1125],[103.7607,11.1061],[103.7633,11.1031],[103.7535,11.0873],[103.7533,11.0823],[103.7639,11.0757],[103.7669,11.0679],[103.7519,11.0639],[103.7401,11.0727],[103.7385,11.0697],[103.7349,11.0699],[103.7327,11.0669],[103.7295,11.0681],[103.7283,11.0647],[103.7243,11.0645],[103.7245,11.0681],[103.7215,11.0707],[103.7173,11.0695],[103.7105,11.0727]]]]}}]}