{"type":"FeatureCollection","features":[{"type":"Feature","properties":{"c":"090705","en":"Chi Phat","km":"ជីផាត"},"geometry":{"type":"Polygon","coordinates":[[[103.5387,11.3511],[103.5043,11.3635],[103.4973,11.3755],[103.4879,11.3785],[103.4781,11.3889],[103.4719,11.3733],[103.4631,11.3673],[103.4517,11.3491],[103.4461,11.3449],[103.4423,11.3469],[103.4395,11.3373],[103.4363,11.3387],[103.4295,11.3361],[103.4175,11.3179],[103.4259,11.3093],[103.4291,11.3087],[103.4305,11.3129],[103.4339,11.3145],[103.4367,11.3075],[103.4455,11.3125],[103.4489,11.3075],[103.4541,11.3111],[103.4623,11.3125],[103.4691,11.3103],[103.4781,11.3025],[103.4717,11.2833],[103.4641,11.2783],[103.4577,11.2667],[103.4751,11.2697],[103.4915,11.2693],[103.4955,11.2715],[103.5719,11.2819],[103.5561,11.2895],[103.5455,11.3033],[103.5419,11.3195],[103.5447,11.3289],[103.5377,11.3361],[103.5421,11.3489],[103.5387,11.3511]]]}},{"type":"Feature","properties":{"c":"090703","en":"Chumnoab","km":"ជំនាប់"},"geometry":{"type":"Polygon","coordinates":[[[103.6319,11.6241],[103.6243,11.6495],[103.6025,11.6593],[103.5915,11.6691],[103.5513,11.6801],[103.5313,11.6653],[103.5239,11.6549],[103.5137,11.6469],[103.5049,11.6239],[103.4941,11.6123],[103.4913,11.6053],[103.4953,11.6019],[103.5047,11.6023],[103.5055,11.6089],[103.5111,11.6139],[103.5163,11.6245],[103.5221,11.6271],[103.5237,11.6303],[103.5351,11.6323],[103.5385,11.6317],[103.5451,11.6247],[103.5487,11.6243],[103.5507,11.6215],[103.5493,11.6169],[103.5553,11.6151],[103.5655,11.6169],[103.5693,11.6143],[103.5815,11.6203],[103.5881,11.6187],[103.5957,11.6203],[103.5981,11.6183],[103.6175,11.6231],[103.6297,11.6221],[103.6319,11.6241]]]}},{"type":"Feature","properties":{"c":"090702","en":"Pralay","km":"ប្រឡាយ"},"geometry":{"type":"Polygon","coordinates":[[[103.8569,11.8435],[103.8527,11.8495],[103.8405,11.8575],[103.8383,11.8667],[103.8309,11.8799],[103.8153,11.8957],[103.8143,11.9005],[103.8077,11.9081],[103.8007,11.9117],[103.7965,11.9237],[103.7875,11.9321],[103.7725,11.9333],[103.7621,11.9255],[103.7557,11.9271],[103.7427,11.9393],[103.7319,11.9353],[103.7225,11.9281],[103.7187,11.9277],[103.7123,11.9187],[103.6969,11.9099],[103.6889,11.8973],[103.6543,11.8605],[103.6505,11.8509],[103.6357,11.8367],[103.6311,11.8273],[103.6147,11.8061],[103.5951,11.7691],[103.5727,11.7129],[103.5705,11.6975],[103.5513,11.6801],[103.5915,11.6691],[103.6025,11.6593],[103.6243,11.6495],[103.6385,11.6063],[103.6531,11.5865],[103.6815,11.5555],[103.7033,11.5459],[103.7045,11.5499],[103.7175,11.5621],[103.7251,11.5657],[103.7327,11.5735],[103.7411,11.5759],[103.7663,11.5697],[103.7763,11.5607],[103.7997,11.5795],[103.8075,11.5935],[103.8127,11.6117],[103.8189,11.6181],[103.7953,11.6245],[103.7965,11.6511],[103.8031,11.6669],[103.8021,11.6775],[103.7993,11.6865],[103.7761,11.7109],[103.7739,11.7209],[103.7759,11.7381],[103.7829,11.7517],[103.7761,11.7623],[103.7735,11.7729],[103.7775,11.7781],[103.7921,11.7871],[103.7929,11.7907],[103.7933,11.8011],[103.7843,11.8087],[103.7813,11.8321],[103.7847,11.8495],[103.7887,11.8503],[103.8079,11.8403],[103.8307,11.8357],[103.8403,11.8369],[103.8569,11.8435]]]}},{"type":"Feature","properties":{"c":"090704","en":"Ruessei Chrum","km":"ឫស្សីជ្រុំ"},"geometry":{"type":"Polygon","coordinates":[[[103.5513,11.6801],[103.5375,11.6851],[103.5179,11.7141],[103.4255,11.7283],[103.3633,11.7271],[103.3325,11.7325],[103.3065,11.7499],[103.2705,11.7413],[103.2493,11.7401],[103.2403,11.7349],[103.2311,11.7357],[103.2269,11.7329],[103.2205,11.7231],[103.2141,11.7207],[103.2131,11.7169],[103.2027,11.7085],[103.1987,11.7079],[103.1981,11.7045],[103.1919,11.6997],[103.1807,11.6981],[103.1677,11.6915],[103.1563,11.6903],[103.1455,11.6807],[103.1389,11.6697],[103.1357,11.6547],[103.1299,11.6479],[103.1289,11.6361],[103.1203,11.6239],[103.1191,11.5951],[103.1123,11.5901],[103.0963,11.5911],[103.0979,11.5833],[103.0997,11.5791],[103.1063,11.5797],[103.1255,11.5697],[103.1287,11.5765],[103.1297,11.5869],[103.1389,11.5915],[103.1477,11.6049],[103.1537,11.6079],[103.1571,11.6075],[103.1579,11.5923],[103.1613,11.5917],[103.1669,11.5955],[103.1767,11.5915],[103.1927,11.6015],[103.1971,11.6159],[103.2109,11.6161],[103.2131,11.6209],[103.2075,11.6289],[103.2105,11.6409],[103.2137,11.6437],[103.2257,11.6409],[103.2281,11.6337],[103.2341,11.6317],[103.2503,11.6393],[103.2743,11.6371],[103.3181,11.6313],[103.3719,11.5781],[103.4157,11.5413],[103.4251,11.5449],[103.4359,11.5555],[103.4499,11.5597],[103.4539,11.5789],[103.4645,11.5781],[103.4701,11.5849],[103.4729,11.5931],[103.4823,11.5989],[103.4883,11.6065],[103.4913,11.6053],[103.4941,11.6123],[103.5049,11.6239],[103.5137,11.6469],[103.5239,11.6549],[103.5313,11.6653],[103.5513,11.6801]]]}},{"type":"Feature","properties":{"c":"090701","en":"Ta Tey Leu","km":"តាទៃលើ"},"geometry":{"type":"Polygon","coordinates":[[[103.5087,12.1059],[103.4897,12.0997],[103.4865,12.1061],[103.4755,12.1157],[103.4715,12.1161],[103.4589,12.1015],[103.4325,12.0873],[103.4157,12.0965],[103.4111,12.1025],[103.4033,12.1041],[103.3989,12.1091],[103.3917,12.1073],[103.3821,12.0959],[103.3839,12.0925],[103.3809,12.0891],[103.3849,12.0815],[103.3827,12.0763],[103.3865,12.0735],[103.3849,12.0705],[103.3741,12.0699],[103.3643,12.0597],[103.3611,12.0443],[103.3627,12.0305],[103.3467,12.0275],[103.3413,12.0223],[103.3289,12.0169],[103.3195,12.0087],[103.3161,11.9935],[103.3113,11.9859],[103.2977,11.9853],[103.2893,11.9805],[103.2731,11.9885],[103.2681,11.9885],[103.2633,11.9841],[103.2579,11.9829],[103.2571,11.9781],[103.2525,11.9739],[103.2447,11.9767],[103.2313,11.9759],[103.2285,11.9689],[103.2295,11.9631],[103.2231,11.9569],[103.2193,11.9603],[103.1987,11.9635],[103.1875,11.8441],[103.1563,11.6903],[103.1677,11.6915],[103.1807,11.6981],[103.1919,11.6997],[103.1981,11.7045],[103.1987,11.7079],[103.2027,11.7085],[103.2131,11.7169],[103.2141,11.7207],[103.2205,11.7231],[103.2217,11.7269],[103.2311,11.7357],[103.2403,11.7349],[103.2493,11.7401],[103.2705,11.7413],[103.3065,11.7499],[103.3325,11.7325],[103.3633,11.7271],[103.4255,11.7283],[103.5179,11.7141],[103.5375,11.6851],[103.5513,11.6801],[103.5613,11.6905],[103.5687,11.6943],[103.5727,11.7129],[103.5903,11.7585],[103.6171,11.8101],[103.6311,11.8273],[103.6357,11.8367],[103.6505,11.8509],[103.6543,11.8605],[103.6705,11.8797],[103.6889,11.8973],[103.6969,11.9099],[103.7123,11.9187],[103.7187,11.9277],[103.7115,11.9309],[103.7091,11.9355],[103.6957,11.9411],[103.7003,11.9479],[103.6995,11.9567],[103.6955,11.9643],[103.6765,11.9657],[103.6633,11.9737],[103.6553,11.9755],[103.6499,11.9805],[103.6499,11.9835],[103.6439,11.9861],[103.6381,11.9853],[103.6289,11.9955],[103.6361,12.0029],[103.6369,12.0073],[103.6329,12.0143],[103.6125,12.0195],[103.6067,12.0235],[103.6007,12.0333],[103.5909,12.0411],[103.5841,12.0531],[103.5727,12.0569],[103.5669,12.0667],[103.5633,12.0663],[103.5577,12.0723],[103.5385,12.0835],[103.5365,12.0857],[103.5403,12.0913],[103.5379,12.0949],[103.5303,12.0985],[103.5231,12.0977],[103.5087,12.1059]]]}},{"type":"Feature","properties":{"c":"090706","en":"Thma Doun Pov","km":"ថ្មដូនពៅ"},"geometry":{"type":"Polygon","coordinates":[[[103.6319,11.6241],[103.6297,11.6221],[103.6175,11.6231],[103.5981,11.6183],[103.5957,11.6203],[103.5881,11.6187],[103.5815,11.6203],[103.5693,11.6143],[103.5655,11.6169],[103.5553,11.6151],[103.5493,11.6169],[103.5507,11.6215],[103.5487,11.6243],[103.5451,11.6247],[103.5385,11.6317],[103.5237,11.6303],[103.5123,11.6191],[103.5111,11.6139],[103.5055,11.6089],[103.5047,11.6023],[103.4953,11.6019],[103.4883,11.6065],[103.4823,11.5989],[103.4729,11.5931],[103.4701,11.5849],[103.4645,11.5781],[103.4539,11.5789],[103.4499,11.5597],[103.4359,11.5555],[103.4251,11.5449],[103.4157,11.5413],[103.4449,11.5183],[103.4503,11.5107],[103.4557,11.4903],[103.4513,11.4415],[103.4545,11.4255],[103.4675,11.4105],[103.4701,11.3977],[103.4879,11.3785],[103.4973,11.3755],[103.5043,11.3635],[103.5387,11.3511],[103.5369,11.3683],[103.5395,11.3761],[103.5751,11.4045],[103.5763,11.4085],[103.5739,11.4143],[103.5823,11.4165],[103.5875,11.4213],[103.5963,11.4217],[103.6021,11.4191],[103.6075,11.4257],[103.6107,11.4249],[103.6195,11.4319],[103.6219,11.4301],[103.6277,11.4345],[103.6307,11.4331],[103.6365,11.4445],[103.6425,11.4505],[103.6401,11.4567],[103.6315,11.4635],[103.6299,11.4677],[103.6341,11.4827],[103.6295,11.5037],[103.6303,11.5147],[103.6457,11.5345],[103.6473,11.5463],[103.6541,11.5503],[103.6789,11.5527],[103.6815,11.5555],[103.6417,11.6017],[103.6319,11.6241]]]}}]}