{"type":"FeatureCollection","features":[{"type":"Feature","properties":{"c":"100101","en":"Chhloung","km":"ឆ្លូង"},"geometry":{"type":"Polygon","coordinates":[[[105.9919,12.2649],[105.9635,12.2645],[105.9671,12.2529],[105.9649,12.2495],[105.9647,12.2383],[105.9585,12.2327],[105.9547,12.2211],[105.9451,12.2071],[105.9443,12.1999],[105.9475,12.1979],[105.9549,12.2009],[105.9607,12.1963],[105.9719,12.1967],[105.9737,12.2013],[105.9793,12.2047],[105.9723,12.2089],[105.9739,12.2117],[105.9723,12.2185],[105.9763,12.2217],[105.9773,12.2309],[105.9815,12.2313],[105.9769,12.2391],[105.9851,12.2427],[105.9853,12.2361],[105.9915,12.2455],[105.9855,12.2527],[105.9919,12.2649]]]}},{"type":"Feature","properties":{"c":"100102","en":"Damrei Phong","km":"ដំរីផុង"},"geometry":{"type":"Polygon","coordinates":[[[106.2119,12.1931],[106.2069,12.1979],[106.2045,12.2165],[106.1901,12.2345],[106.1897,12.2457],[106.1799,12.2553],[106.1475,12.2507],[106.1145,12.2415],[106.0919,12.2507],[106.0753,12.2455],[106.0659,12.2397],[106.0615,12.2363],[106.0587,12.2299],[106.0487,12.2323],[106.0449,12.2377],[105.9853,12.2361],[105.9851,12.2427],[105.9769,12.2391],[105.9815,12.2313],[105.9773,12.2309],[105.9763,12.2217],[105.9723,12.2185],[105.9739,12.2117],[105.9723,12.2089],[105.9745,12.2065],[105.9833,12.2037],[105.9845,12.2001],[105.9901,12.2027],[105.9947,12.1995],[105.9935,12.1907],[105.9905,12.1905],[105.9891,12.1937],[105.9853,12.1913],[105.9865,12.1881],[105.9931,12.1833],[105.9959,12.1853],[106.0089,12.1827],[106.0107,12.1789],[106.0073,12.1761],[106.0135,12.1689],[106.0131,12.1657],[106.0189,12.1617],[106.0175,12.1473],[106.0215,12.1491],[106.0301,12.1475],[106.0397,12.1513],[106.0447,12.1563],[106.0439,12.1461],[106.0481,12.1449],[106.0513,12.1357],[106.0591,12.1319],[106.0599,12.1279],[106.0743,12.1313],[106.1187,12.1319],[106.1821,12.1381],[106.2041,12.1641],[106.2119,12.1931]]]}},{"type":"Feature","properties":{"c":"100103","en":"Han Chey","km":"ហាន់ជ័យ"},"geometry":{"type":"Polygon","coordinates":[[[105.9635,12.2645],[105.9595,12.2659],[105.9211,12.2633],[105.9191,12.2319],[105.9141,12.2165],[105.9159,12.2143],[105.9299,12.2203],[105.9333,12.2131],[105.9405,12.2125],[105.9451,12.2071],[105.9485,12.2095],[105.9585,12.2327],[105.9647,12.2383],[105.9649,12.2495],[105.9671,12.2529],[105.9635,12.2645]]]}},{"type":"Feature","properties":{"c":"100104","en":"Kampong Damrei","km":"កំពង់ដំរី"},"geometry":{"type":"Polygon","coordinates":[[[106.2825,12.1953],[106.2759,12.1989],[106.2709,12.1949],[106.2555,12.1951],[106.2445,12.1909],[106.2207,12.1905],[106.2119,12.1931],[106.2041,12.1641],[106.1821,12.1381],[106.0643,12.1293],[106.0559,12.1237],[106.0557,12.1205],[106.0597,12.1171],[106.0593,12.1127],[106.0497,12.1067],[106.0489,12.1019],[106.0467,12.0997],[106.0435,12.1003],[106.0417,12.0967],[106.0435,12.0929],[106.0495,12.0895],[106.0449,12.0825],[106.0513,12.0819],[106.0571,12.0865],[106.0597,12.0853],[106.0591,12.0825],[106.0689,12.0801],[106.0759,12.0815],[106.0739,12.0725],[106.0803,12.0695],[106.0863,12.0713],[106.0867,12.0745],[106.0943,12.0749],[106.0959,12.0721],[106.1003,12.0749],[106.1077,12.0735],[106.1113,12.0753],[106.1179,12.0679],[106.1181,12.0623],[106.1215,12.0607],[106.1201,12.0571],[106.1229,12.0553],[106.1267,12.0569],[106.1287,12.0543],[106.1311,12.0559],[106.1333,12.0461],[106.1367,12.0519],[106.1399,12.0491],[106.1467,12.0543],[106.1503,12.0487],[106.1541,12.0483],[106.1577,12.0407],[106.1625,12.0421],[106.1727,12.0349],[106.1723,12.0305],[106.1791,12.0239],[106.1797,12.0193],[106.1767,12.0169],[106.1799,12.0153],[106.1811,12.0103],[106.1751,11.9983],[106.1715,11.9967],[106.1709,11.9861],[106.1741,11.9787],[106.1741,11.9713],[106.1689,11.9697],[106.1671,11.9667],[106.1755,11.9637],[106.1737,11.9603],[106.1797,11.9531],[106.1993,11.9685],[106.1997,11.9651],[106.2067,11.9661],[106.2187,11.9623],[106.2215,11.9681],[106.2273,11.9719],[106.2201,11.9855],[106.2263,11.9855],[106.2313,11.9811],[106.2361,11.9887],[106.2359,11.9949],[106.2395,12.0025],[106.2449,12.0003],[106.2511,12.0065],[106.2627,12.0075],[106.2535,12.0207],[106.2565,12.0227],[106.2563,12.0265],[106.2639,12.0333],[106.2691,12.0329],[106.2709,12.0401],[106.2457,12.0553],[106.2519,12.0689],[106.2513,12.0767],[106.2455,12.0825],[106.2469,12.0853],[106.2511,12.0859],[106.2531,12.0957],[106.2573,12.0955],[106.2587,12.0987],[106.2517,12.1047],[106.2519,12.1093],[106.2647,12.1139],[106.2667,12.1215],[106.2705,12.1217],[106.2749,12.1273],[106.2763,12.1307],[106.2737,12.1359],[106.2783,12.1419],[106.2781,12.1457],[106.2805,12.1475],[106.2839,12.1459],[106.2899,12.1505],[106.2989,12.1503],[106.3011,12.1603],[106.2987,12.1673],[106.2819,12.1835],[106.2825,12.1953]]]}},{"type":"Feature","properties":{"c":"100105","en":"Kanhchor","km":"កញ្ជរ"},"geometry":{"type":"Polygon","coordinates":[[[106.1131,12.3663],[106.0801,12.3639],[106.0597,12.3415],[106.0535,12.3379],[106.0441,12.3369],[106.0407,12.3189],[106.0269,12.2921],[106.1409,12.2881],[106.1569,12.3225],[106.1519,12.3405],[106.1587,12.3551],[106.1577,12.3665],[106.1383,12.3629],[106.1131,12.3663]]]}},{"type":"Feature","properties":{"c":"100106","en":"Khsach Andeth","km":"ខ្សាច់អណ្ដែត"},"geometry":{"type":"Polygon","coordinates":[[[105.8827,12.2621],[105.8311,12.2569],[105.8301,12.2435],[105.8373,12.2311],[105.8369,12.2207],[105.8425,12.2049],[105.8519,12.2033],[105.8593,12.2131],[105.8607,12.2193],[105.8647,12.2219],[105.8731,12.2157],[105.8771,12.2179],[105.8837,12.2361],[105.8827,12.2621]]]}},{"type":"Feature","properties":{"c":"100107","en":"Pongro","km":"ពង្រ"},"geometry":{"type":"Polygon","coordinates":[[[105.9141,12.2165],[105.9191,12.2319],[105.9211,12.2633],[105.8827,12.2621],[105.8837,12.2361],[105.8771,12.2179],[105.8831,12.2131],[105.8935,12.2109],[105.9091,12.2145],[105.9101,12.2187],[105.9141,12.2165]]]}},{"type":"Feature","properties":{"c":"100108","en":"Preaek Saman","km":"ព្រែកសាម៉ាន់"},"geometry":{"type":"Polygon","coordinates":[[[106.1409,12.2881],[106.0269,12.2921],[106.0089,12.2723],[105.9937,12.2677],[105.9855,12.2527],[105.9915,12.2455],[105.9853,12.2361],[106.0449,12.2377],[106.0487,12.2323],[106.0587,12.2299],[106.0615,12.2363],[106.0659,12.2397],[106.0753,12.2455],[106.0919,12.2507],[106.1145,12.2415],[106.1475,12.2507],[106.1799,12.2553],[106.1701,12.2705],[106.1601,12.2705],[106.1421,12.2751],[106.1409,12.2881]]]}}]}