{"type":"FeatureCollection","features":[{"type":"Feature","properties":{"c":"100207","en":"Kaoh Trong","km":"សង្កាត់កោះទ្រង់"},"geometry":{"type":"Polygon","coordinates":[[[106.0061,12.5155],[105.9897,12.5317],[105.9809,12.5167],[105.9891,12.4911],[106.0155,12.4637],[106.0117,12.5037],[106.0061,12.5155]]]}},{"type":"Feature","properties":{"c":"100209","en":"Kracheh","km":"សង្កាត់ក្រចេះ"},"geometry":{"type":"Polygon","coordinates":[[[106.0257,12.4981],[106.0121,12.4987],[106.0151,12.4751],[106.0335,12.4755],[106.0257,12.4981]]]}},{"type":"Feature","properties":{"c":"100208","en":"Krakor","km":"សង្កាត់ក្រគរ"},"geometry":{"type":"Polygon","coordinates":[[[106.0461,12.5177],[106.0511,12.5295],[106.0499,12.5367],[106.0449,12.5385],[106.0161,12.5385],[106.0135,12.5237],[106.0061,12.5155],[106.0121,12.4987],[106.0257,12.4981],[106.0261,12.5035],[106.0461,12.5177]]]}},{"type":"Feature","properties":{"c":"100210","en":"Ou Ruessei","km":"សង្កាត់អូរឫស្សី"},"geometry":{"type":"Polygon","coordinates":[[[106.0737,12.4693],[106.0805,12.4735],[106.0909,12.4877],[106.0899,12.5293],[106.0803,12.5263],[106.0631,12.5125],[106.0461,12.5177],[106.0261,12.5035],[106.0263,12.4935],[106.0335,12.4755],[106.0659,12.4749],[106.0737,12.4693]]]}},{"type":"Feature","properties":{"c":"100211","en":"Roka Kandal","km":"សង្កាត់រកាកណ្ដាល"},"geometry":{"type":"Polygon","coordinates":[[[106.0737,12.4693],[106.0659,12.4749],[106.0151,12.4751],[106.0155,12.4637],[106.0235,12.4409],[106.0287,12.4479],[106.0375,12.4485],[106.0393,12.4439],[106.0437,12.4449],[106.0463,12.4419],[106.0415,12.4359],[106.0501,12.4345],[106.0565,12.4377],[106.0595,12.4267],[106.0715,12.4281],[106.0743,12.4563],[106.0709,12.4611],[106.0737,12.4693]]]}}]}