{"type":"FeatureCollection","features":[{"type":"Feature","properties":{"c":"100301","en":"Chambok","km":"ចំបក់"},"geometry":{"type":"Polygon","coordinates":[[[105.8417,12.4671],[105.8161,12.4633],[105.8039,12.4643],[105.8061,12.4571],[105.8061,12.4403],[105.8007,12.4173],[105.8003,12.3891],[105.8041,12.3641],[105.8037,12.3351],[105.8019,12.2999],[105.7959,12.2743],[105.7961,12.2591],[105.8169,12.2599],[105.8311,12.2569],[105.8329,12.2639],[105.8549,12.2793],[105.8499,12.2949],[105.8565,12.3027],[105.8625,12.3139],[105.8619,12.3169],[105.8537,12.3233],[105.8453,12.3227],[105.8407,12.3247],[105.8387,12.3295],[105.8427,12.3457],[105.8435,12.4393],[105.8417,12.4671]]]}},{"type":"Feature","properties":{"c":"100302","en":"Chrouy Banteay","km":"ជ្រោយបន្ទាយ"},"geometry":{"type":"Polygon","coordinates":[[[106.0001,12.6319],[105.9809,12.6489],[105.9711,12.6693],[105.9663,12.6747],[105.9405,12.6815],[105.9123,12.6967],[105.9003,12.6981],[105.8923,12.6961],[105.8625,12.6719],[105.8329,12.6713],[105.8157,12.6761],[105.7911,12.6781],[105.7625,12.6947],[105.7225,12.7117],[105.7171,12.7177],[105.7129,12.7157],[105.7001,12.7245],[105.6925,12.7261],[105.6921,12.7217],[105.6979,12.7101],[105.7123,12.6923],[105.7121,12.6769],[105.7205,12.6525],[105.7227,12.6331],[105.7179,12.6165],[105.7175,12.5953],[105.7219,12.5815],[105.7231,12.5639],[105.7307,12.5395],[105.9305,12.5393],[105.9493,12.5155],[105.9809,12.5167],[106.0139,12.5701],[106.0157,12.5819],[106.0141,12.6041],[106.0095,12.6125],[106.0007,12.6203],[106.0001,12.6319]]]}},{"type":"Feature","properties":{"c":"100303","en":"Kampong Kor","km":"កំពង់គរ"},"geometry":{"type":"Polygon","coordinates":[[[105.9937,12.2677],[105.9921,12.2763],[105.9943,12.2853],[105.9887,12.3025],[105.9791,12.3105],[105.9351,12.4003],[105.9343,12.2927],[105.9325,12.2787],[105.9635,12.2645],[105.9831,12.2635],[105.9919,12.2649],[105.9937,12.2677]]]}},{"type":"Feature","properties":{"c":"100304","en":"Koh Ta Suy","km":"កោះតាស៊ុយ"},"geometry":{"type":"Polygon","coordinates":[[[105.9325,12.2787],[105.9031,12.2841],[105.8651,12.2823],[105.8549,12.2793],[105.8329,12.2639],[105.8311,12.2569],[105.8791,12.2625],[105.9595,12.2659],[105.9325,12.2787]]]}},{"type":"Feature","properties":{"c":"100305","en":"Preaek Prasab","km":"ព្រែកប្រសព្វ"},"geometry":{"type":"Polygon","coordinates":[[[106.0265,12.4213],[105.9671,12.4217],[105.9545,12.4253],[105.9523,12.4281],[105.9403,12.4295],[105.8927,12.4565],[105.8695,12.4643],[105.8417,12.4671],[105.8429,12.3989],[105.9351,12.4003],[105.9791,12.3105],[105.9887,12.3025],[105.9943,12.2853],[105.9921,12.2763],[105.9937,12.2677],[106.0089,12.2723],[106.0239,12.2877],[106.0325,12.3017],[106.0429,12.3267],[106.0441,12.3369],[106.0417,12.3511],[106.0249,12.3869],[106.0265,12.4213]]]}},{"type":"Feature","properties":{"c":"100306","en":"Russey Keo","km":"ឫស្សីកែវ"},"geometry":{"type":"Polygon","coordinates":[[[105.8039,12.4643],[105.7963,12.4669],[105.7473,12.4657],[105.7683,12.4015],[105.7743,12.3655],[105.7759,12.3363],[105.7705,12.3157],[105.7637,12.3115],[105.7593,12.3127],[105.7531,12.3059],[105.7425,12.3013],[105.7453,12.2881],[105.7211,12.2775],[105.7247,12.2695],[105.7399,12.2605],[105.7601,12.2577],[105.7711,12.2599],[105.7961,12.2591],[105.7959,12.2743],[105.8019,12.2999],[105.8037,12.3351],[105.8041,12.3641],[105.8003,12.3891],[105.8007,12.4173],[105.8061,12.4403],[105.8061,12.4571],[105.8039,12.4643]]]}},{"type":"Feature","properties":{"c":"100307","en":"Saob","km":"សោប"},"geometry":{"type":"Polygon","coordinates":[[[105.9809,12.5167],[105.9493,12.5155],[105.9305,12.5393],[105.7307,12.5395],[105.7341,12.4927],[105.7399,12.4747],[105.7473,12.4657],[105.7963,12.4669],[105.8161,12.4633],[105.8445,12.4677],[105.8695,12.4643],[105.8927,12.4565],[105.9403,12.4295],[105.9523,12.4281],[105.9587,12.4239],[105.9717,12.4211],[106.0265,12.4213],[106.0235,12.4409],[106.0155,12.4637],[105.9891,12.4911],[105.9809,12.5167]]]}},{"type":"Feature","properties":{"c":"100308","en":"Ta Mao","km":"តាម៉ៅ"},"geometry":{"type":"Polygon","coordinates":[[[105.9325,12.2787],[105.9343,12.2927],[105.9351,12.4003],[105.8429,12.3989],[105.8427,12.3457],[105.8387,12.3295],[105.8407,12.3247],[105.8453,12.3227],[105.8537,12.3233],[105.8619,12.3169],[105.8625,12.3139],[105.8565,12.3027],[105.8499,12.2949],[105.8549,12.2793],[105.8651,12.2823],[105.8907,12.2843],[105.9139,12.2831],[105.9325,12.2787]]]}}]}