{"type":"FeatureCollection","features":[{"type":"Feature","properties":{"c":"100401","en":"Boeng Char","km":"បឹងចារ"},"geometry":{"type":"Polygon","coordinates":[[[106.0183,13.2231],[106.0057,13.2151],[106.0007,13.2159],[105.9829,13.2273],[105.9675,13.2317],[105.9645,13.2185],[105.9653,13.1963],[105.9575,13.1795],[105.9439,13.1595],[105.9453,13.1521],[105.9321,13.1459],[105.9277,13.1411],[105.9129,13.1361],[105.9053,13.1369],[105.8963,13.1285],[105.8757,13.1169],[105.8679,13.1177],[105.8635,13.1141],[105.8573,13.1141],[105.8353,13.1233],[105.8109,13.1279],[105.8011,13.1323],[105.7953,13.1363],[105.7891,13.1455],[105.7541,13.1693],[105.7517,13.1761],[105.7425,13.1833],[105.7351,13.1851],[105.6951,13.2065],[105.6625,13.2057],[105.6419,13.2147],[105.6177,13.2211],[105.6085,13.2291],[105.5893,13.2301],[105.5877,13.2125],[105.5977,13.1879],[105.6049,13.1525],[105.6109,13.1497],[105.6135,13.1425],[105.6365,13.1287],[105.6395,13.1197],[105.6471,13.1133],[105.6461,13.0969],[105.6317,13.0585],[105.6495,13.0067],[105.6489,12.9977],[105.6431,12.9875],[105.6437,12.9803],[105.6501,12.9731],[105.6617,12.9697],[105.6769,12.9563],[105.6773,12.9499],[105.6711,12.9359],[105.6865,12.9377],[106.0013,12.9355],[106.0197,12.9569],[106.0223,12.9759],[106.0317,13.0023],[106.0313,13.0153],[106.0375,13.0253],[106.0463,13.0331],[106.0453,13.0805],[106.0501,13.1079],[106.0559,13.1307],[106.0677,13.1465],[106.0687,13.1527],[106.0487,13.1785],[106.0417,13.1977],[106.0301,13.2057],[106.0251,13.2159],[106.0183,13.2231]]]}},{"type":"Feature","properties":{"c":"100402","en":"Kampong Cham","km":"កំពង់ចាម"},"geometry":{"type":"Polygon","coordinates":[[[106.0013,12.9355],[105.6865,12.9377],[105.6711,12.9359],[105.6693,12.9327],[105.6561,12.9249],[105.6553,12.9207],[105.6615,12.9039],[105.6777,12.8963],[105.6901,12.8657],[105.6833,12.8443],[105.6715,12.8311],[105.6719,12.8277],[105.6817,12.8169],[105.6843,12.8107],[105.6797,12.8069],[105.6803,12.7933],[105.6765,12.7795],[105.6853,12.7733],[105.6895,12.7589],[105.6949,12.7511],[105.9611,12.7509],[105.9603,12.7803],[105.9559,12.7977],[105.9565,12.8105],[105.9737,12.8559],[105.9727,12.8655],[105.9773,12.8843],[105.9893,12.9025],[106.0013,12.9355]]]}},{"type":"Feature","properties":{"c":"100404","en":"Kaoh Khnhaer","km":"កោះខ្ញែរ"},"geometry":{"type":"Polygon","coordinates":[[[106.0877,12.9725],[106.0215,12.9725],[106.0197,12.9569],[106.0013,12.9355],[105.9893,12.9025],[105.9773,12.8843],[105.9727,12.8655],[105.9737,12.8559],[105.9565,12.8105],[105.9559,12.7977],[105.9603,12.7803],[105.9693,12.7937],[106.0797,12.8033],[106.0869,12.8219],[106.0877,12.9725]]]}},{"type":"Feature","properties":{"c":"100403","en":"Kbal Damrei","km":"ក្បាលដំរី"},"geometry":{"type":"Polygon","coordinates":[[[106.2513,12.9519],[106.1755,12.9451],[106.1473,12.9565],[106.0877,12.9725],[106.0869,12.8219],[106.0797,12.8033],[106.0995,12.7975],[106.1121,12.7911],[106.1141,12.7837],[106.1119,12.7717],[106.1137,12.7629],[106.1213,12.7553],[106.1275,12.7423],[106.1411,12.7355],[106.1557,12.7565],[106.1751,12.7685],[106.1963,12.7741],[106.2065,12.7823],[106.2337,12.7905],[106.2443,12.7873],[106.2611,12.7903],[106.2861,12.7809],[106.2909,12.7815],[106.3011,12.7739],[106.3197,12.7693],[106.3343,12.7471],[106.3389,12.7295],[106.3525,12.7173],[106.3689,12.7333],[106.3757,12.7351],[106.3785,12.7445],[106.3933,12.7485],[106.3975,12.7527],[106.4057,12.7533],[106.4093,12.7611],[106.4059,12.7823],[106.4081,12.7853],[106.4073,12.7899],[106.4145,12.7975],[106.4093,12.8041],[106.4147,12.8217],[106.3365,12.9073],[106.3075,12.9129],[106.2789,12.9215],[106.2725,12.9249],[106.2713,12.9317],[106.2603,12.9473],[106.2573,12.9465],[106.2513,12.9519]]]}},{"type":"Feature","properties":{"c":"100405","en":"Ou Krieng","km":"អូរគ្រៀង"},"geometry":{"type":"Polygon","coordinates":[[[106.2177,13.3605],[106.2079,13.3625],[106.2029,13.3605],[106.1879,13.3675],[106.1805,13.3665],[106.1645,13.3695],[106.1515,13.3651],[106.1329,13.3693],[106.1309,13.3659],[106.1167,13.3673],[106.1041,13.3635],[106.0825,13.3513],[106.0859,13.3423],[106.0851,13.3357],[106.0777,13.3313],[106.0701,13.3145],[106.0619,13.3103],[106.0583,13.2979],[106.0489,13.2943],[106.0473,13.2859],[106.0337,13.2727],[106.0255,13.2591],[106.0239,13.2509],[106.0257,13.2337],[106.0225,13.2259],[106.0183,13.2231],[106.0251,13.2159],[106.0301,13.2057],[106.0417,13.1977],[106.0487,13.1785],[106.0687,13.1527],[106.0677,13.1465],[106.0559,13.1307],[106.0501,13.1079],[106.0453,13.0805],[106.0463,13.0331],[106.0375,13.0253],[106.0313,13.0153],[106.0307,12.9975],[106.0215,12.9725],[106.0877,12.9725],[106.1473,12.9565],[106.1755,12.9451],[106.2513,12.9519],[106.2533,13.1505],[106.2849,13.1827],[106.2911,13.1973],[106.2937,13.2155],[106.2865,13.2353],[106.2725,13.2475],[106.2547,13.2763],[106.2399,13.2935],[106.2261,13.3177],[106.2215,13.3297],[106.2205,13.3513],[106.2177,13.3605]]]}},{"type":"Feature","properties":{"c":"100406","en":"Roluos Mean Chey","km":"រលួសមានជ័យ"},"geometry":{"type":"Polygon","coordinates":[[[106.3501,13.4001],[106.3213,13.4007],[106.3063,13.4071],[106.2993,13.4041],[106.2973,13.4001],[106.2893,13.4031],[106.2819,13.4019],[106.2665,13.4055],[106.2537,13.3921],[106.2455,13.3935],[106.2411,13.3879],[106.2389,13.3697],[106.2177,13.3605],[106.2205,13.3513],[106.2215,13.3297],[106.2261,13.3177],[106.2399,13.2935],[106.2547,13.2763],[106.2725,13.2475],[106.2865,13.2353],[106.2937,13.2155],[106.2911,13.1973],[106.2849,13.1827],[106.2533,13.1505],[106.2513,12.9519],[106.2573,12.9465],[106.2603,12.9473],[106.2713,12.9317],[106.2725,12.9249],[106.2789,12.9215],[106.3075,12.9129],[106.3365,12.9073],[106.4147,12.8217],[106.4135,12.8133],[106.4177,12.8133],[106.4271,12.8191],[106.4289,12.8265],[106.4427,12.8511],[106.4443,13.0113],[106.4253,13.0211],[106.4175,13.0217],[106.4083,13.0309],[106.4035,13.0453],[106.3885,13.0507],[106.3787,13.0577],[106.3549,13.0931],[106.3431,13.1019],[106.3391,13.1161],[106.3411,13.1221],[106.3389,13.1339],[106.3449,13.1603],[106.3497,13.1715],[106.3527,13.1729],[106.3891,13.1723],[106.3989,13.1755],[106.4159,13.1689],[106.4193,13.1705],[106.4289,13.1691],[106.4313,13.1745],[106.4247,13.1939],[106.4073,13.2143],[106.4011,13.2195],[106.3707,13.2345],[106.3663,13.2515],[106.3523,13.2741],[106.3477,13.2865],[106.3459,13.2945],[106.3501,13.3065],[106.3497,13.3191],[106.3565,13.3381],[106.3541,13.3553],[106.3507,13.3613],[106.3531,13.3797],[106.3501,13.4001]]]}},{"type":"Feature","properties":{"c":"100407","en":"Sambour","km":"សំបូរ"},"geometry":{"type":"Polygon","coordinates":[[[105.9985,12.7001],[106.0139,12.7069],[106.0277,12.7091],[106.0445,12.7315],[106.0619,12.7389],[106.0683,12.7535],[106.0707,12.7733],[106.0797,12.8033],[105.9693,12.7937],[105.9663,12.7903],[105.9603,12.7803],[105.9611,12.7509],[105.9823,12.7339],[105.9985,12.7001]]]}},{"type":"Feature","properties":{"c":"100408","en":"Sandan","km":"សណ្ដាន់"},"geometry":{"type":"Polygon","coordinates":[[[106.1411,12.7355],[106.1275,12.7423],[106.1213,12.7553],[106.1137,12.7629],[106.1119,12.7717],[106.1141,12.7837],[106.1121,12.7911],[106.0995,12.7975],[106.0797,12.8033],[106.0707,12.7733],[106.0683,12.7535],[106.0619,12.7389],[106.0445,12.7315],[106.0277,12.7091],[106.0139,12.7069],[105.9985,12.7001],[106.0035,12.6781],[106.0037,12.6539],[106.0243,12.6655],[106.0291,12.6713],[106.0377,12.6699],[106.0427,12.6853],[106.0637,12.6953],[106.0787,12.6953],[106.0943,12.7063],[106.1261,12.7079],[106.1293,12.7101],[106.1325,12.7193],[106.1403,12.7275],[106.1411,12.7355]]]}},{"type":"Feature","properties":{"c":"100409","en":"Srae Chis","km":"ស្រែជិះ"},"geometry":{"type":"Polygon","coordinates":[[[106.6101,12.9141],[106.5921,12.9351],[106.5413,12.9695],[106.4967,12.9919],[106.4627,13.0133],[106.4513,13.0147],[106.4443,13.0113],[106.4427,12.8511],[106.4289,12.8265],[106.4271,12.8191],[106.4209,12.8145],[106.4135,12.8133],[106.4093,12.8041],[106.4145,12.7975],[106.4073,12.7899],[106.4081,12.7853],[106.4059,12.7823],[106.4093,12.7611],[106.4057,12.7533],[106.3975,12.7527],[106.3933,12.7485],[106.3785,12.7445],[106.3757,12.7351],[106.3689,12.7333],[106.3525,12.7173],[106.3591,12.7101],[106.3755,12.7083],[106.4069,12.6845],[106.4101,12.6865],[106.4299,12.7205],[106.4433,12.7327],[106.4817,12.7573],[106.4873,12.7671],[106.5035,12.7791],[106.5115,12.7791],[106.5321,12.7875],[106.5415,12.7873],[106.5987,12.8379],[106.6075,12.8513],[106.6111,12.8635],[106.6137,12.9033],[106.6131,12.9111],[106.6101,12.9141]]]}},{"type":"Feature","properties":{"c":"100410","en":"Voadthonak","km":"វឌ្ឍនៈ"},"geometry":{"type":"Polygon","coordinates":[[[105.9611,12.7509],[105.6949,12.7511],[105.6973,12.7465],[105.6919,12.7301],[105.6925,12.7261],[105.7001,12.7245],[105.7129,12.7157],[105.7171,12.7177],[105.7225,12.7117],[105.7625,12.6947],[105.7957,12.6765],[105.8157,12.6761],[105.8435,12.6703],[105.8591,12.6709],[105.8655,12.6731],[105.8923,12.6961],[105.9003,12.6981],[105.9123,12.6967],[105.9405,12.6815],[105.9663,12.6747],[105.9711,12.6693],[105.9809,12.6489],[106.0001,12.6319],[106.0037,12.6335],[106.0041,12.6711],[105.9985,12.7001],[105.9823,12.7339],[105.9611,12.7509]]]}}]}