{"type":"FeatureCollection","features":[{"type":"Feature","properties":{"c":"100501","en":"Khsuem","km":"ឃ្សឹម"},"geometry":{"type":"Polygon","coordinates":[[[106.5701,12.4011],[106.5637,12.4083],[106.5581,12.4035],[106.5543,12.4035],[106.5491,12.3931],[106.5413,12.3911],[106.5209,12.3797],[106.5061,12.3579],[106.4969,12.3503],[106.4929,12.3489],[106.4805,12.3515],[106.4661,12.3477],[106.4589,12.3521],[106.4463,12.3531],[106.4331,12.3495],[106.4327,12.3309],[106.4237,12.3289],[106.4119,12.3169],[106.4091,12.3129],[106.4089,12.3033],[106.4011,12.2945],[106.3803,12.2955],[106.3709,12.2889],[106.3579,12.2889],[106.3461,12.2819],[106.3421,12.2735],[106.3463,12.2647],[106.3457,12.2599],[106.3419,12.2471],[106.3341,12.2355],[106.3377,12.2257],[106.3299,12.2241],[106.3211,12.2151],[106.3155,12.2129],[106.3229,12.2063],[106.3319,12.2031],[106.3375,12.1943],[106.3537,12.1913],[106.3765,12.1697],[106.4219,12.1461],[106.4465,12.1481],[106.4611,12.1545],[106.4637,12.1487],[106.4709,12.1481],[106.4785,12.1437],[106.4817,12.1449],[106.4847,12.1385],[106.4817,12.1363],[106.4833,12.1333],[106.4893,12.1307],[106.4885,12.1203],[106.4825,12.1175],[106.4859,12.1081],[106.4935,12.1063],[106.4953,12.1085],[106.4977,12.1069],[106.5111,12.1081],[106.5145,12.1053],[106.5185,12.0923],[106.5221,12.0903],[106.5375,12.0979],[106.5449,12.0963],[106.5563,12.0991],[106.5733,12.1195],[106.5867,12.1183],[106.6015,12.1231],[106.6141,12.1193],[106.6363,12.1217],[106.6561,12.1307],[106.6633,12.1309],[106.6747,12.1383],[106.6955,12.1397],[106.7027,12.1443],[106.7231,12.1387],[106.7441,12.1279],[106.7621,12.1309],[106.7685,12.1291],[106.7773,12.1247],[106.7799,12.1185],[106.7911,12.1165],[106.7987,12.1345],[106.7933,12.1535],[106.7981,12.1589],[106.7991,12.1647],[106.7959,12.1743],[106.8013,12.1913],[106.7889,12.2065],[106.7851,12.2151],[106.7681,12.2335],[106.7623,12.2495],[106.7503,12.2565],[106.7467,12.2643],[106.7401,12.2689],[106.7225,12.2747],[106.7037,12.2877],[106.6819,12.2905],[106.6639,12.2975],[106.6513,12.2991],[106.6453,12.3037],[106.6281,12.3059],[106.6083,12.3145],[106.6027,12.3199],[106.5927,12.3385],[106.5701,12.4011]]]}},{"type":"Feature","properties":{"c":"100502","en":"Pir Thnu","km":"ពីរធ្នូ"},"geometry":{"type":"Polygon","coordinates":[[[106.7911,12.1165],[106.7799,12.1185],[106.7773,12.1247],[106.7685,12.1291],[106.7621,12.1309],[106.7441,12.1279],[106.7231,12.1387],[106.7027,12.1443],[106.6955,12.1397],[106.6747,12.1383],[106.6633,12.1309],[106.6561,12.1307],[106.6363,12.1217],[106.6141,12.1193],[106.6015,12.1231],[106.5867,12.1183],[106.5733,12.1195],[106.5563,12.0991],[106.5449,12.0963],[106.5375,12.0979],[106.5285,12.0943],[106.5261,12.0909],[106.5185,12.0923],[106.5145,12.1053],[106.5111,12.1081],[106.4977,12.1069],[106.4953,12.1085],[106.4935,12.1063],[106.4859,12.1081],[106.4907,12.0943],[106.4897,12.0905],[106.4785,12.0843],[106.4621,12.0881],[106.4461,12.0831],[106.4427,12.0757],[106.4335,12.0757],[106.4319,12.0595],[106.4237,12.0613],[106.4253,12.0437],[106.4137,12.0395],[106.4097,12.0327],[106.4085,12.0205],[106.4115,12.0127],[106.4083,12.0023],[106.4111,11.9751],[106.4207,11.9719],[106.4335,11.9731],[106.4335,11.9781],[106.4427,11.9865],[106.4535,11.9885],[106.4639,11.9835],[106.4711,11.9729],[106.4921,11.9691],[106.4957,11.9693],[106.5109,11.9795],[106.5193,11.9809],[106.5325,11.9781],[106.5363,11.9749],[106.5317,11.9735],[106.5299,11.9697],[106.6257,11.9737],[106.6303,11.9713],[106.6311,11.9621],[106.6347,11.9619],[106.6391,11.9733],[106.6427,11.9741],[106.6419,11.9707],[106.6473,11.9647],[106.6597,11.9669],[106.6499,11.9797],[106.6547,11.9891],[106.6705,11.9779],[106.6757,11.9777],[106.6837,11.9653],[106.6951,11.9647],[106.6991,11.9687],[106.7107,11.9685],[106.7157,11.9719],[106.7207,11.9707],[106.7269,11.9817],[106.7383,11.9945],[106.7403,12.0005],[106.7443,12.0017],[106.7477,12.0127],[106.7473,12.0209],[106.7543,12.0239],[106.7561,12.0285],[106.7593,12.0299],[106.7581,12.0325],[106.7619,12.0405],[106.7685,12.0453],[106.7687,12.0493],[106.7813,12.0655],[106.7819,12.0721],[106.7993,12.0851],[106.7911,12.1165]]]}},{"type":"Feature","properties":{"c":"100503","en":"Snuol","km":"ស្នួល"},"geometry":{"type":"Polygon","coordinates":[[[106.3155,12.2129],[106.3113,12.2143],[106.3055,12.2015],[106.2973,12.1999],[106.2959,12.1925],[106.2859,12.1965],[106.2825,12.1953],[106.2819,12.1835],[106.2987,12.1673],[106.3011,12.1603],[106.3103,12.1557],[106.3155,12.1385],[106.3337,12.1263],[106.3415,12.1083],[106.3677,12.0949],[106.3649,12.0725],[106.3907,12.0723],[106.3921,12.0545],[106.4021,12.0485],[106.4073,12.0633],[106.4319,12.0595],[106.4335,12.0757],[106.4427,12.0757],[106.4461,12.0831],[106.4621,12.0881],[106.4785,12.0843],[106.4897,12.0905],[106.4907,12.0943],[106.4825,12.1175],[106.4885,12.1203],[106.4893,12.1307],[106.4833,12.1333],[106.4817,12.1363],[106.4847,12.1385],[106.4817,12.1449],[106.4785,12.1437],[106.4709,12.1481],[106.4637,12.1487],[106.4611,12.1545],[106.4465,12.1481],[106.4219,12.1461],[106.3765,12.1697],[106.3537,12.1913],[106.3375,12.1943],[106.3319,12.2031],[106.3229,12.2063],[106.3155,12.2129]]]}},{"type":"Feature","properties":{"c":"100504","en":"Srae Char","km":"ស្រែចារ"},"geometry":{"type":"Polygon","coordinates":[[[106.4237,12.0613],[106.4073,12.0633],[106.4021,12.0485],[106.3921,12.0545],[106.3907,12.0723],[106.3649,12.0725],[106.3677,12.0949],[106.3415,12.1083],[106.3337,12.1263],[106.3187,12.1351],[106.3121,12.1453],[106.3103,12.1557],[106.3011,12.1603],[106.2989,12.1503],[106.2899,12.1505],[106.2839,12.1459],[106.2805,12.1475],[106.2781,12.1457],[106.2783,12.1419],[106.2737,12.1359],[106.2763,12.1307],[106.2749,12.1273],[106.2705,12.1217],[106.2667,12.1215],[106.2647,12.1139],[106.2519,12.1093],[106.2517,12.1047],[106.2587,12.0987],[106.2573,12.0955],[106.2531,12.0957],[106.2511,12.0859],[106.2469,12.0853],[106.2455,12.0825],[106.2513,12.0767],[106.2519,12.0689],[106.2457,12.0553],[106.2689,12.0429],[106.2711,12.0361],[106.2691,12.0329],[106.2639,12.0333],[106.2563,12.0265],[106.2565,12.0227],[106.2535,12.0207],[106.2627,12.0075],[106.2511,12.0065],[106.2449,12.0003],[106.2395,12.0025],[106.2359,11.9949],[106.2361,11.9887],[106.2313,11.9811],[106.2263,11.9855],[106.2201,11.9855],[106.2273,11.9719],[106.2215,11.9681],[106.2187,11.9623],[106.2211,11.9581],[106.2251,11.9575],[106.2361,11.9659],[106.2405,11.9635],[106.2423,11.9593],[106.2559,11.9537],[106.2589,11.9557],[106.2809,11.9551],[106.2859,11.9605],[106.2883,11.9579],[106.3133,11.9639],[106.3391,11.9577],[106.3535,11.9499],[106.3629,11.9549],[106.3683,11.9513],[106.3789,11.9553],[106.3845,11.9593],[106.3853,11.9637],[106.3979,11.9731],[106.3997,11.9773],[106.4111,11.9751],[106.4083,12.0023],[106.4115,12.0127],[106.4085,12.0205],[106.4097,12.0327],[106.4137,12.0395],[106.4253,12.0437],[106.4237,12.0613]]]}},{"type":"Feature","properties":{"c":"100505","en":"Svay Chreah","km":"ស្វាយជ្រះ"},"geometry":{"type":"Polygon","coordinates":[[[106.5637,12.4083],[106.5565,12.4095],[106.5445,12.4175],[106.5317,12.4215],[106.5251,12.4265],[106.5227,12.4333],[106.5157,12.4377],[106.4973,12.4389],[106.3957,12.5031],[106.3747,12.5119],[106.3615,12.5039],[106.3619,12.4899],[106.3689,12.4831],[106.3677,12.4653],[106.3489,12.4419],[106.3351,12.4395],[106.3287,12.4247],[106.3193,12.4199],[106.3099,12.4089],[106.3081,12.4033],[106.3007,12.3979],[106.2895,12.3953],[106.2847,12.4009],[106.2805,12.4017],[106.2711,12.3941],[106.2617,12.3945],[106.2595,12.3909],[106.2559,12.3905],[106.2525,12.3945],[106.2335,12.3923],[106.2229,12.3961],[106.2145,12.4033],[106.1897,12.4063],[106.1733,12.4131],[106.1733,12.4051],[106.1673,12.4001],[106.1641,12.3773],[106.1577,12.3665],[106.1587,12.3551],[106.1519,12.3405],[106.1569,12.3225],[106.1409,12.2881],[106.1421,12.2751],[106.1601,12.2705],[106.1701,12.2705],[106.1729,12.2681],[106.1777,12.2581],[106.1897,12.2457],[106.1901,12.2345],[106.2045,12.2165],[106.2069,12.1979],[106.2119,12.1931],[106.2207,12.1905],[106.2445,12.1909],[106.2555,12.1951],[106.2709,12.1949],[106.2759,12.1989],[106.2959,12.1925],[106.2973,12.1999],[106.3055,12.2015],[106.3113,12.2143],[106.3155,12.2129],[106.3211,12.2151],[106.3299,12.2241],[106.3377,12.2257],[106.3341,12.2355],[106.3419,12.2471],[106.3457,12.2599],[106.3463,12.2647],[106.3421,12.2735],[106.3461,12.2819],[106.3579,12.2889],[106.3709,12.2889],[106.3803,12.2955],[106.4011,12.2945],[106.4089,12.3033],[106.4091,12.3129],[106.4119,12.3169],[106.4237,12.3289],[106.4327,12.3309],[106.4331,12.3495],[106.4463,12.3531],[106.4589,12.3521],[106.4661,12.3477],[106.4805,12.3515],[106.4929,12.3489],[106.4969,12.3503],[106.5061,12.3579],[106.5209,12.3797],[106.5413,12.3911],[106.5491,12.3931],[106.5519,12.4015],[106.5637,12.4083]]]}}]}