{"type":"FeatureCollection","features":[{"type":"Feature","properties":{"c":"100601","en":"Bos Leav","km":"បុសលាវ"},"geometry":{"type":"Polygon","coordinates":[[[106.1121,12.4301],[106.1073,12.4381],[106.1035,12.4391],[106.0977,12.4361],[106.0927,12.4393],[106.0891,12.4367],[106.0871,12.4517],[106.0787,12.4521],[106.0743,12.4563],[106.0715,12.4281],[106.0595,12.4267],[106.0565,12.4377],[106.0501,12.4345],[106.0415,12.4359],[106.0463,12.4419],[106.0437,12.4449],[106.0393,12.4439],[106.0375,12.4485],[106.0287,12.4479],[106.0235,12.4409],[106.0265,12.4177],[106.0371,12.4105],[106.0439,12.4019],[106.0553,12.3689],[106.0529,12.3461],[106.0489,12.3367],[106.0597,12.3415],[106.0801,12.3639],[106.1131,12.3663],[106.1121,12.4301]]]}},{"type":"Feature","properties":{"c":"100602","en":"Changkrang","km":"ចង្ក្រង់"},"geometry":{"type":"Polygon","coordinates":[[[106.3525,12.7173],[106.3389,12.7295],[106.3343,12.7471],[106.3219,12.7665],[106.3105,12.7597],[106.3103,12.7483],[106.3081,12.7455],[106.2697,12.7317],[106.2583,12.7175],[106.2409,12.7031],[106.2345,12.6935],[106.2209,12.6931],[106.2035,12.6891],[106.1945,12.6851],[106.1821,12.6751],[106.1757,12.6771],[106.1643,12.6859],[106.1401,12.6787],[106.1335,12.6667],[106.1239,12.6597],[106.1113,12.6561],[106.0955,12.6469],[106.0865,12.6361],[106.0795,12.6387],[106.0763,12.6373],[106.0757,12.6317],[106.0663,12.6245],[106.0657,12.6193],[106.0623,12.6193],[106.0627,12.6153],[106.0689,12.6123],[106.0733,12.6035],[106.0745,12.5925],[106.0725,12.5817],[106.0867,12.5803],[106.0905,12.5853],[106.0997,12.5849],[106.1125,12.5787],[106.1213,12.5709],[106.1277,12.5837],[106.1511,12.5823],[106.1923,12.6085],[106.2015,12.6089],[106.2049,12.6057],[106.2147,12.6121],[106.2203,12.6237],[106.2287,12.6249],[106.2317,12.6275],[106.2387,12.6263],[106.2545,12.6299],[106.2621,12.6425],[106.2697,12.6405],[106.2799,12.6483],[106.2881,12.6603],[106.2873,12.6637],[106.2909,12.6693],[106.3057,12.6827],[106.3123,12.6827],[106.3159,12.6859],[106.3159,12.6889],[106.3249,12.7001],[106.3233,12.7043],[106.3261,12.7077],[106.3295,12.7063],[106.3457,12.7095],[106.3525,12.7173]]]}},{"type":"Feature","properties":{"c":"100603","en":"Dar","km":"ដារ"},"geometry":{"type":"Polygon","coordinates":[[[106.1719,12.4999],[106.1817,12.5097],[106.1903,12.5309],[106.1971,12.5327],[106.2075,12.5411],[106.2197,12.5465],[106.2263,12.5543],[106.2131,12.5811],[106.1887,12.6045],[106.1511,12.5823],[106.1319,12.5843],[106.1247,12.5803],[106.1213,12.5709],[106.1249,12.5563],[106.1327,12.5473],[106.1353,12.5397],[106.1069,12.5359],[106.0899,12.5293],[106.0909,12.4877],[106.0805,12.4735],[106.0737,12.4693],[106.0717,12.4583],[106.0787,12.4521],[106.0871,12.4517],[106.0891,12.4367],[106.0927,12.4393],[106.0977,12.4361],[106.1035,12.4391],[106.1073,12.4381],[106.1121,12.4301],[106.1177,12.4353],[106.1241,12.4321],[106.1303,12.4395],[106.1263,12.4437],[106.1291,12.4471],[106.1411,12.4567],[106.1513,12.4577],[106.1583,12.4621],[106.1597,12.4677],[106.1571,12.4847],[106.1623,12.4951],[106.1719,12.4999]]]}},{"type":"Feature","properties":{"c":"100604","en":"Kantuot","km":"កន្ទួត"},"geometry":{"type":"Polygon","coordinates":[[[106.3193,12.4199],[106.3135,12.4315],[106.2991,12.4371],[106.2907,12.4529],[106.2725,12.4673],[106.2693,12.4685],[106.2591,12.4657],[106.2433,12.4693],[106.2011,12.4733],[106.1719,12.4999],[106.1623,12.4951],[106.1571,12.4847],[106.1597,12.4677],[106.1583,12.4621],[106.1475,12.4573],[106.1799,12.4363],[106.1771,12.4125],[106.1849,12.4075],[106.2145,12.4033],[106.2229,12.3961],[106.2335,12.3923],[106.2525,12.3945],[106.2559,12.3905],[106.2595,12.3909],[106.2617,12.3945],[106.2711,12.3941],[106.2805,12.4017],[106.2847,12.4009],[106.2895,12.3953],[106.3007,12.3979],[106.3081,12.4033],[106.3099,12.4089],[106.3193,12.4199]]]}},{"type":"Feature","properties":{"c":"100606","en":"Kaoh Chraeng","km":"កោះច្រែង"},"geometry":{"type":"Polygon","coordinates":[[[106.0489,12.3367],[106.0529,12.3461],[106.0553,12.3689],[106.0439,12.4019],[106.0371,12.4105],[106.0265,12.4177],[106.0243,12.3983],[106.0255,12.3835],[106.0407,12.3539],[106.0441,12.3369],[106.0489,12.3367]]]}},{"type":"Feature","properties":{"c":"100605","en":"Kou Loab","km":"គោលាប់"},"geometry":{"type":"Polygon","coordinates":[[[106.1213,12.5709],[106.1125,12.5787],[106.0997,12.5849],[106.0905,12.5853],[106.0867,12.5803],[106.0725,12.5817],[106.0735,12.5887],[106.0419,12.5761],[106.0401,12.5725],[106.0405,12.5387],[106.0499,12.5367],[106.0515,12.5333],[106.0461,12.5177],[106.0631,12.5125],[106.0803,12.5263],[106.0971,12.5329],[106.1353,12.5397],[106.1327,12.5473],[106.1249,12.5563],[106.1213,12.5709]]]}},{"type":"Feature","properties":{"c":"100607","en":"Sambok","km":"សំបុក"},"geometry":{"type":"Polygon","coordinates":[[[106.3219,12.7665],[106.3137,12.7715],[106.3011,12.7739],[106.2909,12.7815],[106.2861,12.7809],[106.2611,12.7903],[106.2443,12.7873],[106.2337,12.7905],[106.2065,12.7823],[106.1963,12.7741],[106.1751,12.7685],[106.1557,12.7565],[106.1411,12.7355],[106.1403,12.7275],[106.1325,12.7193],[106.1293,12.7101],[106.1261,12.7079],[106.0943,12.7063],[106.0787,12.6953],[106.0637,12.6953],[106.0427,12.6853],[106.0377,12.6699],[106.0291,12.6713],[106.0243,12.6655],[106.0037,12.6539],[106.0037,12.6335],[106.0001,12.6319],[106.0001,12.6241],[106.0007,12.6203],[106.0095,12.6125],[106.0141,12.6041],[106.0157,12.5819],[106.0139,12.5701],[106.0217,12.5695],[106.0283,12.5723],[106.0363,12.5699],[106.0447,12.5779],[106.0735,12.5887],[106.0733,12.6035],[106.0689,12.6123],[106.0627,12.6153],[106.0623,12.6193],[106.0657,12.6193],[106.0663,12.6245],[106.0757,12.6317],[106.0763,12.6373],[106.0795,12.6387],[106.0865,12.6361],[106.0955,12.6469],[106.1113,12.6561],[106.1239,12.6597],[106.1335,12.6667],[106.1401,12.6787],[106.1643,12.6859],[106.1757,12.6771],[106.1821,12.6751],[106.1945,12.6851],[106.2035,12.6891],[106.2209,12.6931],[106.2345,12.6935],[106.2409,12.7031],[106.2583,12.7175],[106.2697,12.7317],[106.3081,12.7455],[106.3103,12.7483],[106.3105,12.7597],[106.3219,12.7665]]]}},{"type":"Feature","properties":{"c":"100608","en":"Thma Andaeuk","km":"ថ្មអណ្ដើក"},"geometry":{"type":"Polygon","coordinates":[[[106.1771,12.4125],[106.1799,12.4363],[106.1475,12.4573],[106.1411,12.4567],[106.1263,12.4437],[106.1303,12.4395],[106.1241,12.4321],[106.1177,12.4353],[106.1107,12.4275],[106.1131,12.3663],[106.1383,12.3629],[106.1577,12.3665],[106.1641,12.3773],[106.1673,12.4001],[106.1733,12.4051],[106.1733,12.4131],[106.1771,12.4125]]]}},{"type":"Feature","properties":{"c":"100609","en":"Thma Kreae","km":"ថ្មគ្រែ"},"geometry":{"type":"Polygon","coordinates":[[[106.0405,12.5387],[106.0401,12.5725],[106.0363,12.5699],[106.0283,12.5723],[106.0217,12.5695],[106.0139,12.5701],[105.9897,12.5317],[106.0061,12.5155],[106.0135,12.5237],[106.0161,12.5385],[106.0405,12.5387]]]}},{"type":"Feature","properties":{"c":"100610","en":"Thmei","km":"ថ្មី"},"geometry":{"type":"Polygon","coordinates":[[[106.4069,12.6845],[106.3755,12.7083],[106.3591,12.7101],[106.3525,12.7173],[106.3457,12.7095],[106.3295,12.7063],[106.3261,12.7077],[106.3233,12.7043],[106.3249,12.7001],[106.3159,12.6889],[106.3159,12.6859],[106.3123,12.6827],[106.3057,12.6827],[106.2909,12.6693],[106.2873,12.6637],[106.2881,12.6603],[106.2799,12.6483],[106.2697,12.6405],[106.2621,12.6425],[106.2545,12.6299],[106.2387,12.6263],[106.2317,12.6275],[106.2287,12.6249],[106.2203,12.6237],[106.2147,12.6121],[106.2049,12.6057],[106.2015,12.6089],[106.1923,12.6085],[106.1887,12.6045],[106.2131,12.5811],[106.2263,12.5543],[106.2197,12.5465],[106.2075,12.5411],[106.1971,12.5327],[106.1903,12.5309],[106.1817,12.5097],[106.1719,12.4999],[106.1739,12.4967],[106.2011,12.4733],[106.2433,12.4693],[106.2591,12.4657],[106.2693,12.4685],[106.2725,12.4673],[106.2907,12.4529],[106.2991,12.4371],[106.3135,12.4315],[106.3193,12.4199],[106.3287,12.4247],[106.3351,12.4395],[106.3489,12.4419],[106.3677,12.4653],[106.3689,12.4831],[106.3619,12.4899],[106.3615,12.5039],[106.3747,12.5119],[106.3633,12.5215],[106.3591,12.5287],[106.3595,12.5367],[106.3649,12.5597],[106.3993,12.6421],[106.4023,12.6719],[106.4069,12.6845]]]}}]}