{"type":"FeatureCollection","features":[{"type":"Feature","properties":{"c":"110101","en":"Chong Phlah","km":"ចុងផ្លាស់"},"geometry":{"type":"Polygon","coordinates":[[[106.9035,12.6121],[106.8961,12.6177],[106.8953,12.6237],[106.8899,12.6269],[106.8837,12.6389],[106.8701,12.6339],[106.8645,12.6361],[106.8569,12.6265],[106.8529,12.6257],[106.8415,12.6311],[106.8371,12.6297],[106.8291,12.6319],[106.8119,12.6467],[106.8017,12.6393],[106.7935,12.6413],[106.7699,12.6349],[106.7627,12.6359],[106.7591,12.6391],[106.7573,12.6461],[106.7459,12.6497],[106.7395,12.6603],[106.7247,12.6555],[106.7169,12.6443],[106.7053,12.6435],[106.7053,12.6365],[106.7011,12.6325],[106.6893,12.6331],[106.6743,12.6393],[106.6555,12.6423],[106.6455,12.6485],[106.6301,12.6647],[106.6027,12.6741],[106.5931,12.6813],[106.5839,12.6899],[106.5667,12.7171],[106.5599,12.7227],[106.5081,12.7459],[106.4921,12.7575],[106.4817,12.7573],[106.4433,12.7327],[106.4319,12.7227],[106.4123,12.6899],[106.4069,12.6845],[106.4023,12.6719],[106.3993,12.6421],[106.3649,12.5597],[106.3591,12.5287],[106.3665,12.5181],[106.3785,12.5093],[106.3957,12.5031],[106.4973,12.4389],[106.5093,12.4391],[106.5199,12.4355],[106.5273,12.4245],[106.5363,12.4187],[106.5445,12.4175],[106.5565,12.4095],[106.5637,12.4083],[106.5701,12.4011],[106.6261,12.4529],[106.6643,12.4907],[106.6743,12.5043],[106.7055,12.5197],[106.7915,12.5529],[106.8431,12.5593],[106.8923,12.5615],[106.9101,12.5763],[106.9359,12.5723],[106.9359,12.5837],[106.9261,12.5955],[106.9263,12.6029],[106.9035,12.6121]]]}},{"type":"Feature","properties":{"c":"110102","en":"Memang","km":"មេម៉ង់"},"geometry":{"type":"Polygon","coordinates":[[[107.0433,12.5469],[107.0281,12.5537],[107.0041,12.5599],[106.9535,12.5955],[106.9263,12.6029],[106.9261,12.5955],[106.9359,12.5837],[106.9359,12.5723],[106.9101,12.5763],[106.8923,12.5615],[106.8431,12.5593],[106.8035,12.5543],[106.8033,12.5513],[106.8183,12.5461],[106.8177,12.5431],[106.8237,12.5375],[106.8227,12.5333],[106.8147,12.5287],[106.8025,12.5301],[106.7855,12.5199],[106.7787,12.5143],[106.7781,12.5105],[106.7651,12.5053],[106.7719,12.4933],[106.7725,12.4867],[106.7877,12.4757],[106.7919,12.4705],[106.7897,12.4673],[106.7921,12.4655],[106.8027,12.4653],[106.8063,12.4675],[106.8069,12.4633],[106.8113,12.4615],[106.8127,12.4643],[106.8187,12.4615],[106.8229,12.4641],[106.8333,12.4647],[106.8363,12.4627],[106.8365,12.4555],[106.8405,12.4525],[106.8487,12.4495],[106.8501,12.4465],[106.8555,12.4467],[106.8573,12.4423],[106.8623,12.4427],[106.8747,12.4379],[106.8889,12.4259],[106.8923,12.4317],[106.8961,12.4323],[106.8961,12.4261],[106.9131,12.4205],[106.9177,12.4217],[106.9201,12.4251],[106.9229,12.4237],[106.9291,12.4301],[106.9325,12.4307],[106.9327,12.4267],[106.9391,12.4297],[106.9439,12.4279],[106.9515,12.4317],[106.9649,12.4303],[106.9687,12.4313],[106.9679,12.4349],[106.9729,12.4375],[106.9799,12.4391],[106.9831,12.4373],[106.9971,12.4377],[107.0037,12.4407],[107.0123,12.4389],[107.0249,12.4407],[107.0387,12.4337],[107.0385,12.4547],[107.0357,12.4573],[107.0379,12.4607],[107.0327,12.4707],[107.0391,12.5063],[107.0399,12.5293],[107.0447,12.5439],[107.0433,12.5469]]]}},{"type":"Feature","properties":{"c":"110103","en":"Srae Chhuk","km":"ស្រែឈូក"},"geometry":{"type":"Polygon","coordinates":[[[106.8033,12.5513],[106.8035,12.5543],[106.7987,12.5543],[106.7857,12.5509],[106.7185,12.5253],[106.6743,12.5043],[106.6643,12.4907],[106.6261,12.4529],[106.5701,12.4011],[106.5927,12.3385],[106.6027,12.3199],[106.6083,12.3145],[106.6281,12.3059],[106.6453,12.3037],[106.6513,12.2991],[106.6639,12.2975],[106.6819,12.2905],[106.7037,12.2877],[106.7225,12.2747],[106.7321,12.2729],[106.7359,12.2831],[106.7335,12.2887],[106.7389,12.2945],[106.7429,12.3079],[106.7483,12.3163],[106.7529,12.3161],[106.7583,12.3265],[106.7623,12.3265],[106.7689,12.3381],[106.7885,12.3425],[106.7953,12.3485],[106.8047,12.3493],[106.8065,12.3535],[106.8179,12.3525],[106.8187,12.4615],[106.8127,12.4643],[106.8113,12.4615],[106.8069,12.4633],[106.8063,12.4675],[106.7997,12.4651],[106.7897,12.4673],[106.7919,12.4705],[106.7877,12.4757],[106.7725,12.4867],[106.7719,12.4933],[106.7651,12.5053],[106.7781,12.5105],[106.7787,12.5143],[106.7855,12.5199],[106.8025,12.5301],[106.8147,12.5287],[106.8227,12.5333],[106.8237,12.5375],[106.8177,12.5431],[106.8183,12.5461],[106.8033,12.5513]]]}},{"type":"Feature","properties":{"c":"110104","en":"Srae Khtum","km":"ស្រែខ្ទុម"},"geometry":{"type":"Polygon","coordinates":[[[107.0379,12.1311],[107.0341,12.1445],[107.0395,12.1513],[107.0403,12.1561],[107.0351,12.1645],[107.0371,12.1685],[107.0355,12.1819],[107.0323,12.1847],[107.0289,12.1831],[107.0151,12.1851],[107.0151,12.1923],[107.0193,12.2043],[107.0137,12.2065],[107.0083,12.2029],[106.9997,12.2029],[106.9723,12.1955],[106.9573,12.1983],[106.9509,12.1961],[106.9357,12.2009],[106.9289,12.1951],[106.9213,12.1925],[106.9207,12.1891],[106.9093,12.1875],[106.9049,12.1825],[106.8871,12.1877],[106.8785,12.1859],[106.8737,12.1819],[106.8597,12.1875],[106.8507,12.1827],[106.8465,12.1887],[106.8373,12.1871],[106.8355,12.1901],[106.8013,12.1913],[106.7959,12.1743],[106.7991,12.1647],[106.7981,12.1589],[106.7933,12.1535],[106.7987,12.1345],[106.7911,12.1165],[106.8017,12.0817],[106.8109,12.0797],[106.8163,12.0831],[106.8243,12.0829],[106.8359,12.0725],[106.8443,12.0739],[106.8543,12.0671],[106.8707,12.0731],[106.8797,12.0733],[106.8881,12.0719],[106.8983,12.0661],[106.9117,12.0667],[106.9183,12.0627],[106.9403,12.0687],[106.9437,12.0677],[106.9535,12.0749],[107.0027,12.0893],[107.0157,12.1065],[107.0293,12.1143],[107.0379,12.1311]]]}},{"type":"Feature","properties":{"c":"110105","en":"Srae Preah","km":"ស្រែព្រះ"},"geometry":{"type":"Polygon","coordinates":[[[106.9487,12.3689],[106.9301,12.3663],[106.9277,12.3633],[106.9207,12.3631],[106.9155,12.3577],[106.8917,12.3543],[106.8897,12.3507],[106.8857,12.3529],[106.8821,12.3483],[106.8731,12.3485],[106.8669,12.3517],[106.8583,12.3435],[106.8567,12.3515],[106.8535,12.3529],[106.8513,12.3503],[106.8349,12.3565],[106.8233,12.3511],[106.8065,12.3535],[106.8047,12.3493],[106.7953,12.3485],[106.7885,12.3425],[106.7689,12.3381],[106.7623,12.3265],[106.7583,12.3265],[106.7529,12.3161],[106.7483,12.3163],[106.7429,12.3079],[106.7389,12.2945],[106.7335,12.2887],[106.7359,12.2831],[106.7321,12.2729],[106.7467,12.2643],[106.7503,12.2565],[106.7623,12.2495],[106.7681,12.2335],[106.7851,12.2151],[106.7889,12.2065],[106.8013,12.1913],[106.8355,12.1901],[106.8373,12.1871],[106.8465,12.1887],[106.8507,12.1827],[106.8597,12.1875],[106.8737,12.1819],[106.8785,12.1859],[106.8871,12.1877],[106.9049,12.1825],[106.9093,12.1875],[106.9207,12.1891],[106.9213,12.1925],[106.9289,12.1951],[106.9357,12.2009],[106.9509,12.1961],[106.9573,12.1983],[106.9723,12.1955],[106.9997,12.2029],[107.0083,12.2029],[107.0137,12.2065],[107.0063,12.2205],[107.0019,12.2415],[107.0063,12.2467],[107.0047,12.2513],[107.0095,12.2661],[106.9991,12.2875],[106.9931,12.2853],[106.9901,12.2867],[106.9835,12.2951],[106.9623,12.3073],[106.9533,12.3205],[106.9535,12.3323],[106.9465,12.3415],[106.9471,12.3509],[106.9507,12.3515],[106.9519,12.3555],[106.9487,12.3689]]]}}]}