{"type":"FeatureCollection","features":[{"type":"Feature","properties":{"c":"110202","en":"A Buon Leu","km":"អ បួនលើ"},"geometry":{"type":"Polygon","coordinates":[[[107.3385,13.3161],[107.3183,13.3155],[107.3097,13.3091],[107.3023,13.3073],[107.2911,13.3101],[107.2697,13.3587],[107.2465,13.3673],[107.2403,13.3661],[107.2361,13.3605],[107.2375,13.3459],[107.2347,13.3367],[107.2197,13.3315],[107.2141,13.3255],[107.2135,13.3215],[107.2211,13.3189],[107.2229,13.3099],[107.2301,13.3055],[107.2325,13.2961],[107.2453,13.2897],[107.2511,13.2807],[107.2501,13.2735],[107.2555,13.2635],[107.2535,13.2573],[107.2545,13.2475],[107.2661,13.2379],[107.2709,13.2261],[107.2879,13.2093],[107.3003,13.1523],[107.3095,13.1279],[107.5315,13.1249],[107.5569,13.1927],[107.6029,13.3025],[107.6001,13.3019],[107.5921,13.3063],[107.5845,13.3049],[107.5811,13.2953],[107.5743,13.2935],[107.5649,13.2839],[107.5561,13.2873],[107.5497,13.2935],[107.5329,13.2997],[107.5167,13.2957],[107.5111,13.3017],[107.5073,13.3025],[107.5007,13.2967],[107.4969,13.2973],[107.4673,13.3345],[107.4579,13.3309],[107.4553,13.3191],[107.4485,13.3209],[107.4445,13.3193],[107.4427,13.3145],[107.4383,13.3121],[107.4183,13.3063],[107.4029,13.2971],[107.4053,13.2867],[107.4023,13.2855],[107.3957,13.2881],[107.3895,13.2805],[107.3815,13.2819],[107.3703,13.2771],[107.3605,13.2869],[107.3565,13.2967],[107.3469,13.3039],[107.3385,13.3161]]]}},{"type":"Feature","properties":{"c":"110201","en":"Nang Khi Lik","km":"ណងឃីលិក"},"geometry":{"type":"Polygon","coordinates":[[[107.2135,13.3215],[107.1897,13.3079],[107.1685,13.3065],[107.1593,13.3119],[107.1575,13.3237],[107.1535,13.3269],[107.1457,13.3309],[107.1369,13.3309],[107.1335,13.3299],[107.1239,13.3161],[107.1109,13.3097],[107.0943,13.3091],[107.0785,13.3211],[107.0759,13.3173],[107.0785,13.3137],[107.0705,13.3111],[107.0703,13.3079],[107.0751,13.3023],[107.0713,13.2995],[107.0759,13.2979],[107.0777,13.2945],[107.0745,13.2943],[107.0813,13.2881],[107.0817,13.2793],[107.0891,13.2743],[107.0899,13.2703],[107.0877,13.2593],[107.0905,13.2553],[107.0873,13.2523],[107.0911,13.2485],[107.0931,13.2409],[107.0869,13.2373],[107.0891,13.2351],[107.0835,13.2301],[107.0847,13.2231],[107.0821,13.2097],[107.0837,13.2053],[107.0725,13.1941],[107.0693,13.1949],[107.0639,13.1905],[107.0595,13.1821],[107.0487,13.1737],[107.0373,13.1741],[107.0309,13.1851],[107.0239,13.1867],[107.0153,13.1845],[107.0427,13.1443],[107.0779,13.1031],[107.0941,13.1221],[107.1205,13.1361],[107.1309,13.1461],[107.2571,13.1457],[107.3003,13.1287],[107.3095,13.1279],[107.3003,13.1523],[107.2879,13.2093],[107.2709,13.2261],[107.2661,13.2379],[107.2545,13.2475],[107.2549,13.2673],[107.2513,13.2705],[107.2521,13.2773],[107.2469,13.2873],[107.2389,13.2943],[107.2325,13.2961],[107.2301,13.3055],[107.2229,13.3099],[107.2211,13.3189],[107.2135,13.3215]]]}},{"type":"Feature","properties":{"c":"110203","en":"Roya","km":"រយ៉"},"geometry":{"type":"Polygon","coordinates":[[[106.6081,13.3229],[106.6009,13.3191],[106.5895,13.3279],[106.5733,13.3347],[106.5581,13.3505],[106.5339,13.3481],[106.5243,13.3493],[106.5121,13.3553],[106.4905,13.3803],[106.4623,13.3927],[106.4199,13.4171],[106.4043,13.4147],[106.3773,13.4045],[106.3501,13.4001],[106.3531,13.3797],[106.3507,13.3613],[106.3541,13.3553],[106.3565,13.3381],[106.3497,13.3191],[106.3501,13.3065],[106.3459,13.2945],[106.3477,13.2865],[106.3523,13.2741],[106.3663,13.2515],[106.3707,13.2345],[106.4011,13.2195],[106.4073,13.2143],[106.4247,13.1939],[106.4313,13.1745],[106.4289,13.1691],[106.4193,13.1705],[106.4159,13.1689],[106.3989,13.1755],[106.3891,13.1723],[106.3527,13.1729],[106.3497,13.1715],[106.3449,13.1603],[106.3389,13.1339],[106.3411,13.1221],[106.3391,13.1161],[106.3445,13.0993],[106.3549,13.0931],[106.3817,13.0543],[106.4035,13.0453],[106.4083,13.0309],[106.4175,13.0217],[106.4253,13.0211],[106.4411,13.0113],[106.4513,13.0147],[106.4627,13.0133],[106.4967,12.9919],[106.5273,12.9775],[106.5921,12.9351],[106.6101,12.9141],[106.6167,12.9151],[106.6399,12.9275],[106.7343,12.9957],[106.7435,12.9979],[106.7953,12.9961],[106.8061,13.0221],[106.9705,13.0207],[106.9737,13.0221],[106.9819,13.0391],[107.0069,13.0471],[107.0215,13.0721],[107.0309,13.0827],[107.0585,13.0965],[107.0779,13.1031],[107.0427,13.1443],[107.0303,13.1605],[107.0199,13.1791],[107.0123,13.1859],[107.0051,13.1877],[106.9803,13.1779],[106.9747,13.1815],[106.9633,13.1839],[106.9539,13.1779],[106.9339,13.1739],[106.9117,13.1787],[106.8985,13.1751],[106.8737,13.1743],[106.8635,13.1751],[106.7967,13.1953],[106.7793,13.1979],[106.7459,13.2275],[106.6081,13.3229]]]}},{"type":"Feature","properties":{"c":"110204","en":"Sokh Sant","km":"សុខសាន្ដ"},"geometry":{"type":"MultiPolygon","coordinates":[[[[106.6131,12.9111],[106.6101,12.9141],[106.6167,12.9151],[106.6131,12.9111]]],[[[106.6399,12.9275],[106.7343,12.9957],[106.7435,12.9979],[106.7953,12.9961],[106.8061,13.0221],[106.9705,13.0207],[106.9737,13.0221],[106.9819,13.0391],[107.0069,13.0471],[107.0215,13.0267],[107.0517,13.0025],[107.0569,12.9939],[107.0603,12.9797],[107.0657,12.9739],[107.0845,12.9705],[107.0993,12.9631],[107.1067,12.9633],[107.1203,12.9537],[107.1277,12.9537],[107.1425,12.9591],[107.1571,12.9557],[107.1605,12.9445],[107.1595,12.9297],[107.1629,12.9155],[107.1775,12.9067],[107.1693,12.9001],[107.0967,12.8661],[107.0463,12.8373],[107.0393,12.8365],[107.0299,12.8403],[107.0197,12.8575],[106.9911,12.8849],[106.9919,12.8951],[106.9887,12.9013],[106.9589,12.9129],[106.9299,12.9033],[106.8993,12.9031],[106.8797,12.8941],[106.8535,12.8937],[106.8095,12.8845],[106.7791,12.8881],[106.7279,12.8889],[106.6923,12.8817],[106.6757,12.8901],[106.6627,12.8895],[106.6525,12.8935],[106.6453,12.8931],[106.6385,12.8981],[106.6265,12.8989],[106.6167,12.9151],[106.6399,12.9275]]]]}},{"type":"Feature","properties":{"c":"110205","en":"Srae Huy","km":"ស្រែហ៊ុយ"},"geometry":{"type":"Polygon","coordinates":[[[107.3065,13.1273],[107.2571,13.1457],[107.1309,13.1461],[107.1205,13.1361],[107.0941,13.1221],[107.0743,13.1007],[107.0585,13.0965],[107.0381,13.0849],[107.1073,13.0471],[107.2059,13.0465],[107.2461,13.0337],[107.2595,13.0193],[107.3221,13.0167],[107.3593,13.0069],[107.3807,13.0171],[107.3935,13.0205],[107.4177,13.0123],[107.4241,13.0141],[107.4383,13.0113],[107.4765,13.0109],[107.4907,13.0157],[107.5315,13.1249],[107.3065,13.1273]]]}},{"type":"Feature","properties":{"c":"110206","en":"Srae Sangkum","km":"ស្រែសង្គម"},"geometry":{"type":"Polygon","coordinates":[[[107.4907,13.0157],[107.4765,13.0109],[107.4415,13.0111],[107.4241,13.0141],[107.4177,13.0123],[107.3935,13.0205],[107.3807,13.0171],[107.3593,13.0069],[107.3221,13.0167],[107.2595,13.0193],[107.2461,13.0337],[107.2059,13.0465],[107.1073,13.0471],[107.0381,13.0849],[107.0309,13.0827],[107.0239,13.0757],[107.0069,13.0471],[107.0215,13.0267],[107.0517,13.0025],[107.0569,12.9939],[107.0603,12.9797],[107.0657,12.9739],[107.0845,12.9705],[107.0993,12.9631],[107.1067,12.9633],[107.1203,12.9537],[107.1277,12.9537],[107.1425,12.9591],[107.1571,12.9557],[107.1605,12.9445],[107.1595,12.9297],[107.1629,12.9155],[107.1775,12.9067],[107.1851,12.9097],[107.1911,12.9093],[107.1941,12.9071],[107.1981,12.8955],[107.2149,12.8907],[107.2327,12.8745],[107.2409,12.8721],[107.2497,12.8721],[107.2551,12.8751],[107.2685,12.8769],[107.2809,12.8741],[107.2943,12.8787],[107.3005,12.8833],[107.3129,12.8843],[107.3193,12.8807],[107.3375,12.8783],[107.3475,12.8717],[107.3585,12.8687],[107.3937,12.8755],[107.4015,12.8633],[107.4193,12.8699],[107.4229,12.8685],[107.4297,12.8705],[107.4523,12.8823],[107.4583,12.8861],[107.4703,12.9061],[107.4837,12.9057],[107.4911,12.9091],[107.4949,12.9069],[107.4961,12.9111],[107.4997,12.9125],[107.5007,12.9169],[107.4929,12.9267],[107.4937,12.9355],[107.4861,12.9427],[107.4853,12.9469],[107.4875,12.9505],[107.4867,12.9593],[107.4897,12.9647],[107.4875,12.9689],[107.4891,12.9715],[107.5025,12.9743],[107.5025,12.9781],[107.4969,12.9857],[107.4979,12.9987],[107.4913,13.0017],[107.4925,13.0127],[107.4907,13.0157]]]}}]}