{"type":"FeatureCollection","features":[{"type":"Feature","properties":{"c":"110301","en":"Dak Dam","km":"ដាក់ដាំ"},"geometry":{"type":"Polygon","coordinates":[[[107.3827,12.5247],[107.3487,12.5233],[107.3263,12.5259],[107.2837,12.5213],[107.2775,12.4981],[107.2813,12.4929],[107.2797,12.4849],[107.2815,12.4637],[107.2741,12.4597],[107.2707,12.4521],[107.2559,12.4353],[107.2623,12.4315],[107.2657,12.4103],[107.2743,12.3807],[107.2941,12.3287],[107.3025,12.3285],[107.3089,12.3323],[107.3123,12.3295],[107.3129,12.3227],[107.3167,12.3221],[107.3265,12.3261],[107.3383,12.3273],[107.3457,12.3337],[107.3501,12.3267],[107.3563,12.3213],[107.3607,12.3205],[107.3755,12.3051],[107.3785,12.2961],[107.3825,12.2945],[107.3849,12.2879],[107.3887,12.2851],[107.3875,12.2711],[107.3957,12.2647],[107.3991,12.2565],[107.4185,12.2435],[107.4211,12.2465],[107.4343,12.2475],[107.4421,12.2655],[107.4393,12.2697],[107.4399,12.2751],[107.4431,12.2779],[107.4459,12.2903],[107.4639,12.2987],[107.4693,12.3113],[107.5123,12.3297],[107.5179,12.3379],[107.5263,12.3401],[107.5285,12.3459],[107.5349,12.3469],[107.5361,12.3509],[107.5419,12.3503],[107.5449,12.3527],[107.5473,12.3603],[107.5465,12.3687],[107.5445,12.3735],[107.4573,12.3749],[107.4055,12.4165],[107.3979,12.4307],[107.3989,12.4411],[107.3967,12.4523],[107.3909,12.4537],[107.3919,12.4669],[107.3895,12.4727],[107.3935,12.4801],[107.3905,12.4903],[107.3837,12.4981],[107.3859,12.5081],[107.3895,12.5115],[107.3833,12.5187],[107.3827,12.5247]]]}},{"type":"Feature","properties":{"c":"110302","en":"Saen Monourom","km":"សែនមនោរម្យ"},"geometry":{"type":"Polygon","coordinates":[[[107.0387,12.4337],[107.0249,12.4407],[107.0123,12.4389],[107.0037,12.4407],[106.9885,12.4369],[106.9799,12.4391],[106.9679,12.4349],[106.9687,12.4313],[106.9649,12.4303],[106.9515,12.4317],[106.9439,12.4279],[106.9391,12.4297],[106.9327,12.4267],[106.9325,12.4307],[106.9291,12.4301],[106.9229,12.4237],[106.9201,12.4251],[106.9177,12.4217],[106.9131,12.4205],[106.8961,12.4261],[106.8961,12.4323],[106.8923,12.4317],[106.8889,12.4259],[106.8747,12.4379],[106.8623,12.4427],[106.8573,12.4423],[106.8555,12.4467],[106.8501,12.4465],[106.8487,12.4495],[106.8441,12.4501],[106.8365,12.4555],[106.8363,12.4627],[106.8333,12.4647],[106.8229,12.4641],[106.8187,12.4615],[106.8179,12.3525],[106.8291,12.3523],[106.8349,12.3565],[106.8513,12.3503],[106.8535,12.3529],[106.8567,12.3515],[106.8583,12.3435],[106.8669,12.3517],[106.8731,12.3485],[106.8821,12.3483],[106.8857,12.3529],[106.8897,12.3507],[106.8917,12.3543],[106.9155,12.3577],[106.9207,12.3631],[106.9277,12.3633],[106.9301,12.3663],[106.9487,12.3689],[106.9519,12.3555],[106.9507,12.3515],[106.9471,12.3509],[106.9465,12.3415],[106.9535,12.3323],[106.9533,12.3205],[106.9623,12.3073],[106.9835,12.2951],[106.9901,12.2867],[106.9931,12.2853],[106.9991,12.2875],[107.0095,12.2661],[107.0047,12.2513],[107.0063,12.2467],[107.0019,12.2415],[107.0063,12.2205],[107.0137,12.2065],[107.0193,12.2043],[107.0151,12.1923],[107.0151,12.1851],[107.0289,12.1831],[107.0323,12.1847],[107.0355,12.1819],[107.0371,12.1685],[107.0351,12.1645],[107.0403,12.1561],[107.0395,12.1513],[107.0341,12.1445],[107.0379,12.1311],[107.0455,12.1329],[107.0487,12.1361],[107.0507,12.1423],[107.0545,12.1439],[107.0537,12.1483],[107.0605,12.1613],[107.0631,12.1587],[107.0783,12.1641],[107.0799,12.1683],[107.0701,12.1779],[107.0745,12.1879],[107.0805,12.1853],[107.0875,12.1857],[107.0875,12.1823],[107.0917,12.1813],[107.0979,12.1919],[107.1007,12.2059],[107.1127,12.2189],[107.1155,12.2169],[107.1261,12.2267],[107.1307,12.2261],[107.1383,12.2303],[107.1383,12.2439],[107.1417,12.2503],[107.1449,12.2507],[107.1443,12.2581],[107.1477,12.2597],[107.1469,12.2643],[107.1511,12.2667],[107.1535,12.2763],[107.1835,12.2841],[107.1863,12.2899],[107.1931,12.2955],[107.2015,12.2981],[107.2193,12.2993],[107.2209,12.2967],[107.2307,12.2963],[107.2643,12.3179],[107.2701,12.3253],[107.2831,12.3225],[107.2941,12.3287],[107.2743,12.3807],[107.2657,12.4103],[107.2623,12.4315],[107.2559,12.4353],[107.2483,12.4205],[107.2485,12.4123],[107.2373,12.4029],[107.2347,12.3909],[107.2271,12.3863],[107.2129,12.3843],[107.1971,12.3779],[107.1953,12.3701],[107.1803,12.3733],[107.1777,12.3761],[107.1789,12.3845],[107.1713,12.3831],[107.1505,12.3901],[107.1483,12.3979],[107.1423,12.3997],[107.1401,12.4079],[107.1295,12.4157],[107.1039,12.4195],[107.0947,12.4259],[107.0883,12.4275],[107.0819,12.4249],[107.0765,12.4431],[107.0607,12.4471],[107.0565,12.4603],[107.0533,12.4593],[107.0537,12.4555],[107.0411,12.4581],[107.0385,12.4547],[107.0387,12.4337]]]}}]}