{"type":"FeatureCollection","features":[{"type":"Feature","properties":{"c":"110404","en":"Bu Sra","km":"ប៊ូស្រា"},"geometry":{"type":"Polygon","coordinates":[[[107.5705,12.6939],[107.5679,12.7023],[107.5635,12.7047],[107.5579,12.6969],[107.5495,12.6927],[107.5473,12.6879],[107.5403,12.6831],[107.5351,12.6835],[107.5255,12.6741],[107.5159,12.6761],[107.4993,12.6591],[107.4927,12.6571],[107.4883,12.6439],[107.4787,12.6377],[107.4547,12.6383],[107.4417,12.6337],[107.4197,12.6303],[107.4193,12.6241],[107.4129,12.6137],[107.4073,12.6141],[107.4023,12.6081],[107.4015,12.6009],[107.3917,12.5829],[107.3909,12.5669],[107.3995,12.5245],[107.3827,12.5247],[107.3833,12.5187],[107.3895,12.5115],[107.3833,12.5019],[107.3837,12.4981],[107.3905,12.4903],[107.3935,12.4801],[107.3895,12.4727],[107.3919,12.4669],[107.3909,12.4537],[107.3967,12.4523],[107.3989,12.4267],[107.4055,12.4165],[107.4573,12.3749],[107.5445,12.3735],[107.5513,12.3755],[107.5539,12.3791],[107.5445,12.3987],[107.5447,12.4165],[107.5511,12.4211],[107.5561,12.4349],[107.5653,12.4499],[107.5677,12.4633],[107.5657,12.4703],[107.5697,12.4759],[107.5757,12.4789],[107.5797,12.4953],[107.5695,12.5045],[107.5679,12.5133],[107.5625,12.5179],[107.5631,12.5225],[107.5647,12.5261],[107.5761,12.5335],[107.5763,12.5413],[107.5895,12.5583],[107.5829,12.5687],[107.5801,12.5787],[107.5853,12.5987],[107.5817,12.6103],[107.5835,12.6135],[107.5727,12.6285],[107.5697,12.6431],[107.5735,12.6509],[107.5695,12.6579],[107.5715,12.6667],[107.5811,12.6807],[107.5739,12.6923],[107.5705,12.6939]]]}},{"type":"Feature","properties":{"c":"110401","en":"Krang Teh","km":"ក្រង់តេះ"},"geometry":{"type":"Polygon","coordinates":[[[107.4949,12.9069],[107.4911,12.9091],[107.4837,12.9057],[107.4703,12.9061],[107.4553,12.8841],[107.4297,12.8705],[107.4229,12.8685],[107.4193,12.8699],[107.4015,12.8633],[107.3937,12.8755],[107.3585,12.8687],[107.3475,12.8717],[107.3375,12.8783],[107.3193,12.8807],[107.3129,12.8843],[107.3005,12.8833],[107.2943,12.8787],[107.2809,12.8741],[107.2685,12.8769],[107.2643,12.8749],[107.2691,12.8717],[107.2675,12.8661],[107.2699,12.8609],[107.2743,12.8611],[107.2767,12.8575],[107.2687,12.8529],[107.2669,12.8487],[107.2731,12.8341],[107.2687,12.8319],[107.2595,12.8339],[107.2619,12.8227],[107.2693,12.8099],[107.2647,12.7975],[107.2615,12.7985],[107.2605,12.7955],[107.2575,12.7953],[107.2631,12.7831],[107.2607,12.7799],[107.2569,12.7807],[107.2561,12.7739],[107.2527,12.7751],[107.2493,12.7731],[107.2501,12.7695],[107.2539,12.7707],[107.2589,12.7675],[107.2605,12.7603],[107.2645,12.7619],[107.2697,12.7575],[107.2721,12.7491],[107.2661,12.7485],[107.2641,12.7451],[107.2687,12.7373],[107.2681,12.7317],[107.2705,12.7279],[107.2671,12.7179],[107.2691,12.7053],[107.2733,12.7033],[107.2723,12.7003],[107.2757,12.6995],[107.2749,12.6965],[107.2775,12.6935],[107.2771,12.6831],[107.2819,12.6763],[107.2811,12.6643],[107.2891,12.6499],[107.2877,12.6357],[107.2917,12.6277],[107.3295,12.6323],[107.3529,12.6315],[107.3773,12.6361],[107.3943,12.6355],[107.4197,12.6303],[107.4417,12.6337],[107.4547,12.6383],[107.4787,12.6377],[107.4883,12.6439],[107.4927,12.6571],[107.4993,12.6591],[107.5159,12.6761],[107.5255,12.6741],[107.5351,12.6835],[107.5403,12.6831],[107.5473,12.6879],[107.5495,12.6927],[107.5579,12.6969],[107.5635,12.7047],[107.5593,12.7127],[107.5597,12.7165],[107.5675,12.7285],[107.5635,12.7397],[107.5643,12.7451],[107.5603,12.7485],[107.5589,12.7601],[107.5617,12.7759],[107.5597,12.7849],[107.5623,12.7875],[107.5621,12.7919],[107.5577,12.8035],[107.5539,12.8051],[107.5539,12.8173],[107.5501,12.8229],[107.5457,12.8235],[107.5395,12.8359],[107.5267,12.8411],[107.5225,12.8527],[107.5119,12.8583],[107.5119,12.8685],[107.5057,12.8709],[107.4999,12.8773],[107.4967,12.8925],[107.4931,12.8947],[107.4929,12.8993],[107.4963,12.9033],[107.4949,12.9069]]]}},{"type":"Feature","properties":{"c":"110402","en":"Pu Chrey","km":"ពូជ្រៃ"},"geometry":{"type":"Polygon","coordinates":[[[107.1775,12.9067],[107.1693,12.9001],[107.0967,12.8661],[107.0463,12.8373],[107.0393,12.8365],[107.0299,12.8403],[107.0197,12.8575],[106.9911,12.8849],[106.9919,12.8951],[106.9887,12.9013],[106.9589,12.9129],[106.9299,12.9033],[106.8993,12.9031],[106.8797,12.8941],[106.8535,12.8937],[106.8095,12.8845],[106.7791,12.8881],[106.7279,12.8889],[106.6923,12.8817],[106.6757,12.8901],[106.6627,12.8895],[106.6525,12.8935],[106.6453,12.8931],[106.6385,12.8981],[106.6265,12.8989],[106.6167,12.9151],[106.6131,12.9111],[106.6137,12.8861],[106.6093,12.8557],[106.5987,12.8379],[106.5415,12.7873],[106.5321,12.7875],[106.5115,12.7791],[106.5035,12.7791],[106.4873,12.7671],[106.4817,12.7573],[106.4921,12.7575],[106.5081,12.7459],[106.5599,12.7227],[106.5667,12.7171],[106.5839,12.6899],[106.5931,12.6813],[106.6027,12.6741],[106.6301,12.6647],[106.6455,12.6485],[106.6555,12.6423],[106.6743,12.6393],[106.6893,12.6331],[106.7011,12.6325],[106.7053,12.6365],[106.7053,12.6435],[106.7169,12.6443],[106.7247,12.6555],[106.7395,12.6603],[106.7459,12.6497],[106.7573,12.6461],[106.7591,12.6391],[106.7627,12.6359],[106.7699,12.6349],[106.7935,12.6413],[106.8017,12.6393],[106.8119,12.6467],[106.8291,12.6319],[106.8371,12.6297],[106.8415,12.6311],[106.8529,12.6257],[106.8569,12.6265],[106.8645,12.6361],[106.8701,12.6339],[106.8837,12.6389],[106.8899,12.6269],[106.8953,12.6237],[106.8961,12.6177],[106.9035,12.6121],[106.9343,12.6001],[106.9535,12.5955],[107.0041,12.5599],[107.0281,12.5537],[107.0433,12.5469],[107.0461,12.5525],[107.0455,12.5607],[107.0501,12.5689],[107.0625,12.5669],[107.0817,12.5729],[107.1019,12.5733],[107.1097,12.5763],[107.1153,12.5843],[107.1253,12.5881],[107.1313,12.5975],[107.1313,12.6077],[107.1277,12.6135],[107.1303,12.6193],[107.1423,12.6195],[107.1573,12.6275],[107.1679,12.6245],[107.1727,12.6337],[107.1761,12.6353],[107.1831,12.6301],[107.1879,12.6309],[107.2055,12.6469],[107.2101,12.6481],[107.2137,12.6349],[107.2181,12.6309],[107.2183,12.6241],[107.2209,12.6217],[107.2459,12.6213],[107.2661,12.6289],[107.2917,12.6277],[107.2877,12.6357],[107.2891,12.6499],[107.2811,12.6643],[107.2819,12.6763],[107.2771,12.6831],[107.2775,12.6935],[107.2749,12.6965],[107.2757,12.6995],[107.2723,12.7003],[107.2733,12.7033],[107.2691,12.7053],[107.2671,12.7179],[107.2705,12.7279],[107.2681,12.7317],[107.2687,12.7373],[107.2641,12.7451],[107.2661,12.7485],[107.2721,12.7491],[107.2697,12.7575],[107.2645,12.7619],[107.2605,12.7603],[107.2589,12.7675],[107.2539,12.7707],[107.2501,12.7695],[107.2493,12.7731],[107.2527,12.7751],[107.2561,12.7739],[107.2569,12.7807],[107.2607,12.7799],[107.2631,12.7831],[107.2575,12.7953],[107.2605,12.7955],[107.2615,12.7985],[107.2647,12.7975],[107.2693,12.8099],[107.2619,12.8227],[107.2595,12.8339],[107.2687,12.8319],[107.2731,12.8341],[107.2669,12.8487],[107.2687,12.8529],[107.2767,12.8575],[107.2743,12.8611],[107.2699,12.8609],[107.2675,12.8661],[107.2691,12.8717],[107.2643,12.8749],[107.2551,12.8751],[107.2497,12.8721],[107.2363,12.8729],[107.2149,12.8907],[107.1981,12.8955],[107.1941,12.9071],[107.1911,12.9093],[107.1851,12.9097],[107.1775,12.9067]]]}},{"type":"Feature","properties":{"c":"110403","en":"Srae Ampum","km":"ស្រែអំពូម"},"geometry":{"type":"Polygon","coordinates":[[[107.4197,12.6303],[107.3943,12.6355],[107.3773,12.6361],[107.3583,12.6321],[107.3295,12.6323],[107.3001,12.6273],[107.2661,12.6289],[107.2459,12.6213],[107.2209,12.6217],[107.2243,12.6183],[107.2241,12.6137],[107.2317,12.5967],[107.2355,12.5957],[107.2383,12.5911],[107.2487,12.5891],[107.2541,12.5775],[107.2705,12.5791],[107.2785,12.5769],[107.2863,12.5799],[107.2885,12.5749],[107.2813,12.5613],[107.2859,12.5321],[107.2837,12.5213],[107.3263,12.5259],[107.3487,12.5233],[107.3995,12.5245],[107.3909,12.5669],[107.3917,12.5829],[107.4015,12.6009],[107.4023,12.6081],[107.4073,12.6141],[107.4129,12.6137],[107.4193,12.6241],[107.4197,12.6303]]]}}]}