{"type":"FeatureCollection","features":[{"type":"Feature","properties":{"c":"110501","en":"Monourom","km":"សង្កាត់មនោរម្យ"},"geometry":{"type":"Polygon","coordinates":[[[107.1781,12.4571],[107.1699,12.4627],[107.1683,12.4675],[107.1681,12.4993],[107.1583,12.5041],[107.1525,12.5115],[107.1455,12.5137],[107.1409,12.5289],[107.1307,12.5433],[107.1259,12.5439],[107.1193,12.5411],[107.1113,12.5337],[107.0997,12.5167],[107.0909,12.5105],[107.0913,12.5001],[107.0971,12.4809],[107.1165,12.4573],[107.1307,12.4341],[107.1611,12.4145],[107.1769,12.4009],[107.1803,12.4009],[107.1697,12.4389],[107.1711,12.4475],[107.1781,12.4571]]]}},{"type":"Feature","properties":{"c":"110504","en":"Romonea","km":"សង្កាត់រមនា"},"geometry":{"type":"Polygon","coordinates":[[[107.0909,12.5105],[107.0897,12.5135],[107.0927,12.5251],[107.0983,12.5349],[107.1017,12.5495],[107.1071,12.5565],[107.1097,12.5763],[107.0973,12.5725],[107.0817,12.5729],[107.0625,12.5669],[107.0501,12.5689],[107.0455,12.5607],[107.0461,12.5525],[107.0433,12.5469],[107.0447,12.5439],[107.0399,12.5293],[107.0391,12.5063],[107.0327,12.4707],[107.0379,12.4607],[107.0357,12.4573],[107.0385,12.4547],[107.0411,12.4581],[107.0537,12.4555],[107.0533,12.4593],[107.0565,12.4603],[107.0607,12.4471],[107.0765,12.4431],[107.0819,12.4249],[107.0883,12.4275],[107.0947,12.4259],[107.1039,12.4195],[107.1295,12.4157],[107.1401,12.4079],[107.1423,12.3997],[107.1483,12.3979],[107.1505,12.3901],[107.1535,12.3881],[107.1713,12.3831],[107.1789,12.3845],[107.1777,12.3761],[107.1803,12.3733],[107.1953,12.3701],[107.1971,12.3779],[107.2129,12.3843],[107.2271,12.3863],[107.2347,12.3909],[107.2373,12.4029],[107.2485,12.4123],[107.2483,12.4205],[107.2559,12.4353],[107.2453,12.4497],[107.2291,12.4521],[107.2269,12.4553],[107.1985,12.4625],[107.1865,12.4537],[107.1781,12.4571],[107.1711,12.4475],[107.1697,12.4389],[107.1803,12.4009],[107.1769,12.4009],[107.1611,12.4145],[107.1307,12.4341],[107.1165,12.4573],[107.0971,12.4809],[107.0913,12.5001],[107.0909,12.5105]]]}},{"type":"Feature","properties":{"c":"110502","en":"Sokh Dom","km":"សង្កាត់សុខដុម"},"geometry":{"type":"Polygon","coordinates":[[[107.2209,12.6217],[107.2183,12.6241],[107.2181,12.6309],[107.2137,12.6349],[107.2101,12.6481],[107.2015,12.6441],[107.1879,12.6309],[107.1831,12.6301],[107.1761,12.6353],[107.1727,12.6337],[107.1679,12.6245],[107.1573,12.6275],[107.1423,12.6195],[107.1303,12.6193],[107.1277,12.6135],[107.1313,12.6077],[107.1313,12.5975],[107.1253,12.5881],[107.1153,12.5843],[107.1097,12.5763],[107.1071,12.5565],[107.1017,12.5495],[107.0983,12.5349],[107.0907,12.5183],[107.0909,12.5105],[107.0997,12.5167],[107.1113,12.5337],[107.1193,12.5411],[107.1259,12.5439],[107.1307,12.5433],[107.1409,12.5289],[107.1455,12.5137],[107.1525,12.5115],[107.1583,12.5041],[107.1681,12.4993],[107.1679,12.4717],[107.1699,12.4627],[107.1865,12.4537],[107.1985,12.4625],[107.2179,12.4561],[107.2183,12.4817],[107.2259,12.5085],[107.2297,12.5601],[107.2281,12.5751],[107.2247,12.5823],[107.2317,12.5967],[107.2241,12.6137],[107.2243,12.6183],[107.2209,12.6217]]]}},{"type":"Feature","properties":{"c":"110503","en":"Spean Mean Chey","km":"សង្កាត់ស្ពានមានជ័យ"},"geometry":{"type":"Polygon","coordinates":[[[107.2837,12.5213],[107.2859,12.5321],[107.2813,12.5613],[107.2885,12.5749],[107.2863,12.5799],[107.2785,12.5769],[107.2705,12.5791],[107.2541,12.5775],[107.2487,12.5891],[107.2383,12.5911],[107.2355,12.5957],[107.2317,12.5967],[107.2247,12.5823],[107.2281,12.5751],[107.2297,12.5601],[107.2259,12.5085],[107.2183,12.4817],[107.2179,12.4561],[107.2453,12.4497],[107.2559,12.4353],[107.2599,12.4383],[107.2741,12.4597],[107.2815,12.4637],[107.2797,12.4849],[107.2813,12.4929],[107.2775,12.4981],[107.2837,12.5213]]]}}]}