{"type":"FeatureCollection","features":[{"type":"Feature","properties":{"c":"120104","en":"Boeng Keng Kang Ti Bei","km":"សង្កាត់បឹងកេងកងទី ៣"},"geometry":{"type":"Polygon","coordinates":[[[104.9223,11.5445],[104.9211,11.5521],[104.9145,11.5511],[104.9137,11.5441],[104.9169,11.5427],[104.9223,11.5445]]]}},{"type":"Feature","properties":{"c":"120102","en":"Boeng Keng Kang Ti Muoy","km":"សង្កាត់បឹងកេងកងទី ១"},"geometry":{"type":"Polygon","coordinates":[[[104.9223,11.5445],[104.9281,11.5453],[104.9287,11.5565],[104.9195,11.5559],[104.9223,11.5445]]]}},{"type":"Feature","properties":{"c":"120103","en":"Boeng Keng Kang Ti Pir","km":"សង្កាត់បឹងកេងកងទី ២"},"geometry":{"type":"Polygon","coordinates":[[[104.9195,11.5559],[104.9153,11.5571],[104.9145,11.5511],[104.9211,11.5521],[104.9195,11.5559]]]}},{"type":"Feature","properties":{"c":"120111","en":"Boeng Trabaek","km":"សង្កាត់បឹងត្របែក"},"geometry":{"type":"Polygon","coordinates":[[[104.9243,11.5337],[104.9223,11.5445],[104.9169,11.5427],[104.9197,11.5407],[104.9201,11.5347],[104.9243,11.5337]]]}},{"type":"Feature","properties":{"c":"120105","en":"Olympic","km":"សង្កាត់អូឡាំពិក"},"geometry":{"type":"Polygon","coordinates":[[[104.9145,11.5511],[104.9153,11.5571],[104.9101,11.5551],[104.9145,11.5511]]]}},{"type":"Feature","properties":{"c":"120112","en":"Phsar Daeum Thkov","km":"សង្កាត់ផ្សារដើមថ្កូវ"},"geometry":{"type":"Polygon","coordinates":[[[104.9243,11.5337],[104.9201,11.5347],[104.9139,11.5335],[104.9155,11.5289],[104.9215,11.5257],[104.9271,11.5303],[104.9243,11.5337]]]}},{"type":"Feature","properties":{"c":"120101","en":"Tonle Basak","km":"សង្កាត់ទន្លេបាសាក់"},"geometry":{"type":"Polygon","coordinates":[[[104.9403,11.5435],[104.9515,11.5581],[104.9287,11.5565],[104.9281,11.5453],[104.9223,11.5445],[104.9243,11.5337],[104.9271,11.5303],[104.9321,11.5313],[104.9317,11.5373],[104.9403,11.5435]]]}},{"type":"Feature","properties":{"c":"120108","en":"Tumnob Tuek","km":"សង្កាត់ទំនប់ទឹក"},"geometry":{"type":"Polygon","coordinates":[[[104.9061,11.5501],[104.9027,11.5523],[104.8981,11.5481],[104.9093,11.5407],[104.9107,11.5447],[104.9061,11.5501]]]}},{"type":"Feature","properties":{"c":"120106","en":"Tuol Svay Prey Ti Muoy","km":"សង្កាត់ទួលស្វាយព្រៃទី ១"},"geometry":{"type":"Polygon","coordinates":[[[104.9145,11.5511],[104.9101,11.5551],[104.9061,11.5501],[104.9137,11.5441],[104.9145,11.5511]]]}},{"type":"Feature","properties":{"c":"120107","en":"Tuol Svay Prey Ti Pir","km":"សង្កាត់ទួលស្វាយព្រៃទី ២"},"geometry":{"type":"Polygon","coordinates":[[[104.9101,11.5551],[104.9081,11.5573],[104.9027,11.5523],[104.9061,11.5501],[104.9101,11.5551]]]}},{"type":"Feature","properties":{"c":"120110","en":"Tuol Tumpung Ti Muoy","km":"សង្កាត់ទួលទំពូងទី ១"},"geometry":{"type":"Polygon","coordinates":[[[104.9169,11.5427],[104.9137,11.5441],[104.9139,11.5335],[104.9201,11.5347],[104.9197,11.5407],[104.9169,11.5427]]]}},{"type":"Feature","properties":{"c":"120109","en":"Tuol Tumpung Ti Pir","km":"សង្កាត់ទួលទំពូងទី ២"},"geometry":{"type":"Polygon","coordinates":[[[104.9137,11.5441],[104.9107,11.5447],[104.9093,11.5407],[104.9139,11.5335],[104.9137,11.5441]]]}}]}