{"type":"FeatureCollection","features":[{"type":"Feature","properties":{"c":"120204","en":"Boeng Reang","km":"សង្កាត់បឹងរាំង"},"geometry":{"type":"Polygon","coordinates":[[[104.9217,11.5687],[104.9179,11.5659],[104.9191,11.5623],[104.9217,11.5591],[104.9281,11.5603],[104.9261,11.5643],[104.9221,11.5625],[104.9217,11.5687]]]}},{"type":"Feature","properties":{"c":"120207","en":"Chakto Mukh","km":"សង្កាត់ចតុមុខ"},"geometry":{"type":"Polygon","coordinates":[[[104.9515,11.5581],[104.9459,11.5631],[104.9395,11.5631],[104.9217,11.5591],[104.9195,11.5559],[104.9515,11.5581]]]}},{"type":"Feature","properties":{"c":"120208","en":"Chey Chummeah","km":"សង្កាត់ជ័យជំនះ"},"geometry":{"type":"Polygon","coordinates":[[[104.9395,11.5631],[104.9349,11.5671],[104.9261,11.5643],[104.9281,11.5603],[104.9395,11.5631]]]}},{"type":"Feature","properties":{"c":"120209","en":"Phsar Chas","km":"សង្កាត់ផ្សារចាស់"},"geometry":{"type":"Polygon","coordinates":[[[104.9273,11.5727],[104.9249,11.5723],[104.9237,11.5725],[104.9265,11.5702],[104.9273,11.5727]]]}},{"type":"Feature","properties":{"c":"120205","en":"Phsar Kandal Ti Muoy","km":"សង្កាត់ផ្សារកណ្ដាលទី១"},"geometry":{"type":"Polygon","coordinates":[[[104.9317,11.5669],[104.9349,11.5671],[104.9307,11.5735],[104.9275,11.5721],[104.9285,11.5659],[104.9317,11.5669]]]}},{"type":"Feature","properties":{"c":"120206","en":"Phsar Kandal Ti Pir","km":"សង្កាត់ផ្សារកណ្ដាលទី២"},"geometry":{"type":"Polygon","coordinates":[[[104.9285,11.5659],[104.9265,11.5702],[104.9259,11.5715],[104.9261,11.5643],[104.9285,11.5659]]]}},{"type":"Feature","properties":{"c":"120203","en":"Phsar Thmei Ti Bei","km":"សង្កាត់ផ្សារថ្មីទី ៣"},"geometry":{"type":"Polygon","coordinates":[[[104.9261,11.5643],[104.9259,11.5701],[104.9259,11.5715],[104.9217,11.5687],[104.9221,11.5625],[104.9261,11.5643]]]}},{"type":"Feature","properties":{"c":"120201","en":"Phsar Thmei Ti Muoy","km":"សង្កាត់ផ្សារថ្មីទី ១"},"geometry":{"type":"Polygon","coordinates":[[[104.9244,11.5705],[104.9259,11.5715],[104.9189,11.5719],[104.9217,11.5687],[104.9244,11.5705]]]}},{"type":"Feature","properties":{"c":"120202","en":"Phsar Thmei Ti Pir","km":"សង្កាត់ផ្សារថ្មីទី ២"},"geometry":{"type":"Polygon","coordinates":[[[104.9217,11.5687],[104.9189,11.5719],[104.9181,11.5669],[104.9217,11.5687]]]}},{"type":"Feature","properties":{"c":"120210","en":"Srah Chak","km":"សង្កាត់ស្រះចក"},"geometry":{"type":"Polygon","coordinates":[[[104.9279,11.5775],[104.9211,11.5895],[104.9075,11.5829],[104.9035,11.5775],[104.9059,11.5705],[104.9189,11.5719],[104.9191,11.5769],[104.9279,11.5775]]]}},{"type":"Feature","properties":{"c":"120211","en":"Voat Phnum","km":"សង្កាត់វត្ដភ្នំ"},"geometry":{"type":"Polygon","coordinates":[[[104.9307,11.5735],[104.9279,11.5775],[104.9191,11.5769],[104.9189,11.5719],[104.9307,11.5735]]]}}]}