{"type":"FeatureCollection","features":[{"type":"Feature","properties":{"c":"120308","en":"Boeng Proluet","km":"សង្កាត់បឹងព្រលឹត"},"geometry":{"type":"Polygon","coordinates":[[[104.9217,11.5591],[104.9191,11.5623],[104.9141,11.5633],[104.9153,11.5571],[104.9195,11.5559],[104.9217,11.5591]]]}},{"type":"Feature","properties":{"c":"120306","en":"Mittapheap","km":"សង្កាត់មិត្ដភាព"},"geometry":{"type":"Polygon","coordinates":[[[104.9161,11.5663],[104.9157,11.5711],[104.9059,11.5705],[104.9071,11.5663],[104.9161,11.5663]]]}},{"type":"Feature","properties":{"c":"120305","en":"Monourom","km":"សង្កាត់មនោរម្យ"},"geometry":{"type":"Polygon","coordinates":[[[104.9189,11.5719],[104.9157,11.5711],[104.9181,11.5669],[104.9189,11.5719]]]}},{"type":"Feature","properties":{"c":"120303","en":"Ou Ruessei Ti Bei","km":"សង្កាត់អូរឫស្សីទី ៣"},"geometry":{"type":"Polygon","coordinates":[[[104.9172,11.5654],[104.9165,11.5667],[104.9143,11.5649],[104.9155,11.5643],[104.9172,11.5654]]]}},{"type":"Feature","properties":{"c":"120304","en":"Ou Ruessei Ti Buon","km":"សង្កាត់អូរឫស្សីទី ៤"},"geometry":{"type":"Polygon","coordinates":[[[104.9181,11.5669],[104.9165,11.5667],[104.9172,11.5654],[104.9188,11.5666],[104.9181,11.5669]]]}},{"type":"Feature","properties":{"c":"120301","en":"Ou Ruessei Ti Muoy","km":"សង្កាត់អូរឫស្សីទី ១"},"geometry":{"type":"Polygon","coordinates":[[[104.9185,11.5641],[104.9179,11.5659],[104.9153,11.5635],[104.9191,11.5623],[104.9185,11.5641]]]}},{"type":"Feature","properties":{"c":"120302","en":"Ou Ruessei Ti Pir","km":"សង្កាត់អូរឫស្សីទី ២"},"geometry":{"type":"Polygon","coordinates":[[[104.9153,11.5635],[104.9143,11.5649],[104.9121,11.5623],[104.9143,11.5623],[104.9153,11.5635]]]}},{"type":"Feature","properties":{"c":"120307","en":"Veal Vong","km":"សង្កាត់វាលវង់"},"geometry":{"type":"Polygon","coordinates":[[[104.9121,11.5633],[104.9157,11.566],[104.9071,11.5663],[104.9061,11.5607],[104.9101,11.5551],[104.9153,11.5571],[104.9143,11.5623],[104.9121,11.5633]]]}}]}