{"type":"FeatureCollection","features":[{"type":"Feature","properties":{"c":"120407","en":"Boeng Kak Ti Muoy","km":"សង្កាត់បឹងកក់ទី ១"},"geometry":{"type":"Polygon","coordinates":[[[104.9075,11.5829],[104.9007,11.5859],[104.8969,11.5907],[104.8915,11.5859],[104.8953,11.5787],[104.8989,11.5775],[104.9035,11.5775],[104.9075,11.5829]]]}},{"type":"Feature","properties":{"c":"120408","en":"Boeng Kak Ti Pir","km":"សង្កាត់បឹងកក់ទី ២"},"geometry":{"type":"Polygon","coordinates":[[[104.9035,11.5775],[104.8953,11.5787],[104.8915,11.5859],[104.8881,11.5843],[104.8877,11.5707],[104.9001,11.5713],[104.9043,11.5737],[104.9035,11.5775]]]}},{"type":"Feature","properties":{"c":"120410","en":"Boeng Salang","km":"សង្កាត់បឹងសាឡាង"},"geometry":{"type":"Polygon","coordinates":[[[104.9027,11.5523],[104.9009,11.5579],[104.8939,11.5553],[104.8901,11.5501],[104.8981,11.5481],[104.9027,11.5523]]]}},{"type":"Feature","properties":{"c":"120409","en":"Phsar Daeum Kor","km":"សង្កាត់ផ្សារដើមគរ"},"geometry":{"type":"Polygon","coordinates":[[[104.9061,11.5607],[104.9007,11.5619],[104.9027,11.5523],[104.9081,11.5573],[104.9061,11.5607]]]}},{"type":"Feature","properties":{"c":"120403","en":"Phsar Depou Ti Bei","km":"សង្កាត់ផ្សារដេប៉ូទី ៣"},"geometry":{"type":"Polygon","coordinates":[[[104.9069,11.5651],[104.9007,11.5659],[104.9007,11.5619],[104.9061,11.5607],[104.9069,11.5651]]]}},{"type":"Feature","properties":{"c":"120401","en":"Phsar Depou Ti Muoy","km":"សង្កាត់ផ្សារដេប៉ូទី ១"},"geometry":{"type":"Polygon","coordinates":[[[104.9009,11.5659],[104.9066,11.5679],[104.9043,11.5737],[104.9001,11.5713],[104.9009,11.5659]]]}},{"type":"Feature","properties":{"c":"120402","en":"Phsar Depou Ti Pir","km":"សង្កាត់ផ្សារដេប៉ូទី ២"},"geometry":{"type":"Polygon","coordinates":[[[104.907,11.5663],[104.9066,11.5679],[104.9007,11.5671],[104.9009,11.5659],[104.907,11.5663]]]}},{"type":"Feature","properties":{"c":"120406","en":"Tuek L'ak Ti Bei","km":"សង្កាត់ទឹកល្អក់ទី ៣"},"geometry":{"type":"Polygon","coordinates":[[[104.9007,11.5619],[104.8919,11.5619],[104.8883,11.5593],[104.8871,11.5547],[104.8901,11.5501],[104.8939,11.5553],[104.9009,11.5579],[104.9007,11.5619]]]}},{"type":"Feature","properties":{"c":"120404","en":"Tuek L'ak Ti Muoy","km":"សង្កាត់ទឹកល្អក់ទី ១"},"geometry":{"type":"Polygon","coordinates":[[[104.9001,11.5713],[104.8951,11.5715],[104.8877,11.5707],[104.8899,11.5651],[104.8943,11.5651],[104.9007,11.5659],[104.9001,11.5713]]]}},{"type":"Feature","properties":{"c":"120405","en":"Tuek L'ak Ti Pir","km":"សង្កាត់ទឹកល្អក់ទី ២"},"geometry":{"type":"Polygon","coordinates":[[[104.9007,11.5619],[104.9007,11.5659],[104.8899,11.5651],[104.8919,11.5619],[104.9007,11.5619]]]}}]}