{"type":"FeatureCollection","features":[{"type":"Feature","properties":{"c":"120515","en":"Cheung Aek","km":"សង្កាត់ជើងឯក"},"geometry":{"type":"Polygon","coordinates":[[[104.9215,11.4845],[104.9137,11.4825],[104.9125,11.5023],[104.8931,11.5017],[104.8949,11.4909],[104.8931,11.4835],[104.8975,11.4615],[104.9015,11.4585],[104.9049,11.4603],[104.9047,11.4559],[104.9087,11.4505],[104.9149,11.4481],[104.9169,11.4515],[104.9219,11.4505],[104.9215,11.4609],[104.9183,11.4667],[104.9215,11.4845]]]}},{"type":"Feature","properties":{"c":"120501","en":"Dangkao","km":"សង្កាត់ដង្កោ"},"geometry":{"type":"Polygon","coordinates":[[[104.9129,11.5191],[104.8977,11.5229],[104.8769,11.5205],[104.8809,11.5071],[104.8745,11.4803],[104.8903,11.4719],[104.8909,11.4673],[104.8961,11.4663],[104.8973,11.4697],[104.8931,11.4835],[104.8949,11.4909],[104.8931,11.5017],[104.9125,11.5023],[104.9129,11.5191]]]}},{"type":"Feature","properties":{"c":"120516","en":"Kong Noy","km":"សង្កាត់គងនយ"},"geometry":{"type":"Polygon","coordinates":[[[104.8445,11.4461],[104.8403,11.4467],[104.8367,11.4407],[104.8327,11.4423],[104.8267,11.4389],[104.8309,11.4313],[104.8529,11.4297],[104.8445,11.4461]]]}},{"type":"Feature","properties":{"c":"120512","en":"Krang Pongro","km":"សង្កាត់ក្រាំងពង្រ"},"geometry":{"type":"Polygon","coordinates":[[[104.8091,11.4589],[104.8005,11.4603],[104.7927,11.4471],[104.7943,11.4437],[104.7981,11.4445],[104.7985,11.4391],[104.8049,11.4319],[104.8131,11.4305],[104.8175,11.4321],[104.8191,11.4363],[104.8171,11.4395],[104.8229,11.4439],[104.8225,11.4475],[104.8201,11.4527],[104.8077,11.4545],[104.8091,11.4589]]]}},{"type":"Feature","properties":{"c":"120507","en":"Pong Tuek","km":"សង្កាត់ពងទឹក"},"geometry":{"type":"Polygon","coordinates":[[[104.8373,11.4999],[104.8203,11.5007],[104.8129,11.4673],[104.8077,11.4545],[104.8327,11.4535],[104.8323,11.4811],[104.8373,11.4999]]]}},{"type":"Feature","properties":{"c":"120513","en":"Prateah Lang","km":"សង្កាត់ប្រទះឡាង"},"geometry":{"type":"Polygon","coordinates":[[[104.8091,11.4589],[104.8137,11.4703],[104.8151,11.4819],[104.7863,11.4763],[104.7823,11.4561],[104.7847,11.4539],[104.7829,11.4497],[104.7851,11.4471],[104.7927,11.4471],[104.8005,11.4603],[104.8091,11.4589]]]}},{"type":"Feature","properties":{"c":"120517","en":"Preaek Kampues","km":"សង្កាត់ព្រែកកំពឹស"},"geometry":{"type":"Polygon","coordinates":[[[104.8961,11.4663],[104.8909,11.4673],[104.8877,11.4633],[104.8821,11.4363],[104.8881,11.4305],[104.8975,11.4355],[104.9047,11.4357],[104.9223,11.4289],[104.9219,11.4505],[104.9169,11.4515],[104.9149,11.4481],[104.9087,11.4505],[104.9047,11.4559],[104.9049,11.4603],[104.9015,11.4585],[104.8975,11.4615],[104.8961,11.4663]]]}},{"type":"Feature","properties":{"c":"120510","en":"Prey Sa","km":"សង្កាត់ព្រៃស"},"geometry":{"type":"Polygon","coordinates":[[[104.8763,11.4777],[104.8739,11.4841],[104.8809,11.5071],[104.8781,11.5163],[104.8727,11.5115],[104.8573,11.5057],[104.8395,11.5057],[104.8373,11.4999],[104.8409,11.4913],[104.8487,11.4857],[104.8465,11.4809],[104.8487,11.4791],[104.8647,11.4769],[104.8675,11.4743],[104.8763,11.4777]]]}},{"type":"Feature","properties":{"c":"120508","en":"Prey Veaeng","km":"សង្កាត់ព្រៃវែង"},"geometry":{"type":"Polygon","coordinates":[[[104.8675,11.4743],[104.8647,11.4769],[104.8465,11.4809],[104.8487,11.4857],[104.8409,11.4913],[104.8373,11.4999],[104.8323,11.4811],[104.8327,11.4535],[104.8423,11.4521],[104.8441,11.4597],[104.8515,11.4631],[104.8531,11.4695],[104.8617,11.4649],[104.8659,11.4677],[104.8653,11.4717],[104.8675,11.4743]]]}},{"type":"Feature","properties":{"c":"120518","en":"Roluos","km":"សង្កាត់រលួស"},"geometry":{"type":"Polygon","coordinates":[[[104.8821,11.4363],[104.8839,11.4495],[104.8803,11.4473],[104.8671,11.4493],[104.8613,11.4437],[104.8611,11.4403],[104.8679,11.4313],[104.8675,11.4269],[104.8729,11.4215],[104.8821,11.4363]]]}},{"type":"Feature","properties":{"c":"120514","en":"Sak Sampov","km":"សង្កាត់សាក់សំពៅ"},"geometry":{"type":"Polygon","coordinates":[[[104.8617,11.4649],[104.8531,11.4695],[104.8515,11.4631],[104.8441,11.4597],[104.8423,11.4521],[104.8201,11.4527],[104.8229,11.4439],[104.8267,11.4389],[104.8327,11.4423],[104.8367,11.4407],[104.8403,11.4467],[104.8445,11.4461],[104.8485,11.4511],[104.8555,11.4541],[104.8593,11.4525],[104.8651,11.4601],[104.8617,11.4649]]]}},{"type":"Feature","properties":{"c":"120519","en":"Spean Thma","km":"សង្កាត់ស្ពានថ្ម"},"geometry":{"type":"Polygon","coordinates":[[[104.8909,11.4673],[104.8903,11.4719],[104.8837,11.4765],[104.8713,11.4761],[104.8675,11.4743],[104.8653,11.4717],[104.8659,11.4677],[104.8617,11.4649],[104.8651,11.4601],[104.8593,11.4525],[104.8803,11.4473],[104.8839,11.4495],[104.8877,11.4633],[104.8909,11.4673]]]}},{"type":"Feature","properties":{"c":"120520","en":"Tien","km":"សង្កាត់ទៀន"},"geometry":{"type":"Polygon","coordinates":[[[104.8593,11.4525],[104.8555,11.4541],[104.8485,11.4511],[104.8445,11.4461],[104.8529,11.4297],[104.8589,11.4239],[104.8675,11.4269],[104.8679,11.4313],[104.8611,11.4403],[104.8613,11.4437],[104.8671,11.4493],[104.8593,11.4525]]]}}]}