{"type":"FeatureCollection","features":[{"type":"Feature","properties":{"c":"120602","en":"Boeng Tumpun","km":"សង្កាត់បឹងទំពុន"},"geometry":{"type":"Polygon","coordinates":[[[104.9093,11.5407],[104.9007,11.5447],[104.8985,11.5403],[104.8977,11.5229],[104.9163,11.5187],[104.9203,11.5207],[104.9215,11.5257],[104.9155,11.5289],[104.9093,11.5407]]]}},{"type":"Feature","properties":{"c":"120607","en":"Chak Angrae Kraom","km":"សង្កាត់ចាក់អង្រែក្រោម"},"geometry":{"type":"Polygon","coordinates":[[[104.9471,11.4937],[104.9381,11.5173],[104.9137,11.5103],[104.9137,11.4825],[104.9471,11.4937]]]}},{"type":"Feature","properties":{"c":"120606","en":"Chak Angrae Leu","km":"សង្កាត់ចាក់អង្រែលើ"},"geometry":{"type":"Polygon","coordinates":[[[104.9359,11.5269],[104.9321,11.5313],[104.9271,11.5303],[104.9215,11.5257],[104.9203,11.5207],[104.9129,11.5191],[104.9137,11.5103],[104.9381,11.5173],[104.9359,11.5269]]]}},{"type":"Feature","properties":{"c":"120601","en":"Stueng Mean Chey","km":"សង្កាត់ស្ទឹងមានជ័យ"},"geometry":{"type":"Polygon","coordinates":[[[104.8981,11.5481],[104.8901,11.5501],[104.8607,11.5455],[104.8629,11.5247],[104.8769,11.5205],[104.8977,11.5229],[104.8985,11.5403],[104.9007,11.5447],[104.8981,11.5481]]]}}]}