{"type":"FeatureCollection","features":[{"type":"Feature","properties":{"c":"120711","en":"Chrang Chamreh Ti Muoy","km":"សង្កាត់ច្រាំងចំរេះទី ១"},"geometry":{"type":"Polygon","coordinates":[[[104.8951,11.6379],[104.8869,11.6411],[104.8729,11.6257],[104.8777,11.6237],[104.8787,11.6205],[104.8951,11.6379]]]}},{"type":"Feature","properties":{"c":"120712","en":"Chrang Chamreh Ti Pir","km":"សង្កាត់ច្រាំងចំរេះទី ២"},"geometry":{"type":"Polygon","coordinates":[[[104.9049,11.6321],[104.8951,11.6379],[104.8787,11.6205],[104.8859,11.6085],[104.9049,11.6321]]]}},{"type":"Feature","properties":{"c":"120704","en":"Kilomaetr Lekh Prammuoy","km":"សង្កាត់គីឡូម៉ែត្រលេខ៦"},"geometry":{"type":"Polygon","coordinates":[[[104.9197,11.6145],[104.9125,11.6263],[104.9049,11.6321],[104.8859,11.6085],[104.8913,11.5985],[104.9117,11.6181],[104.9123,11.6121],[104.9197,11.6145]]]}},{"type":"Feature","properties":{"c":"120706","en":"Ruessei Kaev","km":"សង្កាត់ឫស្សីកែវ"},"geometry":{"type":"Polygon","coordinates":[[[104.9197,11.6145],[104.9123,11.6121],[104.9117,11.6181],[104.8913,11.5985],[104.8969,11.5907],[104.9145,11.5983],[104.9199,11.5981],[104.9197,11.6145]]]}},{"type":"Feature","properties":{"c":"120703","en":"Svay Pak","km":"សង្កាត់ស្វាយប៉ាក"},"geometry":{"type":"Polygon","coordinates":[[[104.8869,11.6411],[104.8791,11.6449],[104.8689,11.6583],[104.8565,11.6491],[104.8723,11.6399],[104.8741,11.6359],[104.8729,11.6257],[104.8869,11.6411]]]}},{"type":"Feature","properties":{"c":"120702","en":"Tuol Sangke","km":"សង្កាត់ទួលសង្កែ"},"geometry":{"type":"Polygon","coordinates":[[[104.9199,11.5981],[104.9145,11.5983],[104.8969,11.5907],[104.9007,11.5859],[104.9075,11.5829],[104.9211,11.5895],[104.9199,11.5981]]]}}]}