{"type":"FeatureCollection","features":[{"type":"Feature","properties":{"c":"120803","en":"Khmuonh","km":"សង្កាត់ឃ្មួញ"},"geometry":{"type":"Polygon","coordinates":[[[104.8729,11.6257],[104.8741,11.6359],[104.8723,11.6399],[104.8565,11.6491],[104.8361,11.6349],[104.8417,11.5965],[104.8859,11.6085],[104.8777,11.6237],[104.8729,11.6257]]]}},{"type":"Feature","properties":{"c":"120807","en":"Krang Thnong","km":"សង្កាត់ក្រាំងធ្នង់"},"geometry":{"type":"Polygon","coordinates":[[[104.8417,11.5965],[104.8383,11.6201],[104.8335,11.6133],[104.8315,11.5887],[104.8237,11.5799],[104.8245,11.5693],[104.8345,11.5677],[104.8349,11.5729],[104.8445,11.5757],[104.8417,11.5965]]]}},{"type":"Feature","properties":{"c":"120801","en":"Phnom Penh Thmei","km":"សង្កាត់ភ្នំពេញថ្មី"},"geometry":{"type":"Polygon","coordinates":[[[104.8913,11.5985],[104.8859,11.6085],[104.8417,11.5965],[104.8445,11.5757],[104.8349,11.5729],[104.8345,11.5677],[104.8505,11.5663],[104.8877,11.5707],[104.8881,11.5843],[104.8969,11.5907],[104.8913,11.5985]]]}},{"type":"Feature","properties":{"c":"120802","en":"Tuek Thla","km":"សង្កាត់ទឹកថ្លា"},"geometry":{"type":"Polygon","coordinates":[[[104.8899,11.5651],[104.8877,11.5707],[104.8637,11.5677],[104.8607,11.5455],[104.8901,11.5501],[104.8871,11.5547],[104.8883,11.5593],[104.8919,11.5619],[104.8899,11.5651]]]}}]}