{"type":"FeatureCollection","features":[{"type":"Feature","properties":{"c":"120908","en":"Boeng Thum","km":"សង្កាត់បឹងធំ"},"geometry":{"type":"Polygon","coordinates":[[[104.7875,11.4869],[104.7807,11.4869],[104.7791,11.4945],[104.7723,11.4969],[104.7635,11.4959],[104.7629,11.4927],[104.7589,11.4903],[104.7503,11.4893],[104.7449,11.4741],[104.7447,11.4553],[104.7529,11.4563],[104.7545,11.4527],[104.7597,11.4521],[104.7557,11.4573],[104.7641,11.4577],[104.7647,11.4631],[104.7733,11.4623],[104.7745,11.4587],[104.7823,11.4561],[104.7875,11.4869]]]}},{"type":"Feature","properties":{"c":"120904","en":"Chaom Chau","km":"សង្កាត់ចោមចៅ"},"geometry":{"type":"Polygon","coordinates":[[[104.8607,11.5455],[104.8543,11.5409],[104.8427,11.5423],[104.8343,11.5341],[104.8317,11.5353],[104.8379,11.5473],[104.8321,11.5517],[104.8233,11.5415],[104.8131,11.5399],[104.8129,11.5339],[104.7961,11.5301],[104.7963,11.5259],[104.7933,11.5249],[104.7957,11.5187],[104.8053,11.5205],[104.8205,11.5181],[104.8203,11.5007],[104.8373,11.4999],[104.8395,11.5057],[104.8607,11.5067],[104.8727,11.5115],[104.8781,11.5163],[104.8769,11.5205],[104.8629,11.5247],[104.8607,11.5455]]]}},{"type":"Feature","properties":{"c":"120905","en":"Kakab","km":"សង្កាត់កាកាប"},"geometry":{"type":"Polygon","coordinates":[[[104.8345,11.5677],[104.8245,11.5693],[104.8211,11.5667],[104.8191,11.5417],[104.8267,11.5439],[104.8293,11.5503],[104.8321,11.5517],[104.8379,11.5473],[104.8317,11.5353],[104.8343,11.5341],[104.8427,11.5423],[104.8543,11.5409],[104.8607,11.5455],[104.8637,11.5677],[104.8345,11.5677]]]}},{"type":"Feature","properties":{"c":"120909","en":"Kamboul","km":"សង្កាត់កំបូល"},"geometry":{"type":"Polygon","coordinates":[[[104.7833,11.5521],[104.7771,11.5497],[104.7661,11.5633],[104.7539,11.5637],[104.7489,11.5455],[104.7439,11.5397],[104.7447,11.5305],[104.7481,11.5279],[104.7559,11.5303],[104.7673,11.5201],[104.7703,11.5243],[104.7745,11.5255],[104.7775,11.5221],[104.7815,11.5219],[104.7933,11.5249],[104.7961,11.5301],[104.7999,11.5313],[104.7947,11.5485],[104.7849,11.5487],[104.7833,11.5521]]]}},{"type":"Feature","properties":{"c":"120910","en":"Kantaok","km":"សង្កាត់កន្ទោក"},"geometry":{"type":"MultiPolygon","coordinates":[[[[104.7957,11.5187],[104.8053,11.5205],[104.8205,11.5181],[104.8199,11.5087],[104.7975,11.5077],[104.7929,11.5027],[104.7875,11.4869],[104.7839,11.4857],[104.7807,11.4869],[104.7791,11.4945],[104.7755,11.4965],[104.7635,11.4959],[104.7685,11.5051],[104.7673,11.5201],[104.7703,11.5243],[104.7745,11.5255],[104.7775,11.5221],[104.7901,11.5243],[104.7933,11.5249],[104.7957,11.5187]]],[[[104.7941,11.5277],[104.7961,11.5301],[104.7963,11.5259],[104.7933,11.5249],[104.7941,11.5277]]]]}},{"type":"Feature","properties":{"c":"120911","en":"Ovlaok","km":"សង្កាត់ឪឡោក"},"geometry":{"type":"Polygon","coordinates":[[[104.7539,11.5637],[104.7563,11.5679],[104.7547,11.5753],[104.7621,11.5853],[104.7617,11.5917],[104.7425,11.5895],[104.7395,11.5841],[104.7293,11.5757],[104.7127,11.5765],[104.7135,11.5731],[104.7209,11.5717],[104.7227,11.5645],[104.7201,11.5617],[104.7251,11.5571],[104.7279,11.5447],[104.7385,11.5455],[104.7439,11.5397],[104.7489,11.5455],[104.7539,11.5637]]]}},{"type":"Feature","properties":{"c":"120903","en":"Phleung Chheh Roteh","km":"សង្កាត់ភ្លើងឆេះរទេះ"},"geometry":{"type":"Polygon","coordinates":[[[104.8199,11.5087],[104.8041,11.5091],[104.7947,11.5057],[104.7875,11.4869],[104.7863,11.4763],[104.8151,11.4819],[104.8197,11.4921],[104.8181,11.4965],[104.8203,11.5007],[104.8199,11.5087]]]}},{"type":"Feature","properties":{"c":"120906","en":"Samraong Kraom","km":"សង្កាត់សំរោងក្រោម"},"geometry":{"type":"Polygon","coordinates":[[[104.8237,11.5799],[104.8109,11.5797],[104.8017,11.5861],[104.7977,11.6027],[104.7893,11.6091],[104.7869,11.5783],[104.7987,11.5741],[104.8025,11.5633],[104.8033,11.5499],[104.8115,11.5501],[104.8159,11.5409],[104.8191,11.5417],[104.8189,11.5579],[104.8211,11.5667],[104.8245,11.5693],[104.8237,11.5799]]]}},{"type":"Feature","properties":{"c":"120913","en":"Snaor","km":"សង្កាត់ស្នោរ"},"geometry":{"type":"Polygon","coordinates":[[[104.7893,11.6091],[104.7855,11.6101],[104.7797,11.6049],[104.7781,11.5989],[104.7727,11.5949],[104.7617,11.5917],[104.7621,11.5853],[104.7547,11.5753],[104.7563,11.5679],[104.7539,11.5637],[104.7661,11.5633],[104.7771,11.5497],[104.7833,11.5521],[104.7879,11.5695],[104.7843,11.5725],[104.7875,11.5819],[104.7893,11.6091]]]}},{"type":"Feature","properties":{"c":"120901","en":"Trapeang Krasang","km":"សង្កាត់ត្រពាំងក្រសាំង"},"geometry":{"type":"Polygon","coordinates":[[[104.8159,11.5409],[104.8115,11.5501],[104.8033,11.5499],[104.8025,11.5633],[104.7987,11.5741],[104.7869,11.5783],[104.7845,11.5757],[104.7843,11.5725],[104.7879,11.5695],[104.7839,11.5575],[104.7849,11.5487],[104.7947,11.5485],[104.7999,11.5313],[104.8129,11.5339],[104.8131,11.5399],[104.8159,11.5409]]]}}]}