{"type":"FeatureCollection","features":[{"type":"Feature","properties":{"c":"121005","en":"Bak Kaeng","km":"សង្កាត់បាក់ខែង"},"geometry":{"type":"Polygon","coordinates":[[[104.9603,11.7117],[104.9443,11.7349],[104.9189,11.7365],[104.9161,11.7169],[104.9125,11.7123],[104.9093,11.7003],[104.9005,11.6915],[104.8991,11.6843],[104.9237,11.6727],[104.9389,11.6957],[104.9603,11.7117]]]}},{"type":"Feature","properties":{"c":"121001","en":"Chrouy Changvar","km":"សង្កាត់ជ្រោយចង្វារ"},"geometry":{"type":"Polygon","coordinates":[[[104.9391,11.6057],[104.9355,11.6111],[104.9211,11.6073],[104.9199,11.5981],[104.9211,11.5895],[104.9279,11.5775],[104.9349,11.5671],[104.9425,11.5621],[104.9459,11.5631],[104.9451,11.5759],[104.9391,11.6057]]]}},{"type":"Feature","properties":{"c":"121004","en":"Kaoh Dach","km":"សង្កាត់កោះដាច់"},"geometry":{"type":"Polygon","coordinates":[[[104.9677,11.7109],[104.9603,11.7117],[104.9389,11.6957],[104.9215,11.6677],[104.9189,11.6553],[104.9323,11.6237],[104.9377,11.6423],[104.9467,11.6549],[104.9545,11.6751],[104.9599,11.6829],[104.9677,11.7109]]]}},{"type":"Feature","properties":{"c":"121002","en":"Preaek Lieb","km":"សង្កាត់ព្រែកលៀប"},"geometry":{"type":"Polygon","coordinates":[[[104.9237,11.6727],[104.8991,11.6843],[104.8977,11.6723],[104.9005,11.6699],[104.9009,11.6655],[104.8973,11.6621],[104.8973,11.6571],[104.9059,11.6495],[104.9085,11.6381],[104.9205,11.6237],[104.9247,11.6085],[104.9355,11.6111],[104.9189,11.6553],[104.9237,11.6727]]]}},{"type":"Feature","properties":{"c":"121003","en":"Preaek Ta Sek","km":"សង្កាត់ព្រែកតាសេក"},"geometry":{"type":"Polygon","coordinates":[[[104.8977,11.6723],[104.8627,11.6727],[104.8613,11.6685],[104.8791,11.6449],[104.9021,11.6349],[104.9093,11.6295],[104.9183,11.6183],[104.9211,11.6073],[104.9247,11.6085],[104.9205,11.6237],[104.9085,11.6381],[104.9059,11.6495],[104.8973,11.6571],[104.8973,11.6621],[104.9009,11.6655],[104.9005,11.6699],[104.8977,11.6723]]]}}]}