{"type":"FeatureCollection","features":[{"type":"Feature","properties":{"c":"121104","en":"Kouk Roka","km":"សង្កាត់គោករកា"},"geometry":{"type":"Polygon","coordinates":[[[104.8387,11.6495],[104.8303,11.6475],[104.8249,11.6539],[104.8267,11.6573],[104.8179,11.6591],[104.8155,11.6521],[104.8085,11.6515],[104.8021,11.6461],[104.8039,11.6367],[104.7949,11.6355],[104.7973,11.6257],[104.7895,11.6179],[104.7893,11.6091],[104.7977,11.6027],[104.8017,11.5861],[104.8081,11.5809],[104.8237,11.5799],[104.8315,11.5887],[104.8335,11.6133],[104.8383,11.6201],[104.8361,11.6349],[104.8423,11.6397],[104.8409,11.6519],[104.8387,11.6495]]]}},{"type":"Feature","properties":{"c":"121102","en":"Ponhea Pon","km":"សង្កាត់ពញាពន់"},"geometry":{"type":"Polygon","coordinates":[[[104.8387,11.6495],[104.8261,11.6647],[104.8243,11.6763],[104.7523,11.6659],[104.7475,11.6605],[104.7489,11.6563],[104.7907,11.6469],[104.8021,11.6461],[104.8085,11.6515],[104.8155,11.6521],[104.8179,11.6591],[104.8267,11.6573],[104.8249,11.6539],[104.8303,11.6475],[104.8387,11.6495]]]}},{"type":"Feature","properties":{"c":"121105","en":"Ponsang","km":"សង្កាត់ពន្សាំង"},"geometry":{"type":"Polygon","coordinates":[[[104.8021,11.6461],[104.7859,11.6475],[104.7607,11.6551],[104.7489,11.6563],[104.7425,11.6463],[104.7439,11.6407],[104.7419,11.6291],[104.7345,11.6059],[104.7357,11.5985],[104.7321,11.5891],[104.7355,11.5821],[104.7395,11.5841],[104.7425,11.5895],[104.7727,11.5949],[104.7781,11.5989],[104.7797,11.6049],[104.7855,11.6101],[104.7893,11.6091],[104.7895,11.6179],[104.7973,11.6257],[104.7949,11.6355],[104.8039,11.6367],[104.8021,11.6461]]]}},{"type":"Feature","properties":{"c":"121101","en":"Preaek Phnov","km":"សង្កាត់ព្រែកព្នៅ"},"geometry":{"type":"Polygon","coordinates":[[[104.8565,11.6771],[104.8455,11.6917],[104.8415,11.6899],[104.8505,11.6575],[104.8409,11.6519],[104.8423,11.6397],[104.8689,11.6583],[104.8565,11.6771]]]}},{"type":"Feature","properties":{"c":"121103","en":"Samraong","km":"សង្កាត់សំរោង"},"geometry":{"type":"Polygon","coordinates":[[[104.8399,11.7145],[104.8261,11.7175],[104.8229,11.7133],[104.8233,11.7089],[104.8171,11.7063],[104.8147,11.6927],[104.8167,11.6893],[104.8113,11.6815],[104.8107,11.6769],[104.8133,11.6739],[104.8243,11.6763],[104.8261,11.6647],[104.8387,11.6495],[104.8427,11.6543],[104.8505,11.6575],[104.8415,11.6899],[104.8455,11.6917],[104.8457,11.6947],[104.8399,11.7145]]]}}]}