{"type":"FeatureCollection","features":[{"type":"Feature","properties":{"c":"121202","en":"Chbar Ampov Ti Pir","km":"សង្កាត់ច្បារអំពៅទី ២"},"geometry":{"type":"Polygon","coordinates":[[[104.9431,11.5303],[104.9403,11.5435],[104.9343,11.5407],[104.9317,11.5373],[104.9321,11.5313],[104.9431,11.5303]]]}},{"type":"Feature","properties":{"c":"121201","en":"Chhbar Ampov Ti Muoy","km":"សង្កាត់ច្បារអំពៅទី ១"},"geometry":{"type":"Polygon","coordinates":[[[104.9431,11.5303],[104.9363,11.5321],[104.9321,11.5313],[104.9359,11.5269],[104.9431,11.5303]]]}},{"type":"Feature","properties":{"c":"121207","en":"Kbal Kaoh","km":"សង្កាត់ក្បាលកោះ"},"geometry":{"type":"Polygon","coordinates":[[[105.0417,11.5389],[105.0177,11.5453],[105.0031,11.5437],[105.0015,11.5221],[104.9975,11.5197],[104.9885,11.5201],[104.9789,11.5009],[104.9615,11.5011],[104.9543,11.4967],[104.9607,11.4883],[104.9673,11.4849],[105.0293,11.4835],[105.0263,11.5157],[105.0417,11.5389]]]}},{"type":"Feature","properties":{"c":"121203","en":"Nirouth","km":"សង្កាត់និរោធ"},"geometry":{"type":"Polygon","coordinates":[[[104.9633,11.5521],[104.9515,11.5581],[104.9403,11.5435],[104.9431,11.5303],[104.9399,11.5279],[104.9465,11.5201],[104.9469,11.5127],[104.9653,11.5173],[104.9633,11.5521]]]}},{"type":"Feature","properties":{"c":"121206","en":"Preaek Aeng","km":"សង្កាត់ព្រែកឯង"},"geometry":{"type":"Polygon","coordinates":[[[105.0031,11.5437],[104.9761,11.5461],[104.9825,11.5331],[104.9781,11.5277],[104.9755,11.5005],[104.9811,11.5031],[104.9885,11.5201],[104.9975,11.5197],[105.0015,11.5221],[105.0031,11.5437]]]}},{"type":"Feature","properties":{"c":"121204","en":"Preaek Pra","km":"សង្កាត់ព្រែកប្រា"},"geometry":{"type":"Polygon","coordinates":[[[104.9653,11.5173],[104.9469,11.5127],[104.9465,11.5201],[104.9439,11.5235],[104.9399,11.5279],[104.9359,11.5269],[104.9471,11.4937],[104.9513,11.4933],[104.9579,11.4973],[104.9653,11.5049],[104.9653,11.5173]]]}},{"type":"Feature","properties":{"c":"121208","en":"Preaek Thmei","km":"សង្កាត់ព្រែកថ្មី"},"geometry":{"type":"Polygon","coordinates":[[[105.0293,11.4835],[104.9673,11.4849],[104.9607,11.4883],[104.9543,11.4967],[104.9513,11.4933],[104.9471,11.4937],[104.9633,11.4665],[104.9701,11.4631],[104.9825,11.4615],[105.0027,11.4659],[105.0297,11.4657],[105.0289,11.4693],[105.0311,11.4723],[105.0491,11.4823],[105.0293,11.4835]]]}},{"type":"Feature","properties":{"c":"121205","en":"Veal Sbov","km":"សង្កាត់វាលស្បូវ"},"geometry":{"type":"Polygon","coordinates":[[[104.9761,11.5461],[104.9633,11.5521],[104.9653,11.5049],[104.9615,11.5011],[104.9755,11.5005],[104.9781,11.5277],[104.9825,11.5331],[104.9761,11.5461]]]}}]}