{"type":"FeatureCollection","features":[{"type":"Feature","properties":{"c":"130104","en":"Chrach","km":"ច្រាច់"},"geometry":{"type":"Polygon","coordinates":[[[105.4601,13.6531],[105.3997,13.6809],[105.3735,13.6841],[105.3489,13.6839],[105.3439,13.6691],[105.3335,13.6583],[105.3287,13.6487],[105.3245,13.6095],[105.2963,13.5587],[105.2831,13.5031],[105.2587,13.4925],[105.2543,13.4879],[105.2475,13.4721],[105.2473,13.4579],[105.2625,13.4465],[105.2793,13.4473],[105.3087,13.4547],[105.3279,13.4625],[105.3595,13.4631],[105.3677,13.4659],[105.3751,13.5021],[105.3883,13.5241],[105.3909,13.5437],[105.3965,13.5575],[105.3989,13.5621],[105.4353,13.5731],[105.4295,13.6107],[105.4421,13.6321],[105.4601,13.6531]]]}},{"type":"Feature","properties":{"c":"130103","en":"Khyang","km":"ខ្យង"},"geometry":{"type":"Polygon","coordinates":[[[105.3069,13.6945],[105.3019,13.6951],[105.2953,13.6911],[105.2885,13.6833],[105.2799,13.6627],[105.2517,13.6319],[105.2417,13.6151],[105.2439,13.5975],[105.2581,13.5805],[105.2647,13.5601],[105.2905,13.5339],[105.2983,13.5631],[105.3245,13.6095],[105.3287,13.6487],[105.3335,13.6583],[105.3439,13.6691],[105.3489,13.6839],[105.3323,13.6863],[105.3069,13.6945]]]}},{"type":"Feature","properties":{"c":"130106","en":"Putrea","km":"ពុទ្រា"},"geometry":{"type":"Polygon","coordinates":[[[105.2049,13.6593],[105.2025,13.6611],[105.1783,13.6583],[105.1579,13.6487],[105.1313,13.6153],[105.1337,13.6109],[105.1305,13.6063],[105.1305,13.5987],[105.1365,13.5933],[105.1459,13.5953],[105.1483,13.5927],[105.1479,13.5819],[105.1605,13.5867],[105.1643,13.5833],[105.1619,13.5755],[105.1725,13.5707],[105.1751,13.5585],[105.1887,13.5545],[105.1911,13.5513],[105.1893,13.5473],[105.1795,13.5403],[105.1793,13.5333],[105.1879,13.5265],[105.1967,13.5295],[105.1979,13.5207],[105.1929,13.5123],[105.1961,13.5109],[105.2123,13.5223],[105.2167,13.5197],[105.2173,13.5163],[105.2055,13.5039],[105.2065,13.5009],[105.2143,13.4957],[105.2281,13.4923],[105.2277,13.4891],[105.2193,13.4821],[105.2141,13.4867],[105.2105,13.4865],[105.2083,13.4847],[105.2103,13.4813],[105.2213,13.4727],[105.2233,13.4661],[105.2325,13.4647],[105.2473,13.4579],[105.2475,13.4721],[105.2543,13.4879],[105.2587,13.4925],[105.2831,13.5031],[105.2905,13.5339],[105.2647,13.5601],[105.2581,13.5805],[105.2439,13.5975],[105.2417,13.6151],[105.2343,13.6161],[105.2219,13.6101],[105.2115,13.6127],[105.1965,13.6109],[105.1999,13.6305],[105.1961,13.6381],[105.1991,13.6381],[105.2091,13.6537],[105.2053,13.6559],[105.2049,13.6593]]]}},{"type":"Feature","properties":{"c":"130101","en":"S'ang","km":"ស្អាង"},"geometry":{"type":"Polygon","coordinates":[[[105.2417,13.6151],[105.2517,13.6319],[105.2799,13.6627],[105.2829,13.6701],[105.2691,13.6649],[105.2605,13.6553],[105.2451,13.6655],[105.2237,13.6665],[105.2049,13.6593],[105.2053,13.6559],[105.2091,13.6537],[105.1991,13.6381],[105.1961,13.6381],[105.1999,13.6305],[105.1965,13.6109],[105.2115,13.6127],[105.2219,13.6101],[105.2343,13.6161],[105.2417,13.6151]]]}},{"type":"Feature","properties":{"c":"130102","en":"Tasu","km":"តស៊ូ"},"geometry":{"type":"Polygon","coordinates":[[[105.2229,13.7197],[105.1687,13.7311],[105.1567,13.7377],[105.1407,13.7531],[105.1221,13.7451],[105.1157,13.7391],[105.1113,13.7267],[105.1027,13.7237],[105.1017,13.7207],[105.1127,13.7089],[105.1233,13.7023],[105.1307,13.7031],[105.1383,13.6963],[105.1359,13.6887],[105.1221,13.6869],[105.1191,13.6837],[105.1175,13.6743],[105.1275,13.6631],[105.1265,13.6549],[105.1329,13.6525],[105.1325,13.6493],[105.1277,13.6471],[105.1165,13.6307],[105.1345,13.6279],[105.1339,13.6239],[105.1283,13.6219],[105.1275,13.6169],[105.1313,13.6153],[105.1389,13.6225],[105.1449,13.6343],[105.1579,13.6487],[105.1733,13.6571],[105.2025,13.6611],[105.2049,13.6593],[105.2237,13.6665],[105.2451,13.6655],[105.2605,13.6553],[105.2691,13.6649],[105.2829,13.6701],[105.2885,13.6833],[105.3019,13.6951],[105.2785,13.7029],[105.2493,13.7209],[105.2457,13.7219],[105.2365,13.7169],[105.2229,13.7197]]]}},{"type":"Feature","properties":{"c":"130105","en":"Thmea","km":"ធ្មា"},"geometry":{"type":"Polygon","coordinates":[[[105.5709,13.6325],[105.5499,13.6459],[105.5323,13.6507],[105.5259,13.6505],[105.4929,13.6399],[105.4741,13.6457],[105.4601,13.6531],[105.4575,13.6511],[105.4421,13.6321],[105.4295,13.6107],[105.4353,13.5731],[105.3989,13.5621],[105.3965,13.5575],[105.3909,13.5437],[105.3883,13.5241],[105.3751,13.5021],[105.3677,13.4659],[105.4163,13.4627],[105.5101,13.4617],[105.5401,13.4523],[105.5435,13.4623],[105.5549,13.4781],[105.5633,13.4851],[105.5663,13.4925],[105.5627,13.5407],[105.5719,13.5955],[105.5731,13.6223],[105.5709,13.6325]]]}}]}