{"type":"FeatureCollection","features":[{"type":"Feature","properties":{"c":"130201","en":"Chhaeb Muoy","km":"ឆែបមួយ"},"geometry":{"type":"Polygon","coordinates":[[[105.5259,13.8121],[105.4919,13.8245],[105.4843,13.8229],[105.4789,13.8255],[105.4639,13.8195],[105.4549,13.8219],[105.4497,13.8293],[105.4169,13.8443],[105.4135,13.8497],[105.4025,13.8509],[105.3875,13.8573],[105.3807,13.8691],[105.3779,13.8685],[105.3745,13.8661],[105.3713,13.8563],[105.3759,13.8315],[105.3715,13.8257],[105.3757,13.8189],[105.3851,13.7729],[105.3757,13.7521],[105.3743,13.7299],[105.3649,13.7211],[105.3595,13.7191],[105.3481,13.7237],[105.3441,13.7219],[105.3309,13.7023],[105.3165,13.7001],[105.3069,13.6945],[105.3425,13.6845],[105.3735,13.6841],[105.3997,13.6809],[105.4497,13.6589],[105.4691,13.6479],[105.4883,13.6409],[105.4995,13.6409],[105.5215,13.6493],[105.5323,13.6507],[105.5499,13.6459],[105.5709,13.6325],[105.5735,13.6469],[105.5769,13.6527],[105.5753,13.6693],[105.5703,13.6795],[105.5705,13.6899],[105.5649,13.7085],[105.5527,13.7251],[105.5489,13.7393],[105.5337,13.7491],[105.5311,13.7601],[105.5249,13.7651],[105.5225,13.7789],[105.5289,13.7909],[105.5257,13.7979],[105.5251,13.8023],[105.5281,13.8063],[105.5259,13.8121]]]}},{"type":"Feature","properties":{"c":"130202","en":"Chhaeb Pir","km":"ឆែបពីរ"},"geometry":{"type":"Polygon","coordinates":[[[105.6787,13.9399],[105.6759,13.9385],[105.6735,13.9407],[105.6711,13.9473],[105.6265,13.9595],[105.6177,13.9663],[105.6079,13.9691],[105.5985,13.9767],[105.5909,13.9795],[105.5857,13.9809],[105.5805,13.9783],[105.5711,13.9783],[105.5001,13.9935],[105.3807,14.0309],[105.3419,14.0451],[105.3335,14.0451],[105.3377,14.0361],[105.3461,14.0331],[105.3541,14.0267],[105.3631,14.0067],[105.3631,13.9871],[105.3817,13.9223],[105.3817,13.9103],[105.3725,13.8989],[105.3717,13.8947],[105.3721,13.8737],[105.3745,13.8661],[105.3807,13.8691],[105.3875,13.8573],[105.4025,13.8509],[105.4135,13.8497],[105.4169,13.8443],[105.4385,13.8359],[105.4497,13.8293],[105.4549,13.8219],[105.4599,13.8203],[105.4639,13.8195],[105.4789,13.8255],[105.4843,13.8229],[105.4919,13.8245],[105.5259,13.8121],[105.5217,13.8195],[105.5205,13.8299],[105.5281,13.8511],[105.5453,13.8641],[105.5527,13.8649],[105.5583,13.8715],[105.5633,13.8727],[105.5797,13.8869],[105.6015,13.8785],[105.6051,13.8711],[105.6233,13.8569],[105.6271,13.8577],[105.6293,13.8645],[105.6363,13.8685],[105.6537,13.8695],[105.6655,13.8747],[105.6743,13.8711],[105.6803,13.8633],[105.6917,13.8665],[105.6973,13.8625],[105.7001,13.8653],[105.7115,13.8673],[105.7149,13.8803],[105.7133,13.8837],[105.7069,13.8857],[105.7037,13.8899],[105.7047,13.8979],[105.7007,13.9043],[105.6911,13.9109],[105.6877,13.9109],[105.6799,13.9243],[105.6817,13.9277],[105.6787,13.9399]]]}},{"type":"Feature","properties":{"c":"130207","en":"Kampong Sralau Muoy","km":"កំពង់ស្រឡៅមួយ"},"geometry":{"type":"Polygon","coordinates":[[[105.7829,14.0431],[105.7849,14.0535],[105.7833,14.0577],[105.7883,14.0797],[105.7867,14.0827],[105.7733,14.0887],[105.7421,14.0957],[105.7383,14.0945],[105.7269,14.1085],[105.7231,14.1091],[105.7183,14.1069],[105.7107,14.0961],[105.7097,14.0911],[105.7039,14.0869],[105.6975,14.0949],[105.6855,14.1021],[105.6821,14.1089],[105.6661,14.1147],[105.6591,14.1201],[105.6557,14.1185],[105.6609,14.1145],[105.6603,14.1107],[105.6541,14.1119],[105.6503,14.1089],[105.6483,14.0981],[105.6455,14.0975],[105.6331,14.1075],[105.6355,14.1185],[105.6305,14.1255],[105.6331,14.1273],[105.6329,14.1307],[105.6259,14.1301],[105.6199,14.1341],[105.6171,14.1265],[105.6105,14.1317],[105.6083,14.1441],[105.6045,14.1445],[105.6023,14.1477],[105.5939,14.1459],[105.5851,14.1489],[105.5879,14.1391],[105.5839,14.1393],[105.5745,14.1449],[105.5675,14.1553],[105.5569,14.1607],[105.5355,14.1497],[105.5287,14.1423],[105.5215,14.1411],[105.5139,14.1347],[105.4997,14.1335],[105.4985,14.1291],[105.4905,14.1259],[105.4867,14.1201],[105.4783,14.1185],[105.4741,14.1205],[105.4679,14.1131],[105.4597,14.1103],[105.4555,14.1037],[105.4487,14.1031],[105.4453,14.1079],[105.4223,14.1059],[105.4133,14.1109],[105.4079,14.1101],[105.4035,14.1029],[105.4007,14.1047],[105.3919,14.1007],[105.3927,14.0967],[105.3889,14.0897],[105.3753,14.0895],[105.3659,14.0821],[105.3531,14.0819],[105.3413,14.0775],[105.3399,14.0731],[105.3161,14.0497],[105.3247,14.0509],[105.3335,14.0451],[105.3419,14.0451],[105.3807,14.0309],[105.5001,13.9935],[105.5711,13.9783],[105.5805,13.9783],[105.5857,13.9809],[105.5909,13.9795],[105.5985,13.9767],[105.6079,13.9691],[105.6177,13.9663],[105.6265,13.9595],[105.6711,13.9473],[105.6759,13.9385],[105.6787,13.9399],[105.6793,13.9495],[105.6905,13.9621],[105.7007,13.9809],[105.7195,14.0023],[105.7285,14.0083],[105.7351,14.0189],[105.7437,14.0213],[105.7523,14.0299],[105.7597,14.0425],[105.7765,14.0467],[105.7829,14.0431]]]}},{"type":"Feature","properties":{"c":"130208","en":"Kampong Sralau Pir","km":"កំពង់ស្រឡៅពីរ"},"geometry":{"type":"Polygon","coordinates":[[[105.7829,14.0431],[105.7765,14.0467],[105.7597,14.0425],[105.7523,14.0299],[105.7437,14.0213],[105.7351,14.0189],[105.7285,14.0083],[105.7195,14.0023],[105.6947,13.9727],[105.6905,13.9621],[105.6793,13.9495],[105.6787,13.9449],[105.6783,13.9357],[105.6817,13.9277],[105.6799,13.9243],[105.6877,13.9109],[105.6911,13.9109],[105.7007,13.9043],[105.7015,13.9087],[105.7123,13.9171],[105.7521,13.9227],[105.8695,13.9217],[105.8803,13.9245],[105.9001,13.9369],[105.8945,13.9471],[105.8851,13.9547],[105.8365,13.9855],[105.8247,14.0013],[105.7935,14.0229],[105.7829,14.0431]]]}},{"type":"Feature","properties":{"c":"130205","en":"Mlu Prey Muoy","km":"ម្លូព្រៃមួយ"},"geometry":{"type":"Polygon","coordinates":[[[105.3073,13.7665],[105.3089,13.7933],[105.3025,13.8153],[105.2943,13.8243],[105.2835,13.8617],[105.2847,13.8779],[105.2907,13.8881],[105.2923,13.8989],[105.2883,13.9057],[105.2791,13.9139],[105.2673,13.9383],[105.2703,13.9513],[105.2667,13.9611],[105.2677,13.9703],[105.2627,13.9787],[105.2683,13.9855],[105.2591,13.9939],[105.2635,14.0011],[105.2573,14.0307],[105.2449,14.0457],[105.2193,14.0581],[105.2097,14.0191],[105.1985,13.9913],[105.1767,13.9151],[105.1635,13.8899],[105.1233,13.8493],[105.1177,13.8363],[105.1451,13.8167],[105.1549,13.7971],[105.1553,13.7811],[105.2045,13.7973],[105.2463,13.7973],[105.2733,13.7887],[105.2819,13.7691],[105.2823,13.7597],[105.3073,13.7665]]]}},{"type":"Feature","properties":{"c":"130206","en":"Mlu Prey Pir","km":"ម្លូព្រៃពីរ"},"geometry":{"type":"Polygon","coordinates":[[[105.2823,13.7597],[105.2819,13.7691],[105.2733,13.7887],[105.2463,13.7973],[105.2045,13.7973],[105.1553,13.7811],[105.1473,13.7613],[105.1407,13.7531],[105.1567,13.7377],[105.1687,13.7311],[105.2229,13.7197],[105.2253,13.7247],[105.2359,13.7339],[105.2471,13.7381],[105.2601,13.7535],[105.2741,13.7549],[105.2823,13.7597]]]}},{"type":"Feature","properties":{"c":"130203","en":"Sangkae Muoy","km":"សង្កែមួយ"},"geometry":{"type":"Polygon","coordinates":[[[105.3161,14.0497],[105.3079,14.0427],[105.2833,14.0365],[105.2571,14.0573],[105.2465,14.0595],[105.2193,14.0581],[105.2449,14.0457],[105.2573,14.0307],[105.2635,14.0011],[105.2591,13.9939],[105.2683,13.9855],[105.2627,13.9787],[105.2677,13.9703],[105.2667,13.9611],[105.2703,13.9513],[105.2673,13.9383],[105.2791,13.9139],[105.2883,13.9057],[105.2923,13.8989],[105.2907,13.8881],[105.2847,13.8779],[105.2835,13.8617],[105.2943,13.8243],[105.3025,13.8153],[105.3089,13.7933],[105.3073,13.7665],[105.3327,13.7629],[105.3369,13.7457],[105.3339,13.7293],[105.3363,13.7171],[105.3391,13.7149],[105.3441,13.7219],[105.3481,13.7237],[105.3595,13.7191],[105.3649,13.7211],[105.3743,13.7299],[105.3757,13.7521],[105.3851,13.7729],[105.3757,13.8189],[105.3715,13.8257],[105.3759,13.8315],[105.3713,13.8563],[105.3745,13.8661],[105.3721,13.8737],[105.3717,13.8947],[105.3725,13.8989],[105.3817,13.9103],[105.3817,13.9223],[105.3631,13.9871],[105.3631,14.0067],[105.3575,14.0211],[105.3509,14.0295],[105.3353,14.0383],[105.3335,14.0451],[105.3293,14.0481],[105.3247,14.0509],[105.3161,14.0497]]]}},{"type":"Feature","properties":{"c":"130204","en":"Sangkae Pir","km":"សង្កែពីរ"},"geometry":{"type":"Polygon","coordinates":[[[105.3073,13.7665],[105.3045,13.7673],[105.2949,13.7619],[105.2863,13.7615],[105.2741,13.7549],[105.2601,13.7535],[105.2471,13.7381],[105.2359,13.7339],[105.2253,13.7247],[105.2229,13.7197],[105.2365,13.7169],[105.2457,13.7219],[105.2493,13.7209],[105.2785,13.7029],[105.3019,13.6951],[105.3069,13.6945],[105.3165,13.7001],[105.3309,13.7023],[105.3391,13.7149],[105.3363,13.7171],[105.3339,13.7293],[105.3369,13.7457],[105.3359,13.7549],[105.3327,13.7629],[105.3073,13.7665]]]}}]}