{"type":"FeatureCollection","features":[{"type":"Feature","properties":{"c":"130301","en":"Choam Ksant","km":"ជាំក្សាន្ដ"},"geometry":{"type":"Polygon","coordinates":[[[104.9947,14.3093],[104.9855,14.3195],[104.9921,14.3237],[104.9927,14.3417],[105.0023,14.3607],[105.0025,14.3641],[104.9935,14.3791],[104.9895,14.3797],[104.9733,14.3921],[104.9629,14.3893],[104.9591,14.3911],[104.9541,14.3813],[104.9473,14.3823],[104.9359,14.3927],[104.9239,14.3997],[104.9051,14.3999],[104.8975,14.4061],[104.8779,14.4131],[104.8715,14.4179],[104.8611,14.4095],[104.8579,14.4115],[104.8531,14.4071],[104.8407,14.4025],[104.8395,14.3987],[104.8359,14.3991],[104.8339,14.4015],[104.8345,14.4141],[104.8327,14.4165],[104.8297,14.4155],[104.8191,14.4085],[104.8223,14.4005],[104.8211,14.3969],[104.8147,14.3931],[104.8107,14.3789],[104.8131,14.3673],[104.8233,14.3615],[104.8227,14.3517],[104.8119,14.3323],[104.8181,14.2911],[104.8391,14.2741],[104.8207,14.2627],[104.8195,14.2591],[104.8079,14.2511],[104.8003,14.2363],[104.8287,14.2361],[104.8447,14.2313],[104.8795,14.2139],[104.9439,14.2067],[104.9445,14.2343],[104.9535,14.2549],[104.9609,14.2633],[104.9741,14.2685],[104.9771,14.2771],[104.9897,14.2925],[104.9947,14.3093]]]}},{"type":"Feature","properties":{"c":"130306","en":"Kantuot","km":"កន្ទួត"},"geometry":{"type":"Polygon","coordinates":[[[104.8003,14.2363],[104.7599,14.2403],[104.7165,14.2379],[104.6749,14.2451],[104.5211,14.2505],[104.5143,14.2531],[104.4737,14.2849],[104.4569,14.2853],[104.4559,14.2593],[104.4619,14.2511],[104.4629,14.2337],[104.4571,14.2195],[104.4567,14.2129],[104.4443,14.2113],[104.4421,14.2089],[104.4451,14.2009],[104.4515,14.1977],[104.4627,14.1781],[104.4707,14.1745],[104.4729,14.1689],[104.4871,14.1609],[104.4885,14.1581],[104.5029,14.1513],[104.5075,14.1453],[104.5065,14.1401],[104.5109,14.1401],[104.5181,14.1353],[104.5331,14.1323],[104.5379,14.1339],[104.5423,14.1405],[104.5405,14.1603],[104.6015,14.1525],[104.6231,14.1427],[104.6379,14.1313],[104.6517,14.1277],[104.6571,14.1375],[104.6561,14.1511],[104.6755,14.1521],[104.6829,14.1557],[104.6847,14.1615],[104.6831,14.1649],[104.6887,14.1739],[104.6911,14.1857],[104.7081,14.1909],[104.7111,14.1933],[104.7095,14.1967],[104.7123,14.2023],[104.7265,14.1981],[104.7375,14.2101],[104.7651,14.2057],[104.7757,14.2065],[104.7979,14.2291],[104.8003,14.2363]]]}},{"type":"Feature","properties":{"c":"130308","en":"Morokot","km":"មរកត"},"geometry":{"type":"Polygon","coordinates":[[[105.3919,14.1007],[105.3825,14.1053],[105.3717,14.1031],[105.3695,14.1067],[105.3663,14.1047],[105.3625,14.1057],[105.3479,14.1261],[105.3441,14.1263],[105.3359,14.1383],[105.3271,14.1437],[105.3271,14.1507],[105.3233,14.1539],[105.3243,14.1579],[105.3201,14.1631],[105.3135,14.1635],[105.3097,14.1611],[105.2983,14.1659],[105.2979,14.1697],[105.2927,14.1721],[105.2887,14.1699],[105.2821,14.1717],[105.2755,14.1769],[105.2743,14.1857],[105.2707,14.1937],[105.2669,14.1961],[105.2671,14.2009],[105.2571,14.2121],[105.2565,14.2265],[105.2501,14.2307],[105.2469,14.2427],[105.2471,14.2593],[105.2415,14.2715],[105.2373,14.2773],[105.2239,14.2855],[105.2205,14.2957],[105.2073,14.3113],[105.2067,14.3417],[105.1995,14.3485],[105.1877,14.3429],[105.1751,14.3447],[105.1675,14.3293],[105.1681,14.3263],[105.1755,14.3221],[105.1771,14.3159],[105.1687,14.3041],[105.1611,14.3009],[105.1599,14.2885],[105.1721,14.2673],[105.1787,14.2647],[105.1801,14.2619],[105.1629,14.2207],[105.1387,14.1901],[105.0975,14.1699],[105.0907,14.1633],[105.0821,14.1517],[105.0813,14.1395],[105.0757,14.1255],[105.0843,14.1237],[105.1041,14.1125],[105.1319,14.1059],[105.1479,14.0953],[105.1735,14.0983],[105.1833,14.0957],[105.1915,14.0903],[105.2121,14.0635],[105.2193,14.0581],[105.2465,14.0595],[105.2571,14.0573],[105.2833,14.0365],[105.3131,14.0455],[105.3453,14.0801],[105.3659,14.0821],[105.3753,14.0895],[105.3889,14.0897],[105.3927,14.0967],[105.3919,14.1007]]]}},{"type":"Feature","properties":{"c":"130303","en":"Pring Thum","km":"ព្រីងធំ"},"geometry":{"type":"Polygon","coordinates":[[[105.0757,14.1255],[105.0389,14.1529],[105.0215,14.1625],[105.0101,14.1679],[104.9941,14.1699],[104.9949,14.1501],[105.0031,14.1405],[105.0059,14.1321],[104.9917,14.1091],[104.9855,14.0827],[104.9863,14.0727],[104.9817,14.0489],[104.9839,14.0299],[104.9759,14.0355],[104.9747,14.0441],[104.9623,14.0495],[104.9595,14.0531],[104.9553,14.0691],[104.9565,14.0765],[104.9471,14.0807],[104.9333,14.0981],[104.9169,14.1053],[104.9053,14.1027],[104.8909,14.0951],[104.8841,14.0953],[104.8651,14.0829],[104.8483,14.0815],[104.8369,14.0833],[104.8285,14.0807],[104.8119,14.0671],[104.8047,14.0507],[104.7959,14.0393],[104.7839,14.0317],[104.7847,14.0183],[104.7907,14.0077],[104.7931,13.9943],[104.7999,13.9867],[104.8059,13.9857],[104.7969,13.9781],[104.7939,13.9725],[104.7925,13.9433],[104.8079,13.9427],[104.8465,13.9505],[104.8635,13.9507],[104.8809,13.9471],[104.9041,13.9379],[104.9329,13.9353],[105.1831,13.9357],[105.1985,13.9913],[105.2115,14.0251],[105.2193,14.0581],[105.2121,14.0635],[105.1915,14.0903],[105.1833,14.0957],[105.1735,14.0983],[105.1479,14.0953],[105.1319,14.1059],[105.1041,14.1125],[105.0843,14.1237],[105.0757,14.1255]]]}},{"type":"Feature","properties":{"c":"130304","en":"Rumdaoh Srae","km":"រំដោះស្រែ"},"geometry":{"type":"Polygon","coordinates":[[[104.9439,14.2067],[104.8795,14.2139],[104.8447,14.2313],[104.8287,14.2361],[104.8003,14.2363],[104.7871,14.1735],[104.7951,14.1507],[104.7943,14.1439],[104.7927,14.1365],[104.7843,14.1323],[104.7833,14.1291],[104.7867,14.1137],[104.7839,14.0941],[104.8005,14.0731],[104.7983,14.0625],[104.8021,14.0483],[104.8119,14.0671],[104.8285,14.0807],[104.8369,14.0833],[104.8483,14.0815],[104.8651,14.0829],[104.8841,14.0953],[104.8909,14.0951],[104.9053,14.1027],[104.9169,14.1053],[104.9333,14.0981],[104.9471,14.0807],[104.9565,14.0765],[104.9553,14.0691],[104.9595,14.0531],[104.9623,14.0495],[104.9747,14.0441],[104.9759,14.0355],[104.9839,14.0299],[104.9817,14.0489],[104.9863,14.0727],[104.9855,14.0827],[104.9917,14.1091],[105.0059,14.1321],[105.0051,14.1369],[104.9949,14.1501],[104.9941,14.1699],[104.9759,14.1659],[104.9725,14.1675],[104.9629,14.1777],[104.9571,14.1797],[104.9543,14.1893],[104.9439,14.2067]]]}},{"type":"Feature","properties":{"c":"130307","en":"Sror Aem","km":"ស្រអែម"},"geometry":{"type":"Polygon","coordinates":[[[104.8327,14.4165],[104.8197,14.4193],[104.8177,14.4283],[104.8087,14.4365],[104.8047,14.4373],[104.7897,14.4343],[104.7785,14.4257],[104.7655,14.4221],[104.7571,14.4141],[104.7535,14.4059],[104.7377,14.4143],[104.7313,14.4123],[104.7241,14.4039],[104.7203,14.4069],[104.7235,14.4219],[104.7121,14.4343],[104.7079,14.4341],[104.6993,14.4279],[104.6907,14.4159],[104.6849,14.4001],[104.6793,14.3977],[104.6603,14.4005],[104.6535,14.4075],[104.6559,14.4135],[104.6525,14.4217],[104.6491,14.4237],[104.6407,14.4227],[104.6267,14.4077],[104.6131,14.3981],[104.6031,14.3967],[104.5895,14.3815],[104.5791,14.3745],[104.5797,14.3589],[104.5711,14.3607],[104.5655,14.3549],[104.5569,14.3537],[104.5447,14.3569],[104.5347,14.3561],[104.5253,14.3607],[104.5149,14.3711],[104.4991,14.3759],[104.4779,14.3629],[104.4763,14.3595],[104.4789,14.3539],[104.4771,14.3511],[104.4663,14.3451],[104.4649,14.3209],[104.4573,14.2975],[104.4569,14.2853],[104.4737,14.2849],[104.5143,14.2531],[104.5211,14.2505],[104.6749,14.2451],[104.7165,14.2379],[104.7599,14.2403],[104.8003,14.2363],[104.8079,14.2511],[104.8195,14.2591],[104.8207,14.2627],[104.8391,14.2741],[104.8181,14.2911],[104.8119,14.3323],[104.8227,14.3517],[104.8233,14.3615],[104.8131,14.3673],[104.8107,14.3789],[104.8147,14.3931],[104.8211,14.3969],[104.8223,14.4005],[104.8191,14.4085],[104.8327,14.4165]]]}},{"type":"Feature","properties":{"c":"130302","en":"Tuek Kraham","km":"ទឹកក្រហម"},"geometry":{"type":"Polygon","coordinates":[[[105.1599,14.2885],[105.1535,14.2871],[105.1513,14.2843],[105.1505,14.2761],[105.1531,14.2685],[105.1445,14.2607],[105.1535,14.2579],[105.1537,14.2537],[105.1447,14.2403],[105.1261,14.2249],[105.1163,14.2221],[105.1083,14.2139],[105.0929,14.2153],[105.0853,14.2101],[105.0817,14.2101],[105.0757,14.2131],[105.0501,14.2155],[105.0443,14.2275],[105.0237,14.2403],[105.0211,14.2511],[105.0259,14.2639],[105.0213,14.2643],[105.0185,14.2675],[105.0057,14.2901],[105.0027,14.3027],[104.9947,14.3093],[104.9897,14.2925],[104.9771,14.2771],[104.9741,14.2685],[104.9609,14.2633],[104.9535,14.2549],[104.9445,14.2343],[104.9439,14.2067],[104.9543,14.1893],[104.9571,14.1797],[104.9629,14.1777],[104.9725,14.1675],[104.9759,14.1659],[104.9941,14.1699],[105.0139,14.1665],[105.0389,14.1529],[105.0757,14.1255],[105.0813,14.1395],[105.0837,14.1553],[105.0951,14.1681],[105.1387,14.1901],[105.1611,14.2171],[105.1801,14.2619],[105.1787,14.2647],[105.1721,14.2673],[105.1599,14.2885]]]}},{"type":"Feature","properties":{"c":"130305","en":"Yeang","km":"យាង"},"geometry":{"type":"Polygon","coordinates":[[[104.8021,14.0483],[104.7983,14.0625],[104.8005,14.0731],[104.7839,14.0941],[104.7867,14.1137],[104.7833,14.1291],[104.7843,14.1323],[104.7927,14.1365],[104.7951,14.1507],[104.7871,14.1735],[104.7925,14.1931],[104.7979,14.2291],[104.7757,14.2065],[104.7651,14.2057],[104.7375,14.2101],[104.7265,14.1981],[104.7123,14.2023],[104.7095,14.1967],[104.7111,14.1933],[104.7081,14.1909],[104.6911,14.1857],[104.6887,14.1739],[104.6831,14.1649],[104.6847,14.1615],[104.6829,14.1557],[104.6755,14.1521],[104.6561,14.1511],[104.6571,14.1375],[104.6517,14.1277],[104.6379,14.1313],[104.6231,14.1427],[104.6015,14.1525],[104.5405,14.1603],[104.5423,14.1405],[104.5379,14.1339],[104.5331,14.1323],[104.5181,14.1353],[104.5109,14.1401],[104.5023,14.1381],[104.4993,14.1321],[104.4869,14.1203],[104.4807,14.1175],[104.4565,14.0915],[104.4565,14.0877],[104.4777,14.0731],[104.4941,14.0583],[104.5185,14.0185],[104.5351,14.0017],[104.6037,13.9931],[104.6209,13.9889],[104.6473,13.9789],[104.6865,13.9587],[104.7125,13.9517],[104.7491,13.9531],[104.7925,13.9433],[104.7939,13.9725],[104.7969,13.9781],[104.8059,13.9857],[104.7999,13.9867],[104.7931,13.9943],[104.7833,14.0275],[104.7839,14.0317],[104.7959,14.0393],[104.8021,14.0483]]]}}]}