{"type":"FeatureCollection","features":[{"type":"Feature","properties":{"c":"130402","en":"Kuleaen Cheung","km":"គូលែនជើង"},"geometry":{"type":"Polygon","coordinates":[[[104.7925,13.9433],[104.7491,13.9531],[104.7125,13.9517],[104.6865,13.9587],[104.6473,13.9789],[104.6209,13.9889],[104.6037,13.9931],[104.5699,13.9967],[104.5697,13.9845],[104.5599,13.9669],[104.5497,13.9543],[104.5475,13.9449],[104.5453,13.9233],[104.5515,13.9153],[104.5535,13.9081],[104.5523,13.8723],[104.5575,13.8669],[104.5575,13.8627],[104.5643,13.8627],[104.5621,13.8491],[104.5829,13.8453],[104.6003,13.8451],[104.6175,13.8481],[104.6207,13.8447],[104.6153,13.8181],[104.6169,13.8125],[104.6453,13.8203],[104.6961,13.8193],[104.7149,13.8343],[104.7191,13.8541],[104.7179,13.8607],[104.7239,13.8651],[104.7401,13.8633],[104.7481,13.8781],[104.7741,13.8979],[104.7729,13.9105],[104.7925,13.9433]]]}},{"type":"Feature","properties":{"c":"130401","en":"Kuleaen Tboung","km":"គូលែនត្បូង"},"geometry":{"type":"Polygon","coordinates":[[[104.7451,13.7977],[104.7387,13.8055],[104.7247,13.8135],[104.7233,13.8183],[104.7173,13.8225],[104.7193,13.8339],[104.7167,13.8377],[104.7079,13.8277],[104.6961,13.8193],[104.6453,13.8203],[104.6087,13.8093],[104.6039,13.8031],[104.6019,13.7857],[104.5961,13.7723],[104.5959,13.7625],[104.6413,13.7613],[104.6609,13.7635],[104.7065,13.7817],[104.7217,13.7983],[104.7451,13.7977]]]}},{"type":"Feature","properties":{"c":"130404","en":"Phnum Penh","km":"ភ្នំពេញ"},"geometry":{"type":"Polygon","coordinates":[[[104.7451,13.7977],[104.7217,13.7983],[104.7065,13.7817],[104.6609,13.7635],[104.6413,13.7613],[104.5959,13.7625],[104.5971,13.7561],[104.5919,13.7373],[104.5935,13.7235],[104.6171,13.7275],[104.6999,13.7167],[104.7197,13.7179],[104.7237,13.7199],[104.7271,13.7313],[104.7347,13.7365],[104.7417,13.7475],[104.7591,13.7633],[104.7697,13.7777],[104.7699,13.7807],[104.7553,13.7863],[104.7451,13.7977]]]}},{"type":"Feature","properties":{"c":"130405","en":"Phnum Tbaeng Pir","km":"ភ្នំត្បែងពីរ"},"geometry":{"type":"Polygon","coordinates":[[[104.8399,13.7679],[104.8141,13.7679],[104.7699,13.7807],[104.7669,13.7727],[104.7591,13.7633],[104.7417,13.7475],[104.7317,13.7333],[104.7271,13.7313],[104.7237,13.7199],[104.7101,13.7161],[104.6171,13.7275],[104.5935,13.7235],[104.5913,13.7139],[104.5927,13.7085],[104.5851,13.6931],[104.5861,13.6571],[104.5797,13.6507],[104.5801,13.6347],[104.6105,13.6309],[104.6177,13.6329],[104.6515,13.6091],[104.6777,13.6147],[104.6819,13.6065],[104.6803,13.5959],[104.6863,13.5825],[104.6813,13.5739],[104.6823,13.5601],[104.7073,13.6007],[104.7119,13.6203],[104.7211,13.6383],[104.7355,13.6619],[104.7545,13.6811],[104.7723,13.6943],[104.7861,13.7011],[104.8355,13.7129],[104.8665,13.7247],[104.8543,13.7413],[104.8503,13.7521],[104.8399,13.7679]]]}},{"type":"Feature","properties":{"c":"130406","en":"Srayang","km":"ស្រយង់"},"geometry":{"type":"Polygon","coordinates":[[[104.5699,13.9967],[104.5399,14.0005],[104.5309,14.0043],[104.5165,14.0213],[104.4941,14.0583],[104.4777,14.0731],[104.4565,14.0877],[104.4513,14.0787],[104.4401,14.0731],[104.4381,14.0695],[104.4305,14.0469],[104.4293,14.0267],[104.4233,14.0235],[104.4251,14.0137],[104.4193,14.0055],[104.4177,13.9945],[104.4277,13.9731],[104.4239,13.9591],[104.4201,13.9571],[104.4229,13.9489],[104.4219,13.9389],[104.4253,13.9385],[104.4263,13.9353],[104.4227,13.9219],[104.4115,13.9131],[104.4075,13.9047],[104.4171,13.8957],[104.4173,13.8917],[104.3993,13.8917],[104.3907,13.8721],[104.3903,13.8685],[104.3957,13.8643],[104.3903,13.8591],[104.3897,13.8555],[104.3823,13.8515],[104.3815,13.8431],[104.3783,13.8379],[104.3689,13.8387],[104.3675,13.8257],[104.3583,13.8135],[104.3613,13.8079],[104.3645,13.8071],[104.3821,13.8097],[104.3859,13.8067],[104.3957,13.7791],[104.4025,13.7733],[104.4129,13.7689],[104.4149,13.7655],[104.4083,13.7513],[104.4129,13.7405],[104.4205,13.7353],[104.4283,13.7209],[104.4285,13.7111],[104.4321,13.7001],[104.4281,13.6879],[104.4287,13.6791],[104.4397,13.6697],[104.4403,13.6539],[104.4345,13.6485],[104.4263,13.6323],[104.4251,13.6163],[104.4199,13.6107],[104.4091,13.6069],[104.4025,13.5957],[104.4065,13.5765],[104.4111,13.5681],[104.4079,13.5647],[104.4093,13.5577],[104.4289,13.5541],[104.4755,13.5527],[104.5091,13.5461],[104.5317,13.5449],[104.5527,13.5259],[104.5575,13.5263],[104.5693,13.5219],[104.5983,13.5235],[104.6189,13.5055],[104.6501,13.5167],[104.6753,13.5345],[104.6769,13.5469],[104.6823,13.5601],[104.6813,13.5739],[104.6863,13.5825],[104.6803,13.5959],[104.6819,13.6065],[104.6777,13.6147],[104.6515,13.6091],[104.6177,13.6329],[104.6105,13.6309],[104.5801,13.6347],[104.5797,13.6507],[104.5861,13.6571],[104.5851,13.6931],[104.5927,13.7085],[104.5919,13.7373],[104.5971,13.7561],[104.5961,13.7723],[104.6019,13.7857],[104.6053,13.8065],[104.6169,13.8125],[104.6153,13.8181],[104.6207,13.8447],[104.6175,13.8481],[104.6003,13.8451],[104.5829,13.8453],[104.5621,13.8491],[104.5643,13.8627],[104.5575,13.8627],[104.5575,13.8669],[104.5523,13.8723],[104.5535,13.9081],[104.5515,13.9153],[104.5453,13.9233],[104.5475,13.9449],[104.5497,13.9543],[104.5599,13.9669],[104.5697,13.9845],[104.5699,13.9967]]]}},{"type":"Feature","properties":{"c":"130403","en":"Thmei","km":"ថ្មី"},"geometry":{"type":"Polygon","coordinates":[[[104.9223,13.9363],[104.9041,13.9379],[104.8809,13.9471],[104.8635,13.9507],[104.8465,13.9505],[104.8079,13.9427],[104.7925,13.9433],[104.7729,13.9105],[104.7741,13.8979],[104.7481,13.8781],[104.7401,13.8633],[104.7239,13.8651],[104.7179,13.8607],[104.7195,13.8577],[104.7167,13.8377],[104.7193,13.8339],[104.7173,13.8225],[104.7233,13.8183],[104.7247,13.8135],[104.7387,13.8055],[104.7521,13.7893],[104.7597,13.7841],[104.8141,13.7679],[104.8399,13.7679],[104.8441,13.7767],[104.8567,13.7895],[104.8649,13.8039],[104.8813,13.8439],[104.8923,13.8857],[104.9037,13.9081],[104.9223,13.9363]]]}}]}