{"type":"FeatureCollection","features":[{"type":"Feature","properties":{"c":"130509","en":"Reaksa","km":"រក្សា"},"geometry":{"type":"Polygon","coordinates":[[[105.1185,13.6343],[105.0909,13.6339],[105.0661,13.6109],[105.0529,13.6039],[105.0401,13.6029],[105.0485,13.5731],[105.0463,13.5545],[105.0857,13.5533],[105.1307,13.5115],[105.1361,13.4937],[105.1345,13.4759],[105.1441,13.4679],[105.1463,13.4699],[105.1597,13.4637],[105.1611,13.4669],[105.1921,13.4757],[105.1979,13.4823],[105.2103,13.4813],[105.2083,13.4847],[105.2105,13.4865],[105.2141,13.4867],[105.2193,13.4821],[105.2277,13.4891],[105.2281,13.4923],[105.2143,13.4957],[105.2065,13.5009],[105.2055,13.5039],[105.2173,13.5163],[105.2167,13.5197],[105.2123,13.5223],[105.1961,13.5109],[105.1929,13.5123],[105.1979,13.5207],[105.1967,13.5295],[105.1879,13.5265],[105.1839,13.5281],[105.1785,13.5361],[105.1795,13.5403],[105.1893,13.5473],[105.1911,13.5513],[105.1887,13.5545],[105.1751,13.5585],[105.1725,13.5707],[105.1619,13.5755],[105.1643,13.5833],[105.1605,13.5867],[105.1479,13.5819],[105.1483,13.5927],[105.1459,13.5953],[105.1365,13.5933],[105.1327,13.5953],[105.1299,13.6025],[105.1337,13.6109],[105.1275,13.6169],[105.1283,13.6219],[105.1339,13.6239],[105.1345,13.6279],[105.1165,13.6307],[105.1185,13.6343]]]}},{"type":"Feature","properties":{"c":"130502","en":"Reaksmei","km":"រស្មី"},"geometry":{"type":"Polygon","coordinates":[[[105.1471,13.3919],[105.1273,13.4019],[105.1239,13.4001],[105.1161,13.3885],[105.1171,13.3677],[105.1233,13.3651],[105.1295,13.3765],[105.1391,13.3829],[105.1401,13.3863],[105.1471,13.3919]]]}},{"type":"Feature","properties":{"c":"130508","en":"Rieb Roy","km":"រៀបរយ"},"geometry":{"type":"Polygon","coordinates":[[[105.2473,13.4579],[105.2283,13.4659],[105.2233,13.4661],[105.2163,13.4617],[105.2167,13.4581],[105.2263,13.4537],[105.2301,13.4347],[105.2353,13.4287],[105.2287,13.4197],[105.2299,13.4063],[105.2363,13.3997],[105.2359,13.3953],[105.2269,13.3851],[105.2265,13.3815],[105.2327,13.3755],[105.2361,13.3755],[105.2407,13.3825],[105.2463,13.3843],[105.2535,13.3803],[105.2593,13.3663],[105.2465,13.3545],[105.2463,13.3515],[105.2505,13.3461],[105.2609,13.3445],[105.2749,13.3327],[105.2757,13.3225],[105.2731,13.3203],[105.2547,13.3293],[105.2465,13.3279],[105.2433,13.3207],[105.2549,13.3061],[105.2525,13.3035],[105.2249,13.2943],[105.2347,13.2789],[105.2421,13.2761],[105.2549,13.2633],[105.2701,13.2689],[105.2805,13.2759],[105.3443,13.3439],[105.3531,13.3585],[105.3585,13.3633],[105.3989,13.3843],[105.4477,13.4015],[105.4797,13.4213],[105.5243,13.4339],[105.5401,13.4523],[105.5101,13.4617],[105.4163,13.4627],[105.3677,13.4659],[105.3595,13.4631],[105.3279,13.4625],[105.2907,13.4495],[105.2625,13.4465],[105.2473,13.4579]]]}},{"type":"Feature","properties":{"c":"130505","en":"Rik Reay","km":"រីករាយ"},"geometry":{"type":"Polygon","coordinates":[[[105.1345,13.4759],[105.1285,13.4743],[105.1225,13.4791],[105.1117,13.4825],[105.0993,13.4941],[105.0941,13.4953],[105.0911,13.4929],[105.0799,13.4929],[105.0715,13.4881],[105.0565,13.4643],[105.0527,13.4621],[105.0619,13.4465],[105.0793,13.4447],[105.0937,13.4275],[105.1091,13.4183],[105.1157,13.4099],[105.1471,13.3919],[105.1571,13.4027],[105.1721,13.4003],[105.1781,13.3945],[105.1963,13.3989],[105.2047,13.4077],[105.2039,13.4111],[105.1967,13.4117],[105.1883,13.4223],[105.1779,13.4305],[105.1799,13.4637],[105.1831,13.4731],[105.1611,13.4669],[105.1597,13.4637],[105.1567,13.4635],[105.1505,13.4685],[105.1463,13.4699],[105.1441,13.4679],[105.1345,13.4759]]]}},{"type":"Feature","properties":{"c":"130501","en":"Robieb","km":"របៀប"},"geometry":{"type":"Polygon","coordinates":[[[105.1273,13.4019],[105.1157,13.4099],[105.1091,13.4183],[105.0937,13.4275],[105.0793,13.4447],[105.0645,13.4451],[105.0597,13.4493],[105.0435,13.4325],[105.0397,13.4311],[105.0373,13.4235],[105.0581,13.4043],[105.0699,13.4045],[105.0729,13.4033],[105.0741,13.3987],[105.0573,13.3667],[105.0551,13.3525],[105.0633,13.3303],[105.1097,13.3447],[105.1299,13.3549],[105.1257,13.3577],[105.1233,13.3651],[105.1171,13.3677],[105.1155,13.3761],[105.1171,13.3913],[105.1273,13.4019]]]}},{"type":"Feature","properties":{"c":"130503","en":"Rohas","km":"រហ័ស"},"geometry":{"type":"Polygon","coordinates":[[[105.1963,13.3989],[105.1781,13.3945],[105.1721,13.4003],[105.1571,13.4027],[105.1401,13.3863],[105.1391,13.3829],[105.1295,13.3765],[105.1233,13.3651],[105.1235,13.3615],[105.1257,13.3577],[105.1461,13.3453],[105.1601,13.3411],[105.1735,13.3597],[105.1855,13.3845],[105.1963,13.3989]]]}},{"type":"Feature","properties":{"c":"130512","en":"Romoneiy","km":"រមណីយ"},"geometry":{"type":"Polygon","coordinates":[[[105.0633,13.3303],[105.0551,13.3525],[105.0565,13.3615],[105.0343,13.3497],[105.0311,13.3429],[105.0177,13.3285],[105.0155,13.3221],[105.0055,13.3123],[105.0013,13.3101],[104.9941,13.3153],[104.9829,13.3157],[104.9807,13.3137],[104.9723,13.2983],[104.9703,13.2817],[104.9673,13.2805],[104.9641,13.2831],[104.9529,13.2963],[104.9417,13.2975],[104.9145,13.2917],[104.9043,13.2849],[104.8919,13.2497],[104.8817,13.2369],[104.8833,13.2287],[104.8753,13.2189],[104.8765,13.2095],[104.8737,13.1947],[104.8775,13.1689],[104.8887,13.1573],[104.8879,13.1413],[104.9043,13.1221],[104.9075,13.1085],[104.9195,13.0967],[104.9337,13.0763],[104.9539,13.0581],[104.9743,13.0555],[104.9853,13.0609],[105.0595,13.1147],[105.1265,13.1517],[105.1587,13.1783],[105.1541,13.1919],[105.1399,13.1999],[105.1239,13.2265],[105.0975,13.2519],[105.0791,13.2819],[105.0633,13.3303]]]}},{"type":"Feature","properties":{"c":"130511","en":"Romtum","km":"រមទម"},"geometry":{"type":"Polygon","coordinates":[[[105.0527,13.4621],[105.0339,13.4723],[105.0273,13.4703],[105.0187,13.4631],[105.0025,13.4587],[104.9749,13.4353],[104.9673,13.4503],[104.9655,13.4751],[104.9489,13.4873],[104.8779,13.4173],[104.8699,13.4025],[104.8601,13.3751],[104.8457,13.3517],[104.7943,13.3051],[104.8353,13.3093],[104.8551,13.3065],[104.8863,13.3101],[104.8949,13.3053],[104.9043,13.2849],[104.9175,13.2929],[104.9417,13.2975],[104.9529,13.2963],[104.9641,13.2831],[104.9673,13.2805],[104.9703,13.2817],[104.9723,13.2983],[104.9807,13.3137],[104.9829,13.3157],[104.9941,13.3153],[105.0013,13.3101],[105.0095,13.3157],[105.0343,13.3497],[105.0565,13.3615],[105.0581,13.3703],[105.0713,13.3917],[105.0741,13.3987],[105.0729,13.4033],[105.0581,13.4043],[105.0373,13.4235],[105.0397,13.4311],[105.0435,13.4325],[105.0597,13.4493],[105.0527,13.4621]]]}},{"type":"Feature","properties":{"c":"130507","en":"Rotanak","km":"រតនៈ"},"geometry":{"type":"Polygon","coordinates":[[[105.2249,13.2943],[105.2525,13.3035],[105.2549,13.3061],[105.2433,13.3207],[105.2465,13.3279],[105.2547,13.3293],[105.2731,13.3203],[105.2757,13.3225],[105.2733,13.3357],[105.2609,13.3445],[105.2505,13.3461],[105.2463,13.3515],[105.2465,13.3545],[105.2593,13.3663],[105.2563,13.3771],[105.2463,13.3843],[105.2407,13.3825],[105.2361,13.3755],[105.2291,13.3771],[105.2265,13.3815],[105.2269,13.3851],[105.2359,13.3953],[105.2363,13.3997],[105.2299,13.4063],[105.2307,13.4137],[105.2125,13.4105],[105.2013,13.4051],[105.1855,13.3845],[105.1735,13.3597],[105.1601,13.3411],[105.1589,13.3313],[105.2099,13.2955],[105.2223,13.2921],[105.2249,13.2943]]]}},{"type":"Feature","properties":{"c":"130510","en":"Rumdaoh","km":"រំដោះ"},"geometry":{"type":"Polygon","coordinates":[[[105.0401,13.6029],[104.9967,13.6195],[104.9869,13.6265],[104.9759,13.5441],[104.9607,13.5029],[104.9489,13.4873],[104.9655,13.4751],[104.9673,13.4503],[104.9749,13.4353],[105.0025,13.4587],[105.0187,13.4631],[105.0273,13.4703],[105.0339,13.4723],[105.0527,13.4621],[105.0565,13.4643],[105.0715,13.4881],[105.0799,13.4929],[105.0911,13.4929],[105.0941,13.4953],[105.0993,13.4941],[105.1075,13.4849],[105.1225,13.4791],[105.1285,13.4743],[105.1345,13.4759],[105.1359,13.4789],[105.1357,13.4967],[105.1307,13.5115],[105.0857,13.5533],[105.0463,13.5545],[105.0485,13.5731],[105.0401,13.6029]]]}},{"type":"Feature","properties":{"c":"130504","en":"Rung Roeang","km":"រុងរឿង"},"geometry":{"type":"Polygon","coordinates":[[[105.1601,13.3411],[105.1461,13.3453],[105.1299,13.3549],[105.1097,13.3447],[105.0633,13.3303],[105.0791,13.2819],[105.0975,13.2519],[105.1239,13.2265],[105.1399,13.1999],[105.1541,13.1919],[105.1587,13.1783],[105.1677,13.1889],[105.1803,13.2157],[105.1921,13.2299],[105.2359,13.2567],[105.2549,13.2633],[105.2421,13.2761],[105.2347,13.2789],[105.2249,13.2943],[105.2223,13.2921],[105.2099,13.2955],[105.1603,13.3285],[105.1601,13.3411]]]}},{"type":"Feature","properties":{"c":"130506","en":"Ruos Roan","km":"រួសរាន់"},"geometry":{"type":"Polygon","coordinates":[[[105.2103,13.4813],[105.1979,13.4823],[105.1921,13.4757],[105.1831,13.4731],[105.1805,13.4683],[105.1777,13.4411],[105.1779,13.4305],[105.1883,13.4223],[105.1967,13.4117],[105.2039,13.4111],[105.2047,13.4077],[105.2307,13.4137],[105.2287,13.4197],[105.2353,13.4287],[105.2301,13.4347],[105.2263,13.4537],[105.2167,13.4581],[105.2163,13.4617],[105.2233,13.4661],[105.2231,13.4701],[105.2103,13.4813]]]}}]}