{"type":"FeatureCollection","features":[{"type":"Feature","properties":{"c":"130601","en":"Chamraeun","km":"ចំរើន"},"geometry":{"type":"Polygon","coordinates":[[[104.9825,13.6307],[104.9641,13.6439],[104.9091,13.6107],[104.8889,13.6067],[104.8965,13.5329],[104.8967,13.5243],[104.8923,13.5141],[104.8943,13.5019],[104.9097,13.4849],[104.9105,13.4731],[104.9137,13.4647],[104.9251,13.4633],[104.9489,13.4873],[104.9607,13.5029],[104.9785,13.5559],[104.9829,13.6065],[104.9869,13.6265],[104.9825,13.6307]]]}},{"type":"Feature","properties":{"c":"130603","en":"Phnum Tbaeng Muoy","km":"ភ្នំត្បែងមួយ"},"geometry":{"type":"Polygon","coordinates":[[[104.8983,13.6965],[104.8665,13.7247],[104.8355,13.7129],[104.7861,13.7011],[104.7683,13.6917],[104.7507,13.6775],[104.7355,13.6619],[104.7229,13.6407],[104.7463,13.6217],[104.7467,13.6167],[104.7499,13.6149],[104.7625,13.6177],[104.7785,13.6095],[104.8323,13.6199],[104.8477,13.6273],[104.8675,13.6423],[104.8719,13.6481],[104.8761,13.6721],[104.8983,13.6965]]]}},{"type":"Feature","properties":{"c":"130602","en":"Ro'ang","km":"រអាង"},"geometry":{"type":"Polygon","coordinates":[[[104.9641,13.6439],[104.8983,13.6965],[104.8761,13.6721],[104.8719,13.6481],[104.8611,13.6365],[104.8323,13.6199],[104.7785,13.6095],[104.7877,13.6003],[104.7995,13.5963],[104.8309,13.5663],[104.8731,13.5705],[104.8941,13.5615],[104.8889,13.6067],[104.9091,13.6107],[104.9641,13.6439]]]}},{"type":"Feature","properties":{"c":"130605","en":"Ronak Ser","km":"រណសិរ្ស"},"geometry":{"type":"Polygon","coordinates":[[[104.8739,13.4109],[104.8693,13.4151],[104.8477,13.4185],[104.8287,13.4291],[104.8151,13.4597],[104.8017,13.4709],[104.7815,13.4809],[104.7741,13.4813],[104.7395,13.4671],[104.7239,13.4653],[104.6497,13.4671],[104.6393,13.4549],[104.6317,13.4409],[104.5951,13.4141],[104.5869,13.3973],[104.5727,13.3803],[104.5669,13.3577],[104.5679,13.3299],[104.5723,13.3199],[104.5649,13.2967],[104.5717,13.2737],[104.5655,13.2531],[104.5733,13.2521],[104.5949,13.2557],[104.6503,13.2725],[104.6923,13.2917],[104.7119,13.3067],[104.7257,13.3049],[104.7313,13.3101],[104.7431,13.3135],[104.7519,13.3113],[104.7599,13.3139],[104.7763,13.3023],[104.7943,13.3051],[104.8309,13.3365],[104.8479,13.3543],[104.8637,13.3827],[104.8739,13.4109]]]}},{"type":"Feature","properties":{"c":"130604","en":"Sdau","km":"ស្ដៅ"},"geometry":{"type":"Polygon","coordinates":[[[104.7785,13.6095],[104.7625,13.6177],[104.7499,13.6149],[104.7467,13.6167],[104.7463,13.6217],[104.7229,13.6407],[104.7119,13.6203],[104.7073,13.6007],[104.6777,13.5497],[104.6753,13.5345],[104.6829,13.5285],[104.6771,13.5203],[104.6501,13.4949],[104.6497,13.4671],[104.7239,13.4653],[104.7395,13.4671],[104.7741,13.4813],[104.7815,13.4809],[104.8017,13.4709],[104.8151,13.4597],[104.8287,13.4291],[104.8477,13.4185],[104.8693,13.4151],[104.8739,13.4109],[104.8859,13.4267],[104.9251,13.4633],[104.9137,13.4647],[104.9105,13.4731],[104.9097,13.4849],[104.8943,13.5019],[104.8923,13.5141],[104.8967,13.5243],[104.8941,13.5615],[104.8731,13.5705],[104.8309,13.5663],[104.7995,13.5963],[104.7877,13.6003],[104.7785,13.6095]]]}}]}