{"type":"FeatureCollection","features":[{"type":"Feature","properties":{"c":"130703","en":"Chhean Mukh","km":"ឈានមុខ"},"geometry":{"type":"Polygon","coordinates":[[[104.9329,13.9353],[104.9223,13.9363],[104.9015,13.9043],[104.8885,13.8755],[104.8813,13.8439],[104.8709,13.8171],[104.8611,13.7963],[104.8441,13.7767],[104.8399,13.7679],[104.8503,13.7521],[104.8543,13.7413],[104.8665,13.7247],[104.8899,13.7317],[104.9095,13.7479],[104.9131,13.7521],[104.9235,13.7789],[104.9325,13.7901],[104.9397,13.8307],[104.9329,13.8393],[104.9387,13.8419],[104.9413,13.8443],[104.9399,13.8475],[104.9455,13.8507],[104.9389,13.8665],[104.9395,13.8697],[104.9465,13.8783],[104.9435,13.8815],[104.9449,13.8841],[104.9567,13.8897],[104.9541,13.8985],[104.9467,13.9041],[104.9463,13.9079],[104.9495,13.9093],[104.9419,13.9279],[104.9363,13.9283],[104.9367,13.9337],[104.9329,13.9353]]]}},{"type":"Feature","properties":{"c":"130704","en":"Pou","km":"ពោធិ៍"},"geometry":{"type":"Polygon","coordinates":[[[105.0609,13.9363],[104.9329,13.9353],[104.9367,13.9337],[104.9363,13.9283],[104.9419,13.9279],[104.9495,13.9093],[104.9463,13.9079],[104.9467,13.9041],[104.9541,13.8985],[104.9567,13.8897],[104.9435,13.8815],[104.9465,13.8783],[104.9389,13.8665],[104.9455,13.8507],[104.9399,13.8475],[104.9413,13.8443],[104.9387,13.8419],[104.9329,13.8393],[104.9365,13.8325],[104.9397,13.8307],[104.9431,13.8363],[104.9565,13.8419],[104.9615,13.8379],[104.9965,13.8387],[104.9969,13.8425],[105.0193,13.8473],[105.0317,13.8575],[105.0609,13.8729],[105.0609,13.9363]]]}},{"type":"Feature","properties":{"c":"130705","en":"Prame","km":"ប្រមេរុ"},"geometry":{"type":"Polygon","coordinates":[[[105.1831,13.9357],[105.0609,13.9363],[105.0609,13.8729],[105.0317,13.8575],[105.0193,13.8473],[104.9969,13.8425],[104.9965,13.8387],[105.0107,13.8033],[105.0227,13.8003],[105.0291,13.7931],[105.0427,13.7941],[105.0585,13.7885],[105.0535,13.7797],[105.0467,13.7753],[105.0471,13.7709],[105.0535,13.7643],[105.0607,13.7657],[105.0643,13.7611],[105.0673,13.7485],[105.0637,13.7481],[105.0613,13.7449],[105.0641,13.7419],[105.0805,13.7391],[105.0865,13.7185],[105.0903,13.7169],[105.1113,13.7267],[105.1141,13.7367],[105.1189,13.7425],[105.1327,13.7509],[105.1407,13.7531],[105.1473,13.7613],[105.1553,13.7811],[105.1549,13.7971],[105.1431,13.8189],[105.1177,13.8363],[105.1233,13.8493],[105.1635,13.8899],[105.1767,13.9151],[105.1831,13.9357]]]}},{"type":"Feature","properties":{"c":"130706","en":"Preah Khleang","km":"ព្រះឃ្លាំង"},"geometry":{"type":"Polygon","coordinates":[[[105.1017,13.7207],[105.0983,13.7219],[105.0903,13.7169],[105.0823,13.7185],[105.0717,13.7027],[105.0641,13.7015],[105.0563,13.6927],[105.0481,13.6913],[105.0401,13.6803],[105.0253,13.6815],[105.0119,13.6747],[104.9957,13.6519],[104.9887,13.6369],[104.9825,13.6307],[104.9967,13.6195],[105.0445,13.6029],[105.0529,13.6039],[105.0661,13.6109],[105.0909,13.6339],[105.1185,13.6343],[105.1277,13.6471],[105.1325,13.6493],[105.1329,13.6525],[105.1265,13.6549],[105.1275,13.6631],[105.1175,13.6743],[105.1191,13.6837],[105.1247,13.6881],[105.1359,13.6887],[105.1383,13.6963],[105.1307,13.7031],[105.1233,13.7023],[105.1127,13.7089],[105.1017,13.7207]]]}}]}