{"type":"FeatureCollection","features":[{"type":"Feature","properties":{"c":"130801","en":"Kampong Pranak","km":"សង្កាត់កំពង់ប្រណាក"},"geometry":{"type":"Polygon","coordinates":[[[105.0107,13.8033],[104.9965,13.8387],[104.9615,13.8379],[104.9599,13.8355],[104.9533,13.8367],[104.9511,13.8343],[104.9505,13.8305],[104.9537,13.8289],[104.9607,13.8295],[104.9701,13.8261],[104.9709,13.8223],[104.9663,13.8183],[104.9687,13.8081],[104.9661,13.8065],[104.9699,13.7957],[104.9781,13.7907],[104.9973,13.7957],[105.0087,13.7945],[105.0107,13.8033]]]}},{"type":"Feature","properties":{"c":"130802","en":"Pal Hal","km":"សង្កាត់ប៉ាលហាល"},"geometry":{"type":"Polygon","coordinates":[[[104.9615,13.8379],[104.9565,13.8419],[104.9411,13.8339],[104.9325,13.7901],[104.9235,13.7789],[104.9131,13.7521],[104.8899,13.7317],[104.8665,13.7247],[104.9059,13.6889],[104.9825,13.6307],[104.9887,13.6369],[104.9957,13.6519],[105.0119,13.6747],[105.0253,13.6815],[105.0401,13.6803],[105.0481,13.6913],[105.0563,13.6927],[105.0641,13.7015],[105.0717,13.7027],[105.0823,13.7185],[105.0865,13.7185],[105.0805,13.7391],[105.0641,13.7419],[105.0613,13.7449],[105.0637,13.7481],[105.0673,13.7485],[105.0643,13.7611],[105.0607,13.7657],[105.0535,13.7643],[105.0471,13.7709],[105.0467,13.7753],[105.0535,13.7797],[105.0585,13.7885],[105.0427,13.7941],[105.0291,13.7931],[105.0227,13.8003],[105.0107,13.8033],[105.0087,13.7945],[104.9973,13.7957],[104.9781,13.7907],[104.9699,13.7957],[104.9661,13.8065],[104.9687,13.8081],[104.9663,13.8183],[104.9709,13.8223],[104.9701,13.8261],[104.9505,13.8305],[104.9533,13.8367],[104.9599,13.8355],[104.9615,13.8379]]]}}]}