{"type":"FeatureCollection","features":[{"type":"Feature","properties":{"c":"140101","en":"Boeng Preah","km":"បឹងព្រះ"},"geometry":{"type":"Polygon","coordinates":[[[105.4837,11.3119],[105.4755,11.3429],[105.4633,11.3463],[105.4607,11.3565],[105.4571,11.3603],[105.4295,11.3581],[105.4245,11.3457],[105.4261,11.3411],[105.4249,11.3073],[105.4311,11.3081],[105.4359,11.2865],[105.4807,11.2881],[105.4817,11.3093],[105.4837,11.3119]]]}},{"type":"Feature","properties":{"c":"140102","en":"Cheung Phnum","km":"ជើងភ្នំ"},"geometry":{"type":"Polygon","coordinates":[[[105.3957,11.2663],[105.3335,11.2683],[105.3161,11.2743],[105.3173,11.2657],[105.3219,11.2601],[105.3317,11.2531],[105.3323,11.2501],[105.3429,11.2461],[105.3495,11.2253],[105.3591,11.2211],[105.3763,11.2213],[105.3875,11.2145],[105.4017,11.2177],[105.4103,11.2309],[105.4061,11.2425],[105.4099,11.2491],[105.4019,11.2531],[105.3957,11.2663]]]}},{"type":"Feature","properties":{"c":"140103","en":"Chheu Kach","km":"ឈើកាច់"},"geometry":{"type":"Polygon","coordinates":[[[105.4481,11.2489],[105.4507,11.2517],[105.4485,11.2537],[105.4189,11.2733],[105.4089,11.2669],[105.3957,11.2663],[105.4019,11.2531],[105.4099,11.2491],[105.4061,11.2425],[105.4103,11.2309],[105.4017,11.2177],[105.3875,11.2145],[105.3955,11.2063],[105.4403,11.1867],[105.4403,11.2401],[105.4481,11.2489]]]}},{"type":"Feature","properties":{"c":"140104","en":"Reaks Chey","km":"រក្សជ័យ"},"geometry":{"type":"Polygon","coordinates":[[[105.4249,11.3073],[105.4261,11.3411],[105.4245,11.3457],[105.3921,11.3409],[105.3319,11.3433],[105.3269,11.3429],[105.3251,11.3381],[105.3345,11.3047],[105.4249,11.3073]]]}},{"type":"Feature","properties":{"c":"140105","en":"Roung Damrei","km":"រោងដំរី"},"geometry":{"type":"Polygon","coordinates":[[[105.4359,11.2865],[105.4311,11.3081],[105.4009,11.3053],[105.3377,11.3055],[105.3345,11.3047],[105.3361,11.2957],[105.3251,11.2899],[105.3157,11.2779],[105.3161,11.2743],[105.3335,11.2683],[105.4089,11.2669],[105.4189,11.2733],[105.4267,11.2841],[105.4359,11.2865]]]}},{"type":"Feature","properties":{"c":"140106","en":"Sdau Kaong","km":"ស្ដៅកោង"},"geometry":{"type":"Polygon","coordinates":[[[105.5331,11.2481],[105.5033,11.2499],[105.4861,11.2451],[105.4823,11.2483],[105.4481,11.2489],[105.4403,11.2401],[105.4403,11.1867],[105.4603,11.1733],[105.4971,11.2075],[105.4995,11.2119],[105.4997,11.2359],[105.5085,11.2409],[105.5267,11.2415],[105.5331,11.2481]]]}},{"type":"Feature","properties":{"c":"140107","en":"Spueu Ka","km":"ស្ពឺ  ក"},"geometry":{"type":"Polygon","coordinates":[[[105.4823,11.2483],[105.4807,11.2881],[105.4449,11.2881],[105.4313,11.2859],[105.4239,11.2813],[105.4189,11.2733],[105.4485,11.2537],[105.4507,11.2517],[105.4481,11.2489],[105.4823,11.2483]]]}},{"type":"Feature","properties":{"c":"140108","en":"Spueu Kha","km":"ស្ពឺ  ខ"},"geometry":{"type":"Polygon","coordinates":[[[105.5153,11.2857],[105.4971,11.3145],[105.4837,11.3119],[105.4817,11.3093],[105.4805,11.2605],[105.4823,11.2483],[105.4861,11.2451],[105.5033,11.2499],[105.5331,11.2481],[105.5405,11.2585],[105.5203,11.2751],[105.5153,11.2857]]]}},{"type":"Feature","properties":{"c":"140109","en":"Theay","km":"ធាយ"},"geometry":{"type":"Polygon","coordinates":[[[105.4181,11.3991],[105.3997,11.4019],[105.3817,11.4003],[105.3831,11.3917],[105.3797,11.3831],[105.3819,11.3769],[105.3793,11.3743],[105.3683,11.3721],[105.3557,11.3615],[105.3579,11.3425],[105.3921,11.3409],[105.4245,11.3457],[105.4295,11.3581],[105.4287,11.3787],[105.4143,11.3795],[105.4149,11.3827],[105.4259,11.3899],[105.4145,11.3923],[105.4181,11.3991]]]}}]}