{"type":"FeatureCollection","features":[{"type":"Feature","properties":{"c":"140201","en":"Cheach","km":"ជាច"},"geometry":{"type":"Polygon","coordinates":[[[105.7327,11.6931],[105.7313,11.7023],[105.7217,11.7215],[105.7135,11.7105],[105.7063,11.7131],[105.6691,11.7097],[105.6527,11.6987],[105.6485,11.6927],[105.6533,11.6861],[105.6527,11.6743],[105.6605,11.6717],[105.6615,11.6689],[105.6539,11.6547],[105.6529,11.6473],[105.6775,11.6349],[105.7069,11.6345],[105.7151,11.6375],[105.7183,11.6395],[105.7281,11.6667],[105.7327,11.6931]]]}},{"type":"Feature","properties":{"c":"140202","en":"Doun Koeng","km":"ដូនកឹង"},"geometry":{"type":"Polygon","coordinates":[[[105.6123,11.5993],[105.6017,11.6011],[105.5909,11.6101],[105.5841,11.6053],[105.5527,11.5947],[105.5439,11.5873],[105.5419,11.5693],[105.5653,11.5743],[105.5625,11.5451],[105.5557,11.5279],[105.5577,11.5193],[105.5473,11.5171],[105.5511,11.5033],[105.5549,11.4995],[105.5765,11.4953],[105.5831,11.5321],[105.5837,11.5479],[105.6077,11.5705],[105.6093,11.5745],[105.6031,11.5827],[105.6033,11.5861],[105.6123,11.5993]]]}},{"type":"Feature","properties":{"c":"140204","en":"Krabau","km":"ក្របៅ"},"geometry":{"type":"Polygon","coordinates":[[[105.8095,11.5995],[105.8041,11.6053],[105.7957,11.6077],[105.7899,11.6167],[105.7897,11.6209],[105.7803,11.6279],[105.7751,11.6339],[105.7747,11.6377],[105.7701,11.6411],[105.7647,11.6529],[105.7671,11.6551],[105.7649,11.6639],[105.7625,11.6681],[105.7585,11.6695],[105.7559,11.6779],[105.7327,11.6931],[105.7281,11.6667],[105.7183,11.6395],[105.7189,11.6327],[105.7223,11.6207],[105.7417,11.6103],[105.7481,11.5925],[105.7473,11.5881],[105.7573,11.5863],[105.7675,11.5885],[105.7835,11.5879],[105.7967,11.5971],[105.8095,11.5995]]]}},{"type":"Feature","properties":{"c":"140203","en":"Kranhung","km":"ក្រញូង"},"geometry":{"type":"Polygon","coordinates":[[[105.7183,11.6395],[105.7069,11.6345],[105.6775,11.6349],[105.6529,11.6473],[105.6589,11.6063],[105.6567,11.6023],[105.6419,11.6017],[105.6453,11.5823],[105.6611,11.5713],[105.6861,11.5685],[105.6935,11.5653],[105.7297,11.5765],[105.7431,11.5779],[105.7437,11.5855],[105.7473,11.5881],[105.7481,11.5925],[105.7433,11.6069],[105.7395,11.6129],[105.7223,11.6207],[105.7183,11.6395]]]}},{"type":"Feature","properties":{"c":"140205","en":"Seang Khveang","km":"ស៊ាងឃ្វាង"},"geometry":{"type":"Polygon","coordinates":[[[105.5669,11.6531],[105.5565,11.6627],[105.5379,11.6661],[105.5147,11.6615],[105.5027,11.6617],[105.4727,11.6527],[105.4557,11.6513],[105.4551,11.6473],[105.4557,11.6439],[105.4609,11.6403],[105.4689,11.6417],[105.4835,11.6275],[105.4889,11.6183],[105.4919,11.6181],[105.5383,11.6273],[105.5611,11.6391],[105.5669,11.6531]]]}},{"type":"Feature","properties":{"c":"140206","en":"Smaong Khang Cheung","km":"ស្មោងខាងជើង"},"geometry":{"type":"Polygon","coordinates":[[[105.6935,11.5653],[105.6861,11.5685],[105.6611,11.5713],[105.6515,11.5765],[105.6453,11.5823],[105.6419,11.6017],[105.6123,11.5993],[105.6033,11.5861],[105.6031,11.5827],[105.6093,11.5745],[105.6077,11.5705],[105.5837,11.5479],[105.5831,11.5321],[105.5765,11.4953],[105.5861,11.4963],[105.5895,11.4937],[105.5883,11.4845],[105.5989,11.4873],[105.6117,11.5055],[105.6181,11.5269],[105.6243,11.5369],[105.6281,11.5369],[105.6393,11.5299],[105.6641,11.5345],[105.6681,11.5331],[105.6739,11.5247],[105.6785,11.5241],[105.6795,11.5293],[105.6773,11.5339],[105.6901,11.5463],[105.6893,11.5599],[105.6935,11.5653]]]}},{"type":"Feature","properties":{"c":"140207","en":"Smaong Khang Tboung","km":"ស្មោងខាងត្បូង"},"geometry":{"type":"Polygon","coordinates":[[[105.6785,11.5241],[105.6739,11.5247],[105.6681,11.5331],[105.6641,11.5345],[105.6393,11.5299],[105.6281,11.5369],[105.6243,11.5369],[105.6181,11.5269],[105.6117,11.5055],[105.6025,11.4911],[105.5929,11.4843],[105.6211,11.4519],[105.6527,11.4277],[105.6565,11.4273],[105.6595,11.4385],[105.6691,11.4553],[105.6701,11.4663],[105.6649,11.4773],[105.6655,11.4865],[105.6689,11.4919],[105.6797,11.4987],[105.6823,11.5057],[105.6857,11.5081],[105.6785,11.5241]]]}},{"type":"Feature","properties":{"c":"140208","en":"Trabaek","km":"ត្របែក"},"geometry":{"type":"Polygon","coordinates":[[[105.5909,11.6101],[105.5669,11.6531],[105.5611,11.6391],[105.5347,11.6257],[105.4889,11.6183],[105.4979,11.6059],[105.5231,11.5835],[105.5293,11.5691],[105.5419,11.5693],[105.5431,11.5841],[105.5461,11.5907],[105.5563,11.5963],[105.5841,11.6053],[105.5909,11.6101]]]}}]}