{"type":"FeatureCollection","features":[{"type":"Feature","properties":{"c":"140301","en":"Ansaong","km":"អន្សោង"},"geometry":{"type":"Polygon","coordinates":[[[105.5763,11.1289],[105.5553,11.1413],[105.5497,11.1393],[105.5029,11.1397],[105.5035,11.1217],[105.4999,11.1173],[105.5009,11.1011],[105.5087,11.0939],[105.5613,11.1143],[105.5755,11.1147],[105.5763,11.1289]]]}},{"type":"Feature","properties":{"c":"140302","en":"Cham","km":"ចាម"},"geometry":{"type":"Polygon","coordinates":[[[105.5807,11.0243],[105.5631,11.0259],[105.5359,11.0241],[105.5367,10.9567],[105.5383,10.9525],[105.5507,10.9585],[105.5725,10.9621],[105.6119,10.9737],[105.6087,10.9817],[105.6109,10.9851],[105.6105,10.9931],[105.6073,10.9959],[105.5863,11.0007],[105.5807,11.0067],[105.5803,11.0103],[105.5861,11.0185],[105.5853,11.0227],[105.5807,11.0243]]]}},{"type":"Feature","properties":{"c":"140303","en":"Cheang Daek","km":"ជាងដែក"},"geometry":{"type":"Polygon","coordinates":[[[105.5293,11.0691],[105.4907,11.0707],[105.4905,11.0527],[105.4815,11.0525],[105.4819,11.0097],[105.4741,10.9987],[105.4777,10.9919],[105.4853,10.9899],[105.4933,10.9787],[105.4905,10.9685],[105.5055,10.9493],[105.5383,10.9525],[105.5363,10.9693],[105.5363,11.0383],[105.5315,11.0465],[105.5293,11.0691]]]}},{"type":"Feature","properties":{"c":"140304","en":"Chrey","km":"ជ្រៃ"},"geometry":{"type":"Polygon","coordinates":[[[105.6029,11.0827],[105.5787,11.0853],[105.5699,11.0779],[105.5629,11.0581],[105.5627,11.0385],[105.5823,11.0287],[105.5807,11.0243],[105.5853,11.0227],[105.5953,11.0307],[105.5971,11.0403],[105.6023,11.0499],[105.6029,11.0827]]]}},{"type":"Feature","properties":{"c":"140307","en":"Kampong Trabaek","km":"កំពង់ត្របែក"},"geometry":{"type":"Polygon","coordinates":[[[105.4921,11.1527],[105.4859,11.1749],[105.4713,11.1839],[105.4603,11.1733],[105.4575,11.1657],[105.4573,11.1483],[105.4651,11.1133],[105.4871,11.1139],[105.4903,11.1127],[105.4919,11.1053],[105.4997,11.1061],[105.4999,11.1173],[105.5035,11.1217],[105.5029,11.1397],[105.4999,11.1439],[105.4943,11.1441],[105.4921,11.1527]]]}},{"type":"Feature","properties":{"c":"140305","en":"Kansoam Ak","km":"កន្សោមអក"},"geometry":{"type":"Polygon","coordinates":[[[105.5635,11.1853],[105.5511,11.1933],[105.5333,11.2121],[105.4997,11.2359],[105.4995,11.2119],[105.4713,11.1839],[105.4859,11.1749],[105.4921,11.1527],[105.5635,11.1853]]]}},{"type":"Feature","properties":{"c":"140306","en":"Kou Khchak","km":"គោខ្ចក"},"geometry":{"type":"Polygon","coordinates":[[[105.5893,11.2565],[105.5863,11.2613],[105.5405,11.2585],[105.5267,11.2415],[105.5085,11.2409],[105.4997,11.2359],[105.5333,11.2121],[105.5551,11.1899],[105.5635,11.1853],[105.5679,11.1857],[105.5937,11.1965],[105.6021,11.2035],[105.6081,11.2043],[105.5943,11.2285],[105.5925,11.2503],[105.5893,11.2565]]]}},{"type":"Feature","properties":{"c":"140308","en":"Peam Montear","km":"ពាមមន្ទារ"},"geometry":{"type":"Polygon","coordinates":[[[105.4997,11.1061],[105.4919,11.1053],[105.4903,11.1127],[105.4871,11.1139],[105.4651,11.1133],[105.4665,11.1001],[105.4561,11.0573],[105.4499,11.0137],[105.4527,11.0073],[105.4455,10.9967],[105.4335,10.9875],[105.4285,10.9745],[105.4329,10.9729],[105.4439,10.9601],[105.4535,10.9555],[105.4645,10.9641],[105.4739,10.9639],[105.4889,10.9503],[105.4955,10.9487],[105.5003,10.9537],[105.4905,10.9685],[105.4933,10.9787],[105.4853,10.9899],[105.4777,10.9919],[105.4741,10.9987],[105.4819,11.0097],[105.4815,11.0525],[105.4905,11.0527],[105.4907,11.0707],[105.5011,11.0709],[105.5035,11.0791],[105.5083,11.0835],[105.5087,11.0939],[105.5009,11.1011],[105.4997,11.1061]]]}},{"type":"Feature","properties":{"c":"140309","en":"Prasat","km":"ប្រាសាទ"},"geometry":{"type":"Polygon","coordinates":[[[105.5875,11.1327],[105.5835,11.1517],[105.5795,11.1511],[105.5565,11.1811],[105.4921,11.1527],[105.4943,11.1441],[105.4999,11.1439],[105.5029,11.1397],[105.5497,11.1393],[105.5553,11.1413],[105.5763,11.1289],[105.5875,11.1327]]]}},{"type":"Feature","properties":{"c":"140310","en":"Pratheat","km":"ប្រធាតុ"},"geometry":{"type":"Polygon","coordinates":[[[105.6171,11.1413],[105.5991,11.1379],[105.5763,11.1289],[105.5765,11.0935],[105.5787,11.0853],[105.6029,11.0827],[105.6147,11.1011],[105.6327,11.1171],[105.6353,11.1213],[105.6191,11.1365],[105.6171,11.1413]]]}},{"type":"Feature","properties":{"c":"140311","en":"Prey Chhor","km":"ព្រៃឈរ"},"geometry":{"type":"Polygon","coordinates":[[[105.6077,11.1995],[105.6081,11.2043],[105.6021,11.2035],[105.5937,11.1965],[105.5565,11.1811],[105.5795,11.1511],[105.5835,11.1517],[105.5875,11.1327],[105.6033,11.1391],[105.6171,11.1413],[105.6133,11.1543],[105.6139,11.1693],[105.6077,11.1995]]]}},{"type":"Feature","properties":{"c":"140312","en":"Prey Poun","km":"ព្រៃពោន"},"geometry":{"type":"Polygon","coordinates":[[[105.5807,11.0243],[105.5823,11.0287],[105.5627,11.0385],[105.5629,11.0581],[105.5699,11.0779],[105.5437,11.0687],[105.5293,11.0691],[105.5315,11.0465],[105.5363,11.0383],[105.5359,11.0241],[105.5631,11.0259],[105.5807,11.0243]]]}},{"type":"Feature","properties":{"c":"140313","en":"Thkov","km":"ថ្កូវ"},"geometry":{"type":"Polygon","coordinates":[[[105.5755,11.1147],[105.5613,11.1143],[105.5117,11.0965],[105.5087,11.0939],[105.5083,11.0835],[105.5035,11.0791],[105.5011,11.0709],[105.5437,11.0687],[105.5699,11.0779],[105.5787,11.0853],[105.5755,11.1147]]]}}]}