{"type":"FeatureCollection","features":[{"type":"Feature","properties":{"c":"140401","en":"Chong Ampil","km":"ចុងអំពិល"},"geometry":{"type":"Polygon","coordinates":[[[105.4557,11.6513],[105.4547,11.6669],[105.4507,11.6773],[105.4439,11.6843],[105.4335,11.6903],[105.4293,11.6983],[105.4253,11.6977],[105.4117,11.6843],[105.3929,11.6731],[105.3787,11.6479],[105.3819,11.6347],[105.3951,11.6327],[105.4217,11.6445],[105.4557,11.6513]]]}},{"type":"Feature","properties":{"c":"140402","en":"Kanhchriech","km":"កញ្ជ្រៀច"},"geometry":{"type":"Polygon","coordinates":[[[105.5691,11.7171],[105.5483,11.7305],[105.5367,11.7213],[105.5097,11.7113],[105.5049,11.7033],[105.5177,11.6865],[105.5195,11.6765],[105.5161,11.6693],[105.5063,11.6621],[105.5147,11.6615],[105.5331,11.6657],[105.5477,11.6653],[105.5565,11.6627],[105.5669,11.6531],[105.5607,11.6921],[105.5681,11.6971],[105.5635,11.7075],[105.5691,11.7171]]]}},{"type":"Feature","properties":{"c":"140403","en":"Kdoeang Reay","km":"ក្ដឿងរាយ"},"geometry":{"type":"Polygon","coordinates":[[[105.5049,11.7033],[105.4857,11.7193],[105.4837,11.7139],[105.4775,11.7103],[105.4419,11.7143],[105.4293,11.6983],[105.4335,11.6903],[105.4439,11.6843],[105.4507,11.6773],[105.4547,11.6669],[105.4557,11.6513],[105.4665,11.6517],[105.5063,11.6621],[105.5161,11.6693],[105.5195,11.6765],[105.5177,11.6865],[105.5049,11.7033]]]}},{"type":"Feature","properties":{"c":"140404","en":"Kouk Kong Kaeut","km":"គោកគង់កើត"},"geometry":{"type":"Polygon","coordinates":[[[105.6647,11.7397],[105.6493,11.7435],[105.6153,11.7433],[105.6159,11.7337],[105.6177,11.7307],[105.6211,11.7303],[105.6165,11.7235],[105.6343,11.7189],[105.6399,11.7117],[105.6423,11.7029],[105.6501,11.6963],[105.6719,11.7107],[105.7063,11.7131],[105.7135,11.7105],[105.7217,11.7215],[105.7203,11.7251],[105.7013,11.7425],[105.6647,11.7397]]]}},{"type":"Feature","properties":{"c":"140405","en":"Kouk Kong Lech","km":"គោកគង់លិច"},"geometry":{"type":"Polygon","coordinates":[[[105.6153,11.7433],[105.5891,11.7461],[105.5751,11.7511],[105.5685,11.7491],[105.5491,11.7503],[105.5483,11.7305],[105.5691,11.7171],[105.5991,11.7113],[105.6267,11.6971],[105.6485,11.6927],[105.6501,11.6963],[105.6423,11.7029],[105.6375,11.7161],[105.6275,11.7221],[105.6243,11.7207],[105.6165,11.7235],[105.6211,11.7303],[105.6177,11.7307],[105.6159,11.7337],[105.6153,11.7433]]]}},{"type":"Feature","properties":{"c":"140406","en":"Preal","km":"ព្រាល"},"geometry":{"type":"Polygon","coordinates":[[[105.6529,11.6473],[105.6539,11.6547],[105.6615,11.6689],[105.6605,11.6717],[105.6527,11.6743],[105.6533,11.6861],[105.6495,11.6891],[105.5991,11.6675],[105.5909,11.6605],[105.5829,11.6587],[105.5789,11.6607],[105.5745,11.6557],[105.5669,11.6531],[105.5909,11.6101],[105.6059,11.5995],[105.6567,11.6023],[105.6589,11.6141],[105.6529,11.6473]]]}},{"type":"Feature","properties":{"c":"140407","en":"Thma Pun","km":"ថ្មពូន"},"geometry":{"type":"Polygon","coordinates":[[[105.6485,11.6927],[105.6267,11.6971],[105.5991,11.7113],[105.5691,11.7171],[105.5635,11.7075],[105.5681,11.6971],[105.5607,11.6921],[105.5669,11.6531],[105.5745,11.6557],[105.5789,11.6607],[105.5829,11.6587],[105.5909,11.6605],[105.5991,11.6675],[105.6495,11.6891],[105.6485,11.6927]]]}},{"type":"Feature","properties":{"c":"140408","en":"Tnaot","km":"ត្នោត"},"geometry":{"type":"Polygon","coordinates":[[[105.5491,11.7503],[105.5351,11.7523],[105.5281,11.7559],[105.5187,11.7553],[105.5105,11.7577],[105.4945,11.7375],[105.4857,11.7193],[105.5049,11.7033],[105.5097,11.7113],[105.5367,11.7213],[105.5483,11.7305],[105.5491,11.7503]]]}}]}