{"type":"FeatureCollection","features":[{"type":"Feature","properties":{"c":"140501","en":"Angkor Sar","km":"អង្គរសរ"},"geometry":{"type":"MultiPolygon","coordinates":[[[[105.6373,11.2713],[105.6337,11.2661],[105.6363,11.2631],[105.6315,11.2533],[105.6245,11.2497],[105.6247,11.2377],[105.6081,11.2043],[105.5943,11.2285],[105.5925,11.2503],[105.5893,11.2565],[105.6009,11.2563],[105.6043,11.2731],[105.6065,11.2753],[105.6213,11.2781],[105.6373,11.2713]]],[[[105.6679,11.2647],[105.6531,11.2647],[105.6453,11.2719],[105.6403,11.2729],[105.6465,11.2777],[105.6467,11.3009],[105.6603,11.3015],[105.6619,11.2919],[105.6697,11.2743],[105.6689,11.2695],[105.6679,11.2647]]]]}},{"type":"Feature","properties":{"c":"140503","en":"Chi Phoch","km":"ជីផុច"},"geometry":{"type":"Polygon","coordinates":[[[105.5903,11.3463],[105.5725,11.3465],[105.5637,11.3491],[105.5675,11.3623],[105.5621,11.3699],[105.5529,11.3721],[105.5479,11.3775],[105.5401,11.3787],[105.5303,11.3869],[105.5139,11.3939],[105.5127,11.3699],[105.5193,11.3639],[105.5261,11.3445],[105.5353,11.3427],[105.5409,11.3357],[105.5239,11.3311],[105.5217,11.3203],[105.5019,11.3189],[105.4971,11.3145],[105.5153,11.2857],[105.5449,11.3081],[105.5567,11.3125],[105.5609,11.3111],[105.5595,11.2969],[105.5811,11.2919],[105.5895,11.3019],[105.5903,11.3463]]]}},{"type":"Feature","properties":{"c":"140502","en":"Chres","km":"ច្រេស"},"geometry":{"type":"Polygon","coordinates":[[[105.6529,11.3779],[105.6519,11.4007],[105.6285,11.4005],[105.6285,11.3915],[105.6099,11.3907],[105.6103,11.3733],[105.6011,11.3733],[105.6011,11.3371],[105.6101,11.3369],[105.6101,11.3189],[105.6533,11.3175],[105.6529,11.3779]]]}},{"type":"Feature","properties":{"c":"140504","en":"Prey Khnes","km":"ព្រៃឃ្នេស"},"geometry":{"type":"Polygon","coordinates":[[[105.5139,11.3939],[105.5077,11.3983],[105.5055,11.4077],[105.5107,11.4339],[105.5065,11.4331],[105.5021,11.4167],[105.4863,11.4107],[105.4775,11.4005],[105.4745,11.3929],[105.4739,11.3757],[105.4567,11.3723],[105.4571,11.3603],[105.4607,11.3565],[105.4633,11.3463],[105.4755,11.3429],[105.4837,11.3119],[105.4935,11.3127],[105.5019,11.3189],[105.5217,11.3203],[105.5239,11.3311],[105.5409,11.3357],[105.5353,11.3427],[105.5261,11.3445],[105.5193,11.3639],[105.5127,11.3699],[105.5139,11.3939]]]}},{"type":"Feature","properties":{"c":"140505","en":"Prey Rumdeng","km":"ព្រៃរំដេង"},"geometry":{"type":"Polygon","coordinates":[[[105.6533,11.3175],[105.6101,11.3189],[105.6101,11.3369],[105.6011,11.3371],[105.6011,11.3553],[105.5917,11.3553],[105.5891,11.3371],[105.5895,11.3019],[105.6009,11.3009],[105.6009,11.2919],[105.6239,11.2911],[105.6263,11.2785],[105.6243,11.2761],[105.6273,11.2743],[105.6373,11.2713],[105.6465,11.2777],[105.6467,11.3009],[105.6603,11.3015],[105.6533,11.3175]]]}},{"type":"Feature","properties":{"c":"140506","en":"Prey Totueng","km":"ព្រៃទទឹង"},"geometry":{"type":"Polygon","coordinates":[[[105.5929,11.4843],[105.5883,11.4845],[105.5741,11.4757],[105.5735,11.4189],[105.5919,11.4187],[105.5919,11.3957],[105.6079,11.3957],[105.6099,11.3907],[105.6285,11.3915],[105.6285,11.4005],[105.6519,11.4007],[105.6565,11.4273],[105.6471,11.4315],[105.6211,11.4519],[105.5929,11.4843]]]}},{"type":"Feature","properties":{"c":"140507","en":"Svay Chrum","km":"ស្វាយជ្រុំ"},"geometry":{"type":"Polygon","coordinates":[[[105.6099,11.3907],[105.6079,11.3957],[105.5919,11.3957],[105.5919,11.4187],[105.5735,11.4189],[105.5741,11.4757],[105.5473,11.4537],[105.5399,11.4599],[105.5347,11.4547],[105.5107,11.4479],[105.5125,11.4363],[105.5093,11.4313],[105.5081,11.4155],[105.5055,11.4123],[105.5063,11.4009],[105.5099,11.3961],[105.5303,11.3869],[105.5353,11.3811],[105.5479,11.3775],[105.5529,11.3721],[105.5621,11.3699],[105.5675,11.3623],[105.5637,11.3491],[105.5725,11.3465],[105.5903,11.3463],[105.5917,11.3553],[105.6011,11.3553],[105.6011,11.3733],[105.6103,11.3733],[105.6099,11.3907]]]}},{"type":"Feature","properties":{"c":"140508","en":"Trapeang Srae","km":"ត្រពាំងស្រែ"},"geometry":{"type":"Polygon","coordinates":[[[105.5895,11.3019],[105.5811,11.2919],[105.5691,11.2961],[105.5629,11.2949],[105.5595,11.2969],[105.5609,11.3111],[105.5567,11.3125],[105.5449,11.3081],[105.5153,11.2857],[105.5161,11.2817],[105.5203,11.2751],[105.5405,11.2585],[105.5863,11.2613],[105.5893,11.2565],[105.6009,11.2563],[105.6023,11.2705],[105.6065,11.2753],[105.6153,11.2779],[105.6243,11.2761],[105.6263,11.2785],[105.6239,11.2911],[105.6009,11.2919],[105.6009,11.3009],[105.5895,11.3019]]]}}]}