{"type":"FeatureCollection","features":[{"type":"Feature","properties":{"c":"140601","en":"Angkor Angk","km":"អង្គរអង្គ"},"geometry":{"type":"Polygon","coordinates":[[[105.3023,11.2159],[105.2897,11.2207],[105.2883,11.1895],[105.2845,11.1809],[105.2805,11.1781],[105.2801,11.1479],[105.2611,11.1133],[105.2607,11.1085],[105.2711,11.1045],[105.2815,11.1133],[105.2917,11.1087],[105.3049,11.1109],[105.3085,11.1153],[105.3039,11.1253],[105.3077,11.1287],[105.3033,11.1487],[105.3133,11.1563],[105.3153,11.1617],[105.3119,11.1737],[105.3013,11.1799],[105.2971,11.1859],[105.2983,11.1963],[105.3033,11.2025],[105.3023,11.2159]]]}},{"type":"Feature","properties":{"c":"140602","en":"Kampong Prasat","km":"កំពង់ប្រាសាទ"},"geometry":{"type":"Polygon","coordinates":[[[105.2467,11.0735],[105.2639,11.0921],[105.2605,11.1037],[105.2413,11.0859],[105.2339,11.0727],[105.2343,10.9933],[105.2291,10.9799],[105.2611,10.9797],[105.2623,11.0009],[105.2755,10.9941],[105.2901,11.0163],[105.2851,11.0179],[105.2819,11.0245],[105.2711,11.0287],[105.2589,11.0381],[105.2571,11.0557],[105.2467,11.0735]]]}},{"type":"Feature","properties":{"c":"140603","en":"Kaoh Chek","km":"កោះចេក"},"geometry":{"type":"Polygon","coordinates":[[[105.2571,11.1019],[105.2091,11.1029],[105.1985,11.0933],[105.1943,11.0865],[105.1969,11.0271],[105.2339,11.0297],[105.2339,11.0727],[105.2379,11.0817],[105.2571,11.1019]]]}},{"type":"Feature","properties":{"c":"140604","en":"Kaoh Roka","km":"កោះរកា"},"geometry":{"type":"Polygon","coordinates":[[[105.2291,10.9799],[105.1875,10.9791],[105.1845,10.9681],[105.1839,10.9519],[105.1895,10.9135],[105.2345,10.8945],[105.2349,10.9799],[105.2291,10.9799]]]}},{"type":"Feature","properties":{"c":"140605","en":"Kaoh Sampov","km":"កោះសំពៅ"},"geometry":{"type":"Polygon","coordinates":[[[105.2611,10.9797],[105.2349,10.9799],[105.2345,10.8945],[105.2655,10.8957],[105.2757,10.8883],[105.2857,10.8871],[105.3373,10.8607],[105.3401,10.8673],[105.3451,10.8679],[105.3545,10.8795],[105.3587,10.8797],[105.3607,10.8869],[105.3679,10.8877],[105.3719,10.9009],[105.3753,10.9037],[105.3725,10.9127],[105.3567,10.9411],[105.3441,10.9489],[105.2975,10.9443],[105.2813,10.9667],[105.2675,10.9729],[105.2611,10.9797]]]}},{"type":"Feature","properties":{"c":"140606","en":"Krang Ta Yang","km":"ក្រាំងតាយ៉ង"},"geometry":{"type":"Polygon","coordinates":[[[105.2889,11.0795],[105.2785,11.0809],[105.2695,11.0755],[105.2609,11.0767],[105.2513,11.0729],[105.2467,11.0735],[105.2571,11.0557],[105.2589,11.0381],[105.2711,11.0287],[105.2819,11.0245],[105.2851,11.0179],[105.3235,11.0171],[105.3129,11.0381],[105.2925,11.0621],[105.2889,11.0795]]]}},{"type":"Feature","properties":{"c":"140607","en":"Preaek Krabau","km":"ព្រែកក្របៅ"},"geometry":{"type":"Polygon","coordinates":[[[105.2897,11.2207],[105.2725,11.2273],[105.2611,11.2013],[105.2461,11.1879],[105.2561,11.1787],[105.2775,11.1775],[105.2845,11.1809],[105.2883,11.1895],[105.2897,11.2207]]]}},{"type":"Feature","properties":{"c":"140608","en":"Preaek Sambuor","km":"ព្រែកសំបួរ"},"geometry":{"type":"Polygon","coordinates":[[[105.2291,10.9799],[105.2343,10.9933],[105.2339,11.0297],[105.1969,11.0271],[105.1875,10.9791],[105.2291,10.9799]]]}},{"type":"Feature","properties":{"c":"140609","en":"Ruessei Srok","km":"ឫស្សីស្រុក"},"geometry":{"type":"Polygon","coordinates":[[[105.3441,10.9489],[105.3389,10.9759],[105.3299,10.9847],[105.3285,11.0051],[105.3235,11.0171],[105.2901,11.0163],[105.2755,10.9941],[105.2623,11.0009],[105.2611,10.9797],[105.2675,10.9729],[105.2813,10.9667],[105.2975,10.9443],[105.3441,10.9489]]]}},{"type":"Feature","properties":{"c":"140610","en":"Svay Phluoh","km":"ស្វាយភ្លោះ"},"geometry":{"type":"Polygon","coordinates":[[[105.2805,11.1781],[105.2561,11.1787],[105.2461,11.1879],[105.2455,11.1625],[105.2369,11.1359],[105.2237,11.1161],[105.2091,11.1029],[105.2571,11.1019],[105.2605,11.1037],[105.2621,11.1169],[105.2801,11.1479],[105.2805,11.1781]]]}}]}