{"type":"FeatureCollection","features":[{"type":"Feature","properties":{"c":"140701","en":"Ba Baong","km":"បាបោង"},"geometry":{"type":"Polygon","coordinates":[[[105.3797,11.3831],[105.3479,11.4017],[105.3169,11.4043],[105.3095,11.4097],[105.2987,11.4091],[105.2971,11.4049],[105.2877,11.4011],[105.2865,11.3973],[105.2951,11.3739],[105.3021,11.3633],[105.3059,11.3487],[105.3035,11.3447],[105.3133,11.3435],[105.3111,11.3373],[105.3251,11.3381],[105.3269,11.3429],[105.3579,11.3425],[105.3557,11.3615],[105.3683,11.3721],[105.3793,11.3743],[105.3819,11.3769],[105.3797,11.3831]]]}},{"type":"Feature","properties":{"c":"140702","en":"Banlich Prasat","km":"បន្លិចប្រាសាទ"},"geometry":{"type":"Polygon","coordinates":[[[105.3351,11.2987],[105.3159,11.3073],[105.3123,11.3135],[105.3061,11.3169],[105.2937,11.3143],[105.2941,11.3113],[105.2987,11.3103],[105.2999,11.3005],[105.2935,11.3011],[105.2923,11.2679],[105.3015,11.2667],[105.3079,11.2603],[105.3115,11.2625],[105.3225,11.2555],[105.3265,11.2555],[105.3173,11.2657],[105.3157,11.2779],[105.3251,11.2899],[105.3361,11.2957],[105.3351,11.2987]]]}},{"type":"Feature","properties":{"c":"140703","en":"Neak Loeang","km":"អ្នកលឿង"},"geometry":{"type":"Polygon","coordinates":[[[105.3265,11.2555],[105.3225,11.2555],[105.3115,11.2625],[105.3079,11.2603],[105.3015,11.2667],[105.2979,11.2673],[105.2969,11.2481],[105.2799,11.2481],[105.2725,11.2273],[105.3023,11.2159],[105.3035,11.2189],[105.3143,11.2201],[105.3175,11.2269],[105.3145,11.2363],[105.3173,11.2439],[105.3239,11.2491],[105.3265,11.2555]]]}},{"type":"Feature","properties":{"c":"140704","en":"Peam Mean Chey","km":"ពាមមានជ័យ"},"geometry":{"type":"Polygon","coordinates":[[[105.2987,11.4091],[105.2927,11.4197],[105.2715,11.3995],[105.2557,11.3915],[105.2597,11.3545],[105.2717,11.3309],[105.2757,11.3059],[105.2807,11.3059],[105.2797,11.3215],[105.2925,11.3309],[105.3059,11.3487],[105.3021,11.3633],[105.2951,11.3739],[105.2865,11.3973],[105.2877,11.4011],[105.2971,11.4049],[105.2987,11.4091]]]}},{"type":"Feature","properties":{"c":"140705","en":"Peam Ro","km":"ពាមរក៍"},"geometry":{"type":"Polygon","coordinates":[[[105.3251,11.3381],[105.3111,11.3373],[105.3133,11.3435],[105.3035,11.3447],[105.3005,11.3427],[105.2925,11.3309],[105.2797,11.3215],[105.2807,11.3059],[105.2999,11.3005],[105.2987,11.3103],[105.2941,11.3113],[105.2937,11.3143],[105.3061,11.3169],[105.3123,11.3135],[105.3159,11.3073],[105.3351,11.2987],[105.3251,11.3381]]]}},{"type":"Feature","properties":{"c":"140706","en":"Preaek Khsay Ka","km":"ព្រែកខ្សាយ ក"},"geometry":{"type":"Polygon","coordinates":[[[105.2935,11.3011],[105.2757,11.3059],[105.2809,11.2685],[105.2923,11.2679],[105.2935,11.3011]]]}},{"type":"Feature","properties":{"c":"140707","en":"Preaek Khsay Kha","km":"ព្រែកខ្សាយ ខ"},"geometry":{"type":"Polygon","coordinates":[[[105.2923,11.2679],[105.2809,11.2685],[105.2799,11.2481],[105.2969,11.2481],[105.2979,11.2673],[105.2923,11.2679]]]}},{"type":"Feature","properties":{"c":"140708","en":"Prey Kandieng","km":"ព្រៃកណ្ដៀង"},"geometry":{"type":"Polygon","coordinates":[[[105.3907,11.4281],[105.3655,11.4417],[105.3169,11.4521],[105.2991,11.4317],[105.3073,11.4285],[105.3099,11.4225],[105.3047,11.4183],[105.3095,11.4097],[105.3169,11.4043],[105.3443,11.4029],[105.3797,11.3831],[105.3831,11.3917],[105.3819,11.4045],[105.3911,11.4229],[105.3907,11.4281]]]}}]}