{"type":"FeatureCollection","features":[{"type":"Feature","properties":{"c":"140801","en":"Kampong Popil","km":"កំពង់ពពិល"},"geometry":{"type":"Polygon","coordinates":[[[105.1413,11.6989],[105.1371,11.7009],[105.1287,11.6931],[105.1281,11.6761],[105.1219,11.6717],[105.1225,11.6647],[105.1301,11.6597],[105.1323,11.6531],[105.1305,11.6499],[105.1117,11.6411],[105.1119,11.6373],[105.1135,11.6339],[105.1333,11.6213],[105.1507,11.6211],[105.1525,11.6179],[105.1573,11.6227],[105.1685,11.6243],[105.1711,11.6375],[105.1589,11.6731],[105.1589,11.6837],[105.1623,11.6901],[105.1541,11.6873],[105.1469,11.6887],[105.1423,11.6935],[105.1413,11.6989]]]}},{"type":"Feature","properties":{"c":"140803","en":"Kampong Prang","km":"កំពង់ប្រាំង"},"geometry":{"type":"Polygon","coordinates":[[[105.1685,11.6243],[105.1573,11.6227],[105.1525,11.6179],[105.1507,11.6211],[105.1333,11.6213],[105.1135,11.6339],[105.1067,11.6295],[105.1035,11.6249],[105.1043,11.6201],[105.1119,11.6127],[105.1103,11.6093],[105.1123,11.5949],[105.1175,11.5769],[105.1131,11.5719],[105.1171,11.5611],[105.1203,11.5587],[105.1671,11.5853],[105.1653,11.5953],[105.1685,11.6243]]]}},{"type":"Feature","properties":{"c":"140802","en":"Kanhcham","km":"កញ្ចំ"},"geometry":{"type":"Polygon","coordinates":[[[105.2815,11.7517],[105.2711,11.7559],[105.2697,11.7109],[105.2701,11.6975],[105.2837,11.6979],[105.2839,11.6559],[105.3173,11.6565],[105.3173,11.6657],[105.3357,11.6729],[105.3357,11.6901],[105.3405,11.6903],[105.3403,11.7053],[105.3381,11.7091],[105.3309,11.7105],[105.3265,11.7281],[105.3059,11.7367],[105.3009,11.7431],[105.2815,11.7517]]]}},{"type":"Feature","properties":{"c":"140805","en":"Mesar Prachan","km":"មេសរប្រចាន់"},"geometry":{"type":"Polygon","coordinates":[[[105.2329,11.7959],[105.2331,11.7997],[105.2235,11.7985],[105.2171,11.7911],[105.1967,11.7831],[105.1821,11.7683],[105.1741,11.7681],[105.1679,11.7625],[105.1607,11.7625],[105.1571,11.7597],[105.1625,11.7519],[105.1639,11.7425],[105.1593,11.7355],[105.1597,11.7313],[105.1559,11.7283],[105.1569,11.7087],[105.1483,11.7057],[105.1481,11.7011],[105.1413,11.6989],[105.1447,11.6905],[105.1509,11.6873],[105.1623,11.6901],[105.1729,11.7057],[105.1799,11.7417],[105.1741,11.7553],[105.1933,11.7651],[105.2347,11.7687],[105.2329,11.7959]]]}},{"type":"Feature","properties":{"c":"140807","en":"Prey Pnov","km":"ព្រៃព្នៅ"},"geometry":{"type":"Polygon","coordinates":[[[105.3861,11.6905],[105.3647,11.6939],[105.3427,11.7025],[105.3403,11.7053],[105.3405,11.6903],[105.3357,11.6901],[105.3357,11.6729],[105.3173,11.6657],[105.3173,11.6565],[105.3003,11.6561],[105.2915,11.6457],[105.2875,11.6441],[105.2859,11.6365],[105.2817,11.6347],[105.2807,11.6291],[105.2821,11.6245],[105.2871,11.6201],[105.2875,11.6153],[105.2809,11.6083],[105.2783,11.6013],[105.2787,11.5967],[105.2857,11.5899],[105.2909,11.5777],[105.2885,11.5671],[105.2911,11.5617],[105.2939,11.5649],[105.3043,11.5675],[105.3091,11.5761],[105.3089,11.5859],[105.3189,11.6059],[105.3269,11.5951],[105.3331,11.5941],[105.3399,11.5889],[105.3505,11.5971],[105.3589,11.5981],[105.3761,11.6089],[105.3759,11.6199],[105.3817,11.6299],[105.3799,11.6511],[105.3929,11.6731],[105.4047,11.6803],[105.3861,11.6905]]]}},{"type":"Feature","properties":{"c":"140808","en":"Prey Sniet","km":"ព្រៃស្នៀត"},"geometry":{"type":"Polygon","coordinates":[[[105.2875,11.6441],[105.2187,11.6469],[105.2161,11.6357],[105.2007,11.6251],[105.1987,11.6157],[105.2005,11.6089],[105.2123,11.5983],[105.2457,11.6149],[105.2507,11.6083],[105.2537,11.5899],[105.2583,11.5915],[105.2767,11.5883],[105.2857,11.5899],[105.2787,11.5967],[105.2783,11.6013],[105.2809,11.6083],[105.2875,11.6153],[105.2871,11.6201],[105.2821,11.6245],[105.2807,11.6291],[105.2817,11.6347],[105.2859,11.6365],[105.2875,11.6441]]]}},{"type":"Feature","properties":{"c":"140809","en":"Prey Sralet","km":"ព្រៃស្រឡិត"},"geometry":{"type":"Polygon","coordinates":[[[105.2711,11.7559],[105.2645,11.7651],[105.2625,11.7721],[105.2551,11.7767],[105.2541,11.7809],[105.2345,11.7917],[105.2347,11.7687],[105.1933,11.7651],[105.1741,11.7553],[105.1795,11.7383],[105.1729,11.7057],[105.1659,11.6949],[105.1731,11.6951],[105.1763,11.6979],[105.1815,11.7055],[105.1825,11.7113],[105.1901,11.7113],[105.1981,11.7043],[105.2037,11.7047],[105.2169,11.7001],[105.2411,11.7111],[105.2697,11.7109],[105.2711,11.7559]]]}},{"type":"Feature","properties":{"c":"140810","en":"Reab","km":"រាប"},"geometry":{"type":"Polygon","coordinates":[[[105.2187,11.6469],[105.2171,11.6695],[105.2097,11.6771],[105.1967,11.6793],[105.1895,11.6837],[105.1841,11.6829],[105.1777,11.6875],[105.1623,11.6901],[105.1589,11.6837],[105.1589,11.6731],[105.1711,11.6375],[105.1653,11.5953],[105.1671,11.5853],[105.1817,11.5865],[105.1849,11.6025],[105.1987,11.6157],[105.2007,11.6251],[105.2161,11.6357],[105.2187,11.6469]]]}},{"type":"Feature","properties":{"c":"140811","en":"Roka","km":"រកា"},"geometry":{"type":"Polygon","coordinates":[[[105.2697,11.7109],[105.2411,11.7111],[105.2169,11.7001],[105.2037,11.7047],[105.1981,11.7043],[105.1901,11.7113],[105.1825,11.7113],[105.1815,11.7055],[105.1763,11.6979],[105.1731,11.6951],[105.1659,11.6949],[105.1623,11.6901],[105.1777,11.6875],[105.1841,11.6829],[105.1895,11.6837],[105.1967,11.6793],[105.2097,11.6771],[105.2171,11.6695],[105.2187,11.6469],[105.2875,11.6441],[105.2915,11.6457],[105.3003,11.6561],[105.2839,11.6559],[105.2837,11.6979],[105.2701,11.6975],[105.2697,11.7109]]]}}]}