{"type":"FeatureCollection","features":[{"type":"Feature","properties":{"c":"140901","en":"Angkor Reach","km":"អង្គររាជ្យ"},"geometry":{"type":"Polygon","coordinates":[[[105.4013,11.1213],[105.3867,11.1233],[105.3801,11.1183],[105.3785,11.1113],[105.3451,11.1101],[105.3587,11.0525],[105.3873,11.0513],[105.4111,11.0451],[105.4193,11.0449],[105.4279,11.0481],[105.3999,11.0647],[105.4021,11.0839],[105.4013,11.1213]]]}},{"type":"Feature","properties":{"c":"140902","en":"Banteay Chakrei","km":"បន្ទាយចក្រី"},"geometry":{"type":"Polygon","coordinates":[[[105.4279,11.0481],[105.4193,11.0449],[105.4111,11.0451],[105.3873,11.0513],[105.3587,11.0525],[105.3565,11.0281],[105.3715,11.0267],[105.3727,11.0229],[105.3691,10.9965],[105.3717,10.9733],[105.3847,10.9687],[105.3899,10.9643],[105.3977,10.9285],[105.4071,10.9309],[105.4069,10.9343],[105.4335,10.9875],[105.4455,10.9967],[105.4527,11.0073],[105.4499,11.0137],[105.4531,11.0365],[105.4279,11.0481]]]}},{"type":"Feature","properties":{"c":"140903","en":"Boeng Daol","km":"បឹងដោល"},"geometry":{"type":"Polygon","coordinates":[[[105.3587,11.0525],[105.3451,11.1101],[105.3243,11.1085],[105.3081,11.0987],[105.2889,11.0795],[105.2925,11.0621],[105.3129,11.0381],[105.3217,11.0209],[105.3323,11.0253],[105.3565,11.0281],[105.3587,11.0525]]]}},{"type":"Feature","properties":{"c":"140904","en":"Chey Kampok","km":"ជៃកំពក"},"geometry":{"type":"Polygon","coordinates":[[[105.3889,11.1423],[105.3637,11.1415],[105.3523,11.1473],[105.3349,11.1475],[105.3379,11.1387],[105.3261,11.1285],[105.3243,11.1085],[105.3785,11.1113],[105.3801,11.1183],[105.3867,11.1233],[105.4279,11.1173],[105.4249,11.1403],[105.4263,11.1439],[105.3889,11.1423]]]}},{"type":"Feature","properties":{"c":"140905","en":"Kampong Soeng","km":"កំពង់សឹង"},"geometry":{"type":"Polygon","coordinates":[[[105.3529,11.2239],[105.3495,11.2253],[105.3429,11.2461],[105.3323,11.2501],[105.3317,11.2531],[105.3265,11.2555],[105.3239,11.2491],[105.3173,11.2439],[105.3145,11.2363],[105.3175,11.2269],[105.3143,11.2201],[105.3035,11.2189],[105.3023,11.2159],[105.3033,11.2025],[105.2965,11.1903],[105.2989,11.1825],[105.3091,11.1767],[105.3135,11.1699],[105.3199,11.1695],[105.3315,11.1637],[105.3453,11.1723],[105.3491,11.1791],[105.3529,11.2239]]]}},{"type":"Feature","properties":{"c":"140906","en":"Krang Svay","km":"ក្រាំងស្វាយ"},"geometry":{"type":"Polygon","coordinates":[[[105.4403,11.1867],[105.4289,11.1919],[105.4333,11.1559],[105.4327,11.1505],[105.4249,11.1403],[105.4279,11.1173],[105.4651,11.1133],[105.4573,11.1483],[105.4575,11.1657],[105.4603,11.1733],[105.4403,11.1867]]]}},{"type":"Feature","properties":{"c":"140907","en":"Lvea","km":"ល្វា"},"geometry":{"type":"Polygon","coordinates":[[[105.4289,11.1919],[105.3955,11.2063],[105.3903,11.2105],[105.3889,11.1423],[105.4263,11.1439],[105.4327,11.1505],[105.4289,11.1919]]]}},{"type":"Feature","properties":{"c":"140908","en":"Preah Sdach","km":"ព្រះស្ដេច"},"geometry":{"type":"Polygon","coordinates":[[[105.3977,10.9285],[105.3899,10.9643],[105.3847,10.9687],[105.3717,10.9733],[105.3691,10.9965],[105.3725,11.0181],[105.3715,11.0267],[105.3565,11.0281],[105.3323,11.0253],[105.3217,11.0209],[105.3285,11.0051],[105.3299,10.9847],[105.3399,10.9731],[105.3441,10.9489],[105.3567,10.9411],[105.3725,10.9127],[105.3753,10.9037],[105.3795,10.9027],[105.3847,10.9163],[105.3971,10.9249],[105.3977,10.9285]]]}},{"type":"Feature","properties":{"c":"140909","en":"Reathor","km":"រាធរ"},"geometry":{"type":"Polygon","coordinates":[[[105.3275,11.1657],[105.3135,11.1699],[105.3149,11.1587],[105.3033,11.1487],[105.3077,11.1287],[105.3039,11.1253],[105.3085,11.1153],[105.3049,11.1109],[105.2917,11.1087],[105.2815,11.1133],[105.2711,11.1045],[105.2607,11.1085],[105.2639,11.0921],[105.2467,11.0735],[105.2513,11.0729],[105.2609,11.0767],[105.2695,11.0755],[105.2785,11.0809],[105.2889,11.0795],[105.3081,11.0987],[105.3243,11.1085],[105.3261,11.1285],[105.3379,11.1387],[105.3349,11.1475],[105.3267,11.1493],[105.3275,11.1657]]]}},{"type":"Feature","properties":{"c":"140910","en":"Rumchek","km":"រំចេក"},"geometry":{"type":"Polygon","coordinates":[[[105.3875,11.2145],[105.3763,11.2213],[105.3671,11.2201],[105.3529,11.2239],[105.3481,11.1751],[105.3315,11.1637],[105.3275,11.1657],[105.3267,11.1493],[105.3523,11.1473],[105.3637,11.1415],[105.3889,11.1423],[105.3903,11.2105],[105.3875,11.2145]]]}},{"type":"Feature","properties":{"c":"140911","en":"Sena Reach Otdam","km":"សេនារាជឧត្ដម"},"geometry":{"type":"Polygon","coordinates":[[[105.4279,11.1173],[105.4013,11.1213],[105.4021,11.0839],[105.3999,11.0647],[105.4279,11.0481],[105.4531,11.0365],[105.4669,11.1075],[105.4651,11.1133],[105.4279,11.1173]]]}}]}