{"type":"FeatureCollection","features":[{"type":"Feature","properties":{"c":"141001","en":"Baray","km":"សង្កាត់បារាយណ៍"},"geometry":{"type":"Polygon","coordinates":[[[105.3777,11.4775],[105.3745,11.4791],[105.3443,11.4779],[105.3305,11.4695],[105.3219,11.4675],[105.3175,11.4591],[105.3065,11.4609],[105.3059,11.4523],[105.3079,11.4493],[105.3059,11.4443],[105.3079,11.4413],[105.3169,11.4521],[105.3291,11.4507],[105.3655,11.4417],[105.3907,11.4281],[105.3933,11.4435],[105.3931,11.4625],[105.3901,11.4683],[105.3805,11.4709],[105.3777,11.4775]]]}},{"type":"Feature","properties":{"c":"141002","en":"Cheung Tuek","km":"សង្កាត់ជើងទឹក"},"geometry":{"type":"Polygon","coordinates":[[[105.3371,11.5195],[105.3017,11.5217],[105.3001,11.5193],[105.2945,11.5251],[105.2873,11.5235],[105.2867,11.4889],[105.2933,11.4845],[105.3005,11.4863],[105.3069,11.4835],[105.3037,11.4913],[105.3317,11.4919],[105.3381,11.4979],[105.3395,11.4951],[105.3501,11.4937],[105.3493,11.5021],[105.3437,11.5019],[105.3401,11.5189],[105.3371,11.5195]]]}},{"type":"Feature","properties":{"c":"141003","en":"Kampong Leav","km":"សង្កាត់កំពង់លាវ"},"geometry":{"type":"Polygon","coordinates":[[[105.3501,11.4937],[105.3395,11.4951],[105.3381,11.4979],[105.3317,11.4919],[105.3037,11.4913],[105.3069,11.4835],[105.3005,11.4863],[105.2933,11.4845],[105.2927,11.4813],[105.2977,11.4763],[105.2939,11.4659],[105.2969,11.4619],[105.3037,11.4649],[105.3065,11.4609],[105.3175,11.4591],[105.3219,11.4675],[105.3305,11.4695],[105.3443,11.4779],[105.3569,11.4785],[105.3589,11.4937],[105.3501,11.4937]]]}}]}