{"type":"FeatureCollection","features":[{"type":"Feature","properties":{"c":"141106","en":"Kampong Ruessei","km":"កំពង់ឫស្សី"},"geometry":{"type":"Polygon","coordinates":[[[105.2537,11.5899],[105.2507,11.6083],[105.2457,11.6149],[105.2123,11.5983],[105.2005,11.6089],[105.1987,11.6157],[105.1901,11.6089],[105.1827,11.5983],[105.1825,11.5793],[105.1877,11.5555],[105.1987,11.5423],[105.2015,11.5347],[105.2185,11.5345],[105.2253,11.5393],[105.2245,11.5495],[105.2287,11.5553],[105.2281,11.5733],[105.2537,11.5899]]]}},{"type":"Feature","properties":{"c":"141101","en":"Pou Rieng","km":"ពោធិ៍រៀង"},"geometry":{"type":"Polygon","coordinates":[[[105.2857,11.5899],[105.2767,11.5883],[105.2583,11.5915],[105.2323,11.5761],[105.2281,11.5733],[105.2287,11.5553],[105.2245,11.5495],[105.2253,11.5393],[105.2377,11.5375],[105.2433,11.5233],[105.2473,11.5223],[105.2447,11.5145],[105.2551,11.5053],[105.2541,11.5021],[105.2573,11.5001],[105.2579,11.4913],[105.2717,11.4821],[105.2789,11.4823],[105.2833,11.4885],[105.2867,11.4889],[105.2873,11.5235],[105.2945,11.5251],[105.2943,11.5327],[105.2883,11.5361],[105.2867,11.5425],[105.2937,11.5533],[105.2885,11.5671],[105.2909,11.5777],[105.2857,11.5899]]]}},{"type":"Feature","properties":{"c":"141102","en":"Preaek Anteah","km":"ព្រែកអន្ទះ"},"geometry":{"type":"Polygon","coordinates":[[[105.2579,11.4913],[105.2573,11.5001],[105.2541,11.5021],[105.2551,11.5053],[105.2447,11.5145],[105.2473,11.5223],[105.2433,11.5233],[105.2377,11.5375],[105.2253,11.5393],[105.2185,11.5345],[105.2015,11.5347],[105.1951,11.5309],[105.1953,11.5251],[105.2053,11.5089],[105.2115,11.5031],[105.2137,11.4877],[105.2211,11.4897],[105.2251,11.4879],[105.2277,11.4853],[105.2273,11.4807],[105.2579,11.4913]]]}},{"type":"Feature","properties":{"c":"141103","en":"Preaek Chrey","km":"ព្រែកជ្រៃ"},"geometry":{"type":"Polygon","coordinates":[[[105.2867,11.4889],[105.2833,11.4885],[105.2789,11.4823],[105.2717,11.4821],[105.2579,11.4913],[105.2273,11.4807],[105.2269,11.4747],[105.2367,11.4635],[105.2439,11.4615],[105.2455,11.4573],[105.2519,11.4537],[105.2561,11.4527],[105.2623,11.4581],[105.2699,11.4501],[105.2777,11.4579],[105.2811,11.4559],[105.2867,11.4491],[105.2827,11.4431],[105.2903,11.4359],[105.2927,11.4285],[105.2965,11.4253],[105.2927,11.4197],[105.2945,11.4153],[105.2987,11.4091],[105.3095,11.4097],[105.3047,11.4183],[105.3099,11.4225],[105.3073,11.4285],[105.2991,11.4317],[105.3079,11.4413],[105.3059,11.4443],[105.3079,11.4493],[105.3059,11.4523],[105.3065,11.4609],[105.3037,11.4649],[105.2969,11.4619],[105.2939,11.4659],[105.2977,11.4763],[105.2927,11.4813],[105.2933,11.4845],[105.2867,11.4889]]]}},{"type":"Feature","properties":{"c":"141107","en":"Preaek Ta Sar","km":"ព្រែកតាសរ"},"geometry":{"type":"Polygon","coordinates":[[[105.2015,11.5347],[105.1987,11.5423],[105.1877,11.5555],[105.1817,11.5865],[105.1671,11.5853],[105.1203,11.5587],[105.1245,11.5525],[105.1289,11.5533],[105.1339,11.5495],[105.1299,11.5467],[105.1281,11.5367],[105.1431,11.5279],[105.1599,11.5313],[105.1667,11.5285],[105.1769,11.5193],[105.1847,11.5177],[105.1983,11.5211],[105.1939,11.5279],[105.2015,11.5347]]]}},{"type":"Feature","properties":{"c":"141104","en":"Prey Kanlaong","km":"ព្រៃកន្លោង"},"geometry":{"type":"Polygon","coordinates":[[[105.3399,11.5889],[105.3331,11.5941],[105.3269,11.5951],[105.3189,11.6059],[105.3089,11.5859],[105.3091,11.5761],[105.3043,11.5675],[105.2939,11.5649],[105.2911,11.5617],[105.2937,11.5533],[105.2875,11.5463],[105.2873,11.5393],[105.2883,11.5361],[105.2943,11.5327],[105.2945,11.5251],[105.3001,11.5193],[105.3017,11.5217],[105.3371,11.5195],[105.3453,11.5459],[105.3407,11.5627],[105.3399,11.5889]]]}},{"type":"Feature","properties":{"c":"141105","en":"Ta Kao","km":"តាកោ"},"geometry":{"type":"Polygon","coordinates":[[[105.3673,11.5457],[105.3453,11.5459],[105.3371,11.5195],[105.3401,11.5189],[105.3437,11.5019],[105.3493,11.5021],[105.3501,11.4937],[105.3589,11.4937],[105.3569,11.4785],[105.3777,11.4775],[105.3897,11.4821],[105.3961,11.5065],[105.3789,11.5395],[105.3751,11.5433],[105.3673,11.5457]]]}}]}