{"type":"FeatureCollection","features":[{"type":"Feature","properties":{"c":"141201","en":"Ampil Krau","km":"អំពិលក្រៅ"},"geometry":{"type":"Polygon","coordinates":[[[105.4669,11.7653],[105.4607,11.7651],[105.4473,11.7551],[105.4423,11.7557],[105.4421,11.7385],[105.4377,11.7383],[105.4377,11.7301],[105.4287,11.7297],[105.4293,11.6983],[105.4419,11.7143],[105.4805,11.7107],[105.4945,11.7375],[105.5105,11.7577],[105.4983,11.7633],[105.4669,11.7653]]]}},{"type":"Feature","properties":{"c":"141202","en":"Chrey Khmum","km":"ជ្រៃឃ្មុំ"},"geometry":{"type":"Polygon","coordinates":[[[105.3211,11.7759],[105.3213,11.7901],[105.3495,11.7917],[105.3489,11.8189],[105.3443,11.8293],[105.3405,11.8289],[105.3349,11.8191],[105.3007,11.8169],[105.2933,11.8075],[105.2965,11.7875],[105.2935,11.7721],[105.2873,11.7573],[105.2815,11.7517],[105.3009,11.7431],[105.3059,11.7367],[105.3197,11.7317],[105.3211,11.7759]]]}},{"type":"Feature","properties":{"c":"141203","en":"Lve","km":"ល្វេ"},"geometry":{"type":"Polygon","coordinates":[[[105.4051,11.8449],[105.4013,11.8465],[105.3913,11.8387],[105.3811,11.8447],[105.3737,11.8443],[105.3823,11.8293],[105.3841,11.8115],[105.3951,11.7965],[105.4033,11.7939],[105.4075,11.7941],[105.4153,11.8023],[105.4127,11.8179],[105.4191,11.8235],[105.4187,11.8277],[105.4117,11.8333],[105.4093,11.8401],[105.4049,11.8417],[105.4051,11.8449]]]}},{"type":"Feature","properties":{"c":"141204","en":"Pnov Ti Muoy","km":"ព្នៅទី ១"},"geometry":{"type":"Polygon","coordinates":[[[105.3221,11.8641],[105.3147,11.8643],[105.2885,11.8559],[105.2843,11.8571],[105.2885,11.8509],[105.2871,11.8461],[105.2793,11.8475],[105.2757,11.8411],[105.2681,11.8425],[105.2537,11.8127],[105.2889,11.8129],[105.2915,11.8171],[105.3349,11.8191],[105.3405,11.8289],[105.3443,11.8293],[105.3423,11.8487],[105.3257,11.8509],[105.3221,11.8641]]]}},{"type":"Feature","properties":{"c":"141205","en":"Pnov Ti Pir","km":"ព្នៅទី ២"},"geometry":{"type":"Polygon","coordinates":[[[105.3007,11.8169],[105.2915,11.8171],[105.2889,11.8129],[105.2509,11.8121],[105.2473,11.8139],[105.2441,11.8069],[105.2331,11.7997],[105.2329,11.7959],[105.2345,11.7917],[105.2541,11.7809],[105.2551,11.7767],[105.2625,11.7721],[105.2687,11.7581],[105.2815,11.7517],[105.2873,11.7573],[105.2935,11.7721],[105.2965,11.7875],[105.2933,11.8075],[105.3007,11.8169]]]}},{"type":"Feature","properties":{"c":"141206","en":"Pou Ti","km":"ពោធិ៍ទី"},"geometry":{"type":"Polygon","coordinates":[[[105.3861,11.6905],[105.3861,11.7251],[105.3661,11.7249],[105.3645,11.7211],[105.3285,11.7243],[105.3309,11.7105],[105.3381,11.7091],[105.3427,11.7025],[105.3683,11.6929],[105.3861,11.6905]]]}},{"type":"Feature","properties":{"c":"141207","en":"Preaek Changkran","km":"ព្រែកចង្ក្រាន"},"geometry":{"type":"Polygon","coordinates":[[[105.3737,11.8443],[105.3729,11.8491],[105.3621,11.8565],[105.3503,11.8521],[105.3435,11.8539],[105.3265,11.8701],[105.3221,11.8641],[105.3257,11.8509],[105.3511,11.8475],[105.3699,11.8329],[105.3763,11.8371],[105.3737,11.8443]]]}},{"type":"Feature","properties":{"c":"141208","en":"Prey Daeum Thnoeng","km":"ព្រៃដើមថ្នឹង"},"geometry":{"type":"Polygon","coordinates":[[[105.4033,11.7939],[105.4003,11.7943],[105.4003,11.7897],[105.3927,11.7891],[105.3895,11.7835],[105.3741,11.7857],[105.3709,11.7829],[105.3363,11.7817],[105.3365,11.7719],[105.3449,11.7717],[105.3449,11.7625],[105.3865,11.7577],[105.3867,11.7535],[105.3931,11.7539],[105.3939,11.7569],[105.3975,11.7581],[105.3949,11.7611],[105.3973,11.7631],[105.4189,11.7725],[105.4125,11.7927],[105.4033,11.7939]]]}},{"type":"Feature","properties":{"c":"141209","en":"Prey Tueng","km":"ព្រៃទឹង"},"geometry":{"type":"Polygon","coordinates":[[[105.3867,11.7535],[105.3865,11.7577],[105.3449,11.7625],[105.3449,11.7717],[105.3365,11.7719],[105.3363,11.7759],[105.3211,11.7759],[105.3197,11.7317],[105.3265,11.7281],[105.3285,11.7243],[105.3645,11.7211],[105.3661,11.7249],[105.3861,11.7251],[105.3867,11.7535]]]}},{"type":"Feature","properties":{"c":"141211","en":"Ruessei Sanh","km":"ឫស្សីសាញ់"},"geometry":{"type":"Polygon","coordinates":[[[105.4423,11.7557],[105.4189,11.7725],[105.4005,11.7651],[105.3949,11.7611],[105.3975,11.7581],[105.3939,11.7569],[105.3931,11.7539],[105.3867,11.7535],[105.3861,11.6905],[105.4047,11.6803],[105.4147,11.6867],[105.4253,11.6977],[105.4293,11.6983],[105.4287,11.7297],[105.4377,11.7301],[105.4377,11.7383],[105.4421,11.7385],[105.4423,11.7557]]]}},{"type":"Feature","properties":{"c":"141210","en":"Rumlech","km":"រំលេច"},"geometry":{"type":"Polygon","coordinates":[[[105.3763,11.8371],[105.3699,11.8329],[105.3511,11.8475],[105.3423,11.8487],[105.3443,11.8293],[105.3489,11.8189],[105.3495,11.7917],[105.3213,11.7901],[105.3211,11.7759],[105.3363,11.7759],[105.3363,11.7817],[105.3709,11.7829],[105.3741,11.7857],[105.3895,11.7835],[105.3927,11.7891],[105.4003,11.7897],[105.4003,11.7943],[105.3951,11.7965],[105.3827,11.8143],[105.3823,11.8293],[105.3763,11.8371]]]}}]}