{"type":"FeatureCollection","features":[{"type":"Feature","properties":{"c":"141301","en":"Angkor Tret","km":"អង្គរទ្រេត"},"geometry":{"type":"Polygon","coordinates":[[[105.4915,11.5581],[105.4823,11.5581],[105.4823,11.5709],[105.4639,11.5705],[105.4637,11.5779],[105.4457,11.5777],[105.4457,11.5743],[105.4355,11.5743],[105.4359,11.5565],[105.4333,11.5509],[105.4251,11.5497],[105.4143,11.5293],[105.4385,11.5273],[105.4385,11.5219],[105.4823,11.5183],[105.4823,11.5107],[105.4891,11.5109],[105.4875,11.5075],[105.5041,11.5073],[105.5129,11.5121],[105.5133,11.5341],[105.4965,11.5341],[105.4963,11.5453],[105.4915,11.5453],[105.4915,11.5581]]]}},{"type":"Feature","properties":{"c":"141302","en":"Chea Khlang","km":"ជាខ្លាង"},"geometry":{"type":"Polygon","coordinates":[[[105.5089,11.5963],[105.4979,11.6059],[105.4889,11.6183],[105.4641,11.6177],[105.4641,11.6121],[105.4547,11.6117],[105.4549,11.5777],[105.4637,11.5779],[105.4639,11.5705],[105.4823,11.5709],[105.4823,11.5581],[105.4915,11.5581],[105.4915,11.5791],[105.5097,11.5787],[105.5089,11.5963]]]}},{"type":"Feature","properties":{"c":"141303","en":"Chrey","km":"ជ្រៃ"},"geometry":{"type":"Polygon","coordinates":[[[105.5419,11.5693],[105.5293,11.5691],[105.5231,11.5835],[105.5089,11.5963],[105.5097,11.5787],[105.4915,11.5791],[105.4915,11.5453],[105.4963,11.5453],[105.4965,11.5341],[105.5133,11.5341],[105.5129,11.5121],[105.5475,11.5131],[105.5473,11.5171],[105.5577,11.5193],[105.5557,11.5279],[105.5625,11.5451],[105.5653,11.5743],[105.5419,11.5693]]]}},{"type":"Feature","properties":{"c":"141304","en":"Damrei Puon","km":"ដំរីពួន"},"geometry":{"type":"Polygon","coordinates":[[[105.4875,11.5075],[105.4891,11.5109],[105.4823,11.5107],[105.4823,11.5183],[105.4385,11.5219],[105.4385,11.5273],[105.4143,11.5293],[105.4099,11.5275],[105.4043,11.5153],[105.3983,11.5109],[105.3897,11.4821],[105.3777,11.4775],[105.3805,11.4709],[105.3901,11.4683],[105.4009,11.4733],[105.4247,11.4737],[105.4247,11.4707],[105.4369,11.4705],[105.4371,11.4747],[105.4577,11.4743],[105.4579,11.4623],[105.4821,11.4607],[105.4821,11.4561],[105.4899,11.4565],[105.4915,11.4731],[105.4949,11.4741],[105.4961,11.4837],[105.4941,11.4959],[105.4853,11.4957],[105.4875,11.5075]]]}},{"type":"Feature","properties":{"c":"141305","en":"Me Bon","km":"មេបុណ្យ"},"geometry":{"type":"Polygon","coordinates":[[[105.4251,11.5497],[105.4127,11.5487],[105.4131,11.5605],[105.4089,11.5603],[105.4089,11.5645],[105.3997,11.5643],[105.3999,11.5687],[105.3793,11.5683],[105.3791,11.5653],[105.3705,11.5653],[105.3703,11.5575],[105.3673,11.5577],[105.3673,11.5457],[105.3751,11.5433],[105.3789,11.5395],[105.3961,11.5065],[105.4043,11.5153],[105.4099,11.5275],[105.4143,11.5293],[105.4251,11.5497]]]}},{"type":"Feature","properties":{"c":"141306","en":"Pean Roung","km":"ពានរោង"},"geometry":{"type":"Polygon","coordinates":[[[105.5765,11.4953],[105.5549,11.4995],[105.5511,11.5033],[105.5475,11.5131],[105.5129,11.5121],[105.5041,11.5073],[105.4875,11.5075],[105.4853,11.4957],[105.4941,11.4959],[105.4961,11.4837],[105.4949,11.4741],[105.4915,11.4731],[105.4899,11.4565],[105.4861,11.4565],[105.4871,11.4217],[105.5037,11.4221],[105.5065,11.4331],[105.5125,11.4363],[105.5107,11.4479],[105.5145,11.4503],[105.5347,11.4547],[105.5399,11.4599],[105.5473,11.4537],[105.5669,11.4709],[105.5883,11.4845],[105.5895,11.4937],[105.5861,11.4963],[105.5765,11.4953]]]}},{"type":"Feature","properties":{"c":"141307","en":"Popueus","km":"ពពឺស"},"geometry":{"type":"Polygon","coordinates":[[[105.3865,11.5833],[105.3761,11.6089],[105.3589,11.5981],[105.3505,11.5971],[105.3417,11.5911],[105.3399,11.5889],[105.3407,11.5627],[105.3453,11.5459],[105.3673,11.5457],[105.3673,11.5577],[105.3703,11.5575],[105.3705,11.5653],[105.3791,11.5653],[105.3793,11.5683],[105.3867,11.5685],[105.3865,11.5833]]]}},{"type":"Feature","properties":{"c":"141308","en":"Prey Khla","km":"ព្រៃខ្លា"},"geometry":{"type":"Polygon","coordinates":[[[105.4889,11.6183],[105.4835,11.6275],[105.4689,11.6417],[105.4609,11.6403],[105.4557,11.6439],[105.4557,11.6513],[105.4471,11.6509],[105.4217,11.6445],[105.3951,11.6327],[105.3819,11.6347],[105.3817,11.6299],[105.3759,11.6199],[105.3761,11.6089],[105.3865,11.5833],[105.3959,11.5833],[105.3993,11.6061],[105.4337,11.6049],[105.4341,11.6089],[105.4641,11.6121],[105.4641,11.6177],[105.4889,11.6183]]]}},{"type":"Feature","properties":{"c":"141309","en":"Samraong","km":"សំរោង"},"geometry":{"type":"Polygon","coordinates":[[[105.4861,11.4565],[105.4821,11.4561],[105.4821,11.4607],[105.4579,11.4623],[105.4577,11.4743],[105.4371,11.4747],[105.4369,11.4705],[105.4247,11.4707],[105.4247,11.4737],[105.4009,11.4733],[105.3933,11.4705],[105.3901,11.4683],[105.3935,11.4593],[105.3911,11.4229],[105.3817,11.4003],[105.3997,11.4019],[105.4247,11.3979],[105.4319,11.3991],[105.4435,11.4079],[105.4451,11.4189],[105.4673,11.4273],[105.4731,11.4323],[105.4863,11.4335],[105.4861,11.4565]]]}},{"type":"Feature","properties":{"c":"141310","en":"Svay Antor","km":"ស្វាយអន្ទរ"},"geometry":{"type":"Polygon","coordinates":[[[105.4549,11.5777],[105.4547,11.6117],[105.4341,11.6089],[105.4337,11.6049],[105.3993,11.6061],[105.3959,11.5833],[105.3865,11.5833],[105.3867,11.5685],[105.3999,11.5687],[105.3997,11.5643],[105.4089,11.5645],[105.4089,11.5603],[105.4131,11.5605],[105.4127,11.5487],[105.4251,11.5497],[105.4333,11.5509],[105.4359,11.5565],[105.4355,11.5743],[105.4457,11.5743],[105.4457,11.5777],[105.4549,11.5777]]]}},{"type":"Feature","properties":{"c":"141311","en":"Tuek Thla","km":"ទឹកថ្លា"},"geometry":{"type":"Polygon","coordinates":[[[105.5037,11.4221],[105.4871,11.4217],[105.4863,11.4335],[105.4731,11.4323],[105.4673,11.4273],[105.4485,11.4209],[105.4451,11.4189],[105.4435,11.4079],[105.4407,11.4045],[105.4319,11.3991],[105.4181,11.3991],[105.4145,11.3923],[105.4259,11.3899],[105.4149,11.3827],[105.4143,11.3795],[105.4287,11.3787],[105.4295,11.3581],[105.4571,11.3603],[105.4567,11.3723],[105.4739,11.3757],[105.4745,11.3929],[105.4775,11.4005],[105.4863,11.4107],[105.4987,11.4139],[105.5037,11.4221]]]}}]}