{"type":"FeatureCollection","features":[{"type":"Feature","properties":{"c":"150101","en":"Boeng Bat Kandaol","km":"បឹងបត់កណ្ដាល"},"geometry":{"type":"Polygon","coordinates":[[[103.9097,12.8423],[103.9095,12.8461],[103.9053,12.8455],[103.9023,12.8479],[103.9047,12.8603],[103.8987,12.8657],[103.8771,12.8653],[103.8751,12.8615],[103.8661,12.8585],[103.8633,12.8553],[103.8471,12.8243],[103.8295,12.8023],[103.8267,12.7949],[103.8195,12.7855],[103.8057,12.7747],[103.7939,12.7563],[103.7817,12.7093],[103.7693,12.6959],[103.7649,12.6775],[103.7595,12.6681],[103.7589,12.6317],[103.7801,12.6225],[103.8195,12.6001],[103.8289,12.6227],[103.8343,12.6687],[103.8565,12.6925],[103.8663,12.7175],[103.8621,12.7287],[103.8701,12.7549],[103.8641,12.7789],[103.8647,12.7895],[103.8695,12.7991],[103.8891,12.8167],[103.8989,12.8217],[103.8979,12.8299],[103.9097,12.8423]]]}},{"type":"Feature","properties":{"c":"150102","en":"Boeng Khnar","km":"បឹងខ្នារ"},"geometry":{"type":"Polygon","coordinates":[[[103.7583,12.6637],[103.7197,12.6729],[103.7173,12.6767],[103.7107,12.7233],[103.7193,12.7431],[103.7183,12.7471],[103.7051,12.7581],[103.7003,12.7483],[103.6993,12.7355],[103.7069,12.7199],[103.6909,12.6869],[103.6925,12.6539],[103.6873,12.6457],[103.6891,12.6345],[103.7041,12.6163],[103.7315,12.6179],[103.7403,12.6225],[103.7549,12.6189],[103.7589,12.6317],[103.7583,12.6637]]]}},{"type":"Feature","properties":{"c":"150103","en":"Khnar Totueng","km":"ខ្នារទទឹង"},"geometry":{"type":"Polygon","coordinates":[[[103.7549,12.6189],[103.7403,12.6225],[103.7315,12.6179],[103.7169,12.6181],[103.7135,12.6161],[103.7065,12.6041],[103.7049,12.5917],[103.6943,12.5839],[103.6929,12.5691],[103.6899,12.5651],[103.6833,12.5307],[103.6867,12.5231],[103.7001,12.5173],[103.7355,12.5145],[103.7379,12.5171],[103.7433,12.5175],[103.7435,12.5205],[103.7325,12.5251],[103.7343,12.5769],[103.7411,12.5951],[103.7549,12.6189]]]}},{"type":"Feature","properties":{"c":"150104","en":"Me Tuek","km":"មេទឹក"},"geometry":{"type":"Polygon","coordinates":[[[103.8771,12.8653],[103.8777,12.8777],[103.8737,12.8835],[103.8703,12.8813],[103.8671,12.8827],[103.8655,12.8933],[103.8627,12.8971],[103.8443,12.8999],[103.8355,12.9137],[103.8283,12.9075],[103.8115,12.8993],[103.8111,12.9027],[103.8035,12.9017],[103.7919,12.9169],[103.7911,12.9405],[103.7855,12.9337],[103.7793,12.9319],[103.7665,12.9075],[103.7533,12.8693],[103.7371,12.8405],[103.7409,12.8259],[103.7287,12.8081],[103.7281,12.7949],[103.7199,12.7897],[103.7051,12.7581],[103.7183,12.7471],[103.7193,12.7431],[103.7107,12.7233],[103.7153,12.6835],[103.7197,12.6729],[103.7583,12.6637],[103.7649,12.6775],[103.7693,12.6959],[103.7817,12.7093],[103.7903,12.7465],[103.7963,12.7605],[103.8057,12.7747],[103.8221,12.7883],[103.8295,12.8023],[103.8471,12.8243],[103.8633,12.8553],[103.8661,12.8585],[103.8751,12.8615],[103.8771,12.8653]]]}},{"type":"Feature","properties":{"c":"150105","en":"Ou Ta Paong","km":"អូរតាប៉ោង"},"geometry":{"type":"Polygon","coordinates":[[[103.7525,13.0105],[103.7481,13.0115],[103.7409,13.0073],[103.7389,12.9995],[103.7321,12.9951],[103.7305,12.9843],[103.7189,12.9741],[103.7189,12.9577],[103.7223,12.9507],[103.7293,12.9481],[103.7321,12.9327],[103.7293,12.9291],[103.7123,12.9263],[103.7011,12.9149],[103.7009,12.9017],[103.6959,12.8957],[103.6973,12.8791],[103.6945,12.8695],[103.6889,12.8633],[103.6685,12.8635],[103.6435,12.8545],[103.6333,12.8451],[103.6299,12.8325],[103.6323,12.8231],[103.6425,12.8205],[103.6445,12.8163],[103.6365,12.8033],[103.6331,12.7861],[103.6231,12.7777],[103.6237,12.7741],[103.6199,12.7663],[103.6297,12.7599],[103.6341,12.7521],[103.6385,12.7253],[103.6511,12.7203],[103.6531,12.7175],[103.6497,12.7071],[103.6509,12.6931],[103.6587,12.6867],[103.6601,12.6585],[103.6561,12.6457],[103.6559,12.6299],[103.6533,12.6271],[103.6637,12.6213],[103.6747,12.6297],[103.6891,12.6345],[103.6873,12.6457],[103.6925,12.6539],[103.6909,12.6869],[103.7069,12.7199],[103.6993,12.7355],[103.7003,12.7483],[103.7199,12.7897],[103.7281,12.7949],[103.7287,12.8081],[103.7409,12.8259],[103.7371,12.8405],[103.7533,12.8693],[103.7695,12.9141],[103.7793,12.9319],[103.7855,12.9337],[103.7911,12.9405],[103.7863,12.9453],[103.7845,12.9545],[103.7931,12.9585],[103.7935,12.9663],[103.7893,12.9785],[103.7841,12.9841],[103.7745,12.9881],[103.7525,13.0105]]]}},{"type":"Feature","properties":{"c":"150106","en":"Rumlech","km":"រំលេច"},"geometry":{"type":"Polygon","coordinates":[[[103.7135,12.6161],[103.7041,12.6163],[103.6891,12.6345],[103.6747,12.6297],[103.6637,12.6213],[103.6533,12.6271],[103.6369,12.6295],[103.6357,12.6131],[103.6405,12.6081],[103.6327,12.5959],[103.6343,12.5919],[103.6379,12.5903],[103.6425,12.5781],[103.6339,12.5703],[103.6859,12.5459],[103.6899,12.5651],[103.6929,12.5691],[103.6943,12.5839],[103.7049,12.5917],[103.7065,12.6041],[103.7135,12.6161]]]}},{"type":"Feature","properties":{"c":"150107","en":"Snam Preah","km":"ស្នាមព្រះ"},"geometry":{"type":"Polygon","coordinates":[[[103.9367,12.7943],[103.8989,12.8217],[103.8891,12.8167],[103.8665,12.7943],[103.8641,12.7789],[103.8701,12.7549],[103.8621,12.7287],[103.8663,12.7175],[103.8565,12.6925],[103.8343,12.6687],[103.8289,12.6227],[103.8195,12.6001],[103.8071,12.5831],[103.8077,12.5693],[103.8043,12.5527],[103.7695,12.5047],[103.7787,12.4983],[103.7903,12.4925],[103.7873,12.5191],[103.7909,12.5263],[103.7947,12.5285],[103.8341,12.5315],[103.8447,12.5267],[103.8613,12.5237],[103.8679,12.5291],[103.8731,12.5431],[103.8749,12.5579],[103.8841,12.5757],[103.8803,12.5839],[103.8835,12.5913],[103.8863,12.6201],[103.8827,12.6261],[103.8849,12.6357],[103.8813,12.6445],[103.8843,12.6621],[103.8859,12.6661],[103.8997,12.6645],[103.9021,12.6679],[103.9037,12.6925],[103.9083,12.7039],[103.9069,12.7237],[103.9181,12.7363],[103.9247,12.7563],[103.9237,12.7605],[103.9349,12.7737],[103.9339,12.7821],[103.9367,12.7943]]]}},{"type":"Feature","properties":{"c":"150108","en":"Svay Doun Kaev","km":"ស្វាយដូនកែវ"},"geometry":{"type":"Polygon","coordinates":[[[103.6533,12.6271],[103.6559,12.6299],[103.6561,12.6457],[103.6601,12.6585],[103.6587,12.6867],[103.6509,12.6931],[103.6497,12.7071],[103.6531,12.7175],[103.6511,12.7203],[103.6385,12.7253],[103.6341,12.7521],[103.6297,12.7599],[103.6227,12.7639],[103.6201,12.7627],[103.6229,12.7555],[103.6199,12.7481],[103.6233,12.7375],[103.6237,12.7211],[103.6307,12.7149],[103.6313,12.7101],[103.6345,12.7079],[103.6355,12.6999],[103.6193,12.6771],[103.6395,12.6645],[103.6421,12.6665],[103.6451,12.6633],[103.6485,12.6395],[103.6387,12.6331],[103.6429,12.6277],[103.6533,12.6271]]]}},{"type":"Feature","properties":{"c":"150109","en":"Ta Lou","km":"តាលោ"},"geometry":{"type":"Polygon","coordinates":[[[103.6859,12.5459],[103.6339,12.5703],[103.6343,12.5667],[103.6227,12.5601],[103.6233,12.5559],[103.6185,12.5417],[103.6155,12.5401],[103.6149,12.5335],[103.6087,12.5247],[103.5627,12.5211],[103.5393,12.5137],[103.5247,12.5053],[103.5139,12.5043],[103.4863,12.5147],[103.4587,12.5355],[103.4467,12.5383],[103.4609,12.5237],[103.4727,12.4995],[103.4873,12.4879],[103.5261,12.4257],[103.5461,12.4009],[103.5677,12.3803],[103.6543,12.4209],[103.6677,12.4249],[103.6725,12.4305],[103.6811,12.4351],[103.6891,12.4447],[103.6901,12.4645],[103.6999,12.4755],[103.7049,12.4793],[103.7225,12.4823],[103.7339,12.4899],[103.7377,12.5017],[103.7355,12.5145],[103.7001,12.5173],[103.6891,12.5215],[103.6839,12.5259],[103.6859,12.5459]]]}},{"type":"Feature","properties":{"c":"150110","en":"Trapeang Chorng","km":"ត្រពាំងជង"},"geometry":{"type":"Polygon","coordinates":[[[103.8195,12.6001],[103.7801,12.6225],[103.7589,12.6317],[103.7533,12.6137],[103.7411,12.5951],[103.7351,12.5813],[103.7325,12.5251],[103.7435,12.5205],[103.7433,12.5175],[103.7505,12.5127],[103.7695,12.5047],[103.8043,12.5527],[103.8077,12.5693],[103.8071,12.5831],[103.8195,12.6001]]]}}]}