{"type":"FeatureCollection","features":[{"type":"Feature","properties":{"c":"150201","en":"Anlong Vil","km":"អន្លង់វិល"},"geometry":{"type":"Polygon","coordinates":[[[104.0243,12.5897],[104.0205,12.5959],[104.0151,12.5961],[104.0119,12.6101],[104.0021,12.6055],[103.9977,12.6055],[103.9943,12.6089],[103.9857,12.6073],[103.9881,12.6033],[103.9815,12.5967],[103.9767,12.5973],[103.9759,12.5885],[103.9705,12.5851],[103.9679,12.5863],[103.9643,12.5817],[103.9577,12.5841],[103.9517,12.5787],[103.9441,12.5811],[103.9389,12.5769],[103.9371,12.5733],[103.9385,12.5663],[103.9327,12.5575],[103.9383,12.5575],[103.9513,12.5523],[103.9559,12.5561],[103.9899,12.5531],[103.9931,12.5543],[103.9941,12.5631],[103.9981,12.5701],[104.0149,12.5851],[104.0243,12.5897]]]}},{"type":"Feature","properties":{"c":"150203","en":"Kandieng","km":"កណ្ដៀង"},"geometry":{"type":"MultiPolygon","coordinates":[[[[103.9749,12.6203],[103.9881,12.6033],[103.9815,12.5967],[103.9767,12.5973],[103.9759,12.5885],[103.9705,12.5851],[103.9679,12.5863],[103.9643,12.5817],[103.9507,12.5867],[103.9431,12.5963],[103.9539,12.6275],[103.9613,12.6279],[103.9651,12.6253],[103.9749,12.6203]]],[[[103.9693,12.6245],[103.9681,12.6287],[103.9695,12.6355],[103.9727,12.6269],[103.9693,12.6245]]],[[[103.9835,12.6615],[103.9861,12.6741],[103.9931,12.6847],[104.0151,12.7079],[104.0185,12.7097],[104.0223,12.7085],[104.0239,12.7019],[104.0189,12.6941],[104.0135,12.6895],[104.0055,12.6763],[103.9987,12.6761],[104.0007,12.6697],[103.9991,12.6643],[103.9939,12.6593],[103.9949,12.6541],[103.9863,12.6471],[103.9825,12.6369],[103.9771,12.6337],[103.9695,12.6355],[103.9769,12.6463],[103.9835,12.6615]]]]}},{"type":"Feature","properties":{"c":"150204","en":"Kanhchor","km":"កញ្ជរ"},"geometry":{"type":"Polygon","coordinates":[[[104.1327,12.6927],[104.1339,12.6959],[104.1237,12.6951],[104.1091,12.6895],[104.0923,12.6721],[104.0837,12.6797],[104.0727,12.6783],[104.0631,12.6803],[104.0501,12.6639],[104.0383,12.6561],[104.0357,12.6445],[104.0185,12.6385],[104.0079,12.6265],[104.0057,12.6195],[104.0017,12.6185],[103.9977,12.6115],[103.9931,12.6127],[103.9943,12.6089],[103.9977,12.6055],[104.0021,12.6055],[104.0119,12.6101],[104.0151,12.5961],[104.0205,12.5959],[104.0243,12.5897],[104.0467,12.5971],[104.0777,12.5999],[104.0895,12.5987],[104.0925,12.6017],[104.1019,12.6311],[104.1151,12.6537],[104.1281,12.6681],[104.1299,12.6745],[104.1281,12.6863],[104.1327,12.6927]]]}},{"type":"Feature","properties":{"c":"150210","en":"Kaoh Chum","km":"កោះជុំ"},"geometry":{"type":"Polygon","coordinates":[[[103.8997,12.6645],[103.8859,12.6661],[103.8813,12.6445],[103.8849,12.6357],[103.8827,12.6261],[103.8863,12.6201],[103.8835,12.5913],[103.8803,12.5839],[103.8841,12.5757],[103.8851,12.5643],[103.8885,12.5629],[103.9093,12.5679],[103.9173,12.5737],[103.9117,12.5929],[103.9177,12.6027],[103.9085,12.6129],[103.8985,12.6327],[103.8997,12.6645]]]}},{"type":"Feature","properties":{"c":"150205","en":"Reang Til","km":"រាំងទិល"},"geometry":{"type":"MultiPolygon","coordinates":[[[[104.1267,12.7555],[104.1281,12.7521],[104.1247,12.7515],[104.1267,12.7555]]],[[[104.0163,12.7817],[104.0273,12.7827],[104.0341,12.7899],[104.0409,12.7845],[104.0545,12.7847],[104.0595,12.7923],[104.0625,12.7857],[104.0665,12.7837],[104.0817,12.8013],[104.0801,12.8041],[104.0839,12.8067],[104.0885,12.8207],[104.0915,12.8225],[104.0937,12.8189],[104.0909,12.8037],[104.0957,12.7995],[104.0923,12.7927],[104.0953,12.7877],[104.0947,12.7835],[104.1017,12.7819],[104.1201,12.7869],[104.1219,12.7899],[104.1261,12.7881],[104.1261,12.7847],[104.1209,12.7809],[104.1199,12.7741],[104.1105,12.7605],[104.1109,12.7547],[104.1087,12.7513],[104.1089,12.7479],[104.1161,12.7469],[104.1155,12.7397],[104.1261,12.7435],[104.1215,12.7333],[104.1217,12.7209],[104.1121,12.7245],[104.0935,12.7373],[104.0661,12.7709],[104.0485,12.7799],[104.0253,12.7687],[103.9845,12.7755],[103.9367,12.7943],[103.8989,12.8217],[103.8979,12.8299],[103.9097,12.8423],[103.9137,12.8387],[103.9231,12.8457],[103.9265,12.8453],[103.9313,12.8327],[103.9305,12.8259],[103.9335,12.8223],[103.9417,12.8243],[103.9491,12.8299],[103.9519,12.8405],[103.9543,12.8367],[103.9577,12.8119],[103.9893,12.7967],[103.9975,12.8011],[104.0003,12.8087],[104.0025,12.8135],[104.0113,12.7859],[104.0163,12.7817]]],[[[104.0055,12.8135],[104.0025,12.8135],[104.0047,12.8167],[104.0055,12.8135]]]]}},{"type":"Feature","properties":{"c":"150206","en":"Srae Sdok","km":"ស្រែស្ដុក"},"geometry":{"type":"Polygon","coordinates":[[[103.9845,12.7755],[103.9367,12.7943],[103.9355,12.7915],[103.9349,12.7737],[103.9237,12.7605],[103.9247,12.7563],[103.9181,12.7363],[103.9069,12.7237],[103.9083,12.7039],[103.9037,12.6925],[103.9031,12.6735],[103.8981,12.6549],[103.8995,12.6389],[103.9213,12.6273],[103.9313,12.6331],[103.9471,12.6235],[103.9533,12.6231],[103.9539,12.6275],[103.9575,12.6283],[103.9693,12.6245],[103.9695,12.6355],[103.9835,12.6615],[103.9861,12.6741],[103.9959,12.6885],[104.0151,12.7079],[104.0185,12.7097],[104.0223,12.7085],[104.0255,12.7117],[104.0367,12.7345],[104.0541,12.7425],[104.0673,12.7453],[104.0759,12.7575],[104.0661,12.7709],[104.0485,12.7799],[104.0253,12.7687],[103.9845,12.7755]]]}},{"type":"Feature","properties":{"c":"150207","en":"Svay Luong","km":"ស្វាយលួង"},"geometry":{"type":"Polygon","coordinates":[[[103.9533,12.6231],[103.9439,12.6245],[103.9313,12.6331],[103.9213,12.6273],[103.8995,12.6389],[103.8999,12.6287],[103.9085,12.6129],[103.9177,12.6027],[103.9117,12.5929],[103.9173,12.5737],[103.9307,12.5753],[103.9371,12.5733],[103.9441,12.5811],[103.9517,12.5787],[103.9577,12.5841],[103.9475,12.5889],[103.9431,12.5963],[103.9533,12.6231]]]}},{"type":"Feature","properties":{"c":"150208","en":"Sya","km":"ស្យា"},"geometry":{"type":"MultiPolygon","coordinates":[[[[104.0935,12.7373],[104.1121,12.7245],[104.1217,12.7209],[104.1265,12.7259],[104.1281,12.7375],[104.1319,12.7373],[104.1375,12.7431],[104.1393,12.7391],[104.1301,12.7297],[104.1329,12.7255],[104.1219,12.6995],[104.1237,12.6951],[104.1091,12.6895],[104.0923,12.6721],[104.0837,12.6797],[104.0727,12.6783],[104.0631,12.6803],[104.0501,12.6639],[104.0383,12.6561],[104.0357,12.6445],[104.0185,12.6385],[104.0121,12.6327],[104.0057,12.6195],[104.0017,12.6185],[103.9977,12.6115],[103.9931,12.6127],[103.9943,12.6089],[103.9857,12.6073],[103.9693,12.6245],[103.9727,12.6269],[103.9695,12.6355],[103.9771,12.6337],[103.9825,12.6369],[103.9863,12.6471],[103.9949,12.6541],[103.9939,12.6593],[103.9991,12.6643],[104.0007,12.6697],[103.9987,12.6761],[104.0055,12.6763],[104.0135,12.6895],[104.0189,12.6941],[104.0239,12.7019],[104.0223,12.7085],[104.0295,12.7171],[104.0367,12.7345],[104.0541,12.7425],[104.0673,12.7453],[104.0759,12.7575],[104.0935,12.7373]]],[[[104.1427,12.7179],[104.1399,12.7209],[104.1461,12.7247],[104.1467,12.7201],[104.1427,12.7179]]]]}},{"type":"Feature","properties":{"c":"150209","en":"Veal","km":"វាល"},"geometry":{"type":"Polygon","coordinates":[[[103.9371,12.5733],[103.9307,12.5753],[103.9173,12.5737],[103.9159,12.5495],[103.9215,12.5459],[103.9327,12.5575],[103.9385,12.5663],[103.9371,12.5733]]]}}]}