{"type":"FeatureCollection","features":[{"type":"Feature","properties":{"c":"150301","en":"Anlong Tnaot","km":"អន្លង់ត្នោត"},"geometry":{"type":"Polygon","coordinates":[[[104.2101,12.5425],[104.1907,12.5447],[104.1705,12.5525],[104.1589,12.5393],[104.1605,12.5031],[104.1569,12.4875],[104.1397,12.4563],[104.1389,12.4409],[104.1299,12.4111],[104.1323,12.4095],[104.1487,12.4091],[104.1787,12.4027],[104.1891,12.4407],[104.1907,12.4603],[104.2069,12.4923],[104.2111,12.5273],[104.2101,12.5425]]]}},{"type":"Feature","properties":{"c":"150302","en":"Ansa Chambak","km":"អន្សាចំបក់"},"geometry":{"type":"MultiPolygon","coordinates":[[[[104.3235,12.5339],[104.3315,12.5357],[104.3395,12.5279],[104.3449,12.5289],[104.3479,12.5269],[104.3517,12.5197],[104.3561,12.5203],[104.3677,12.5161],[104.3785,12.5083],[104.3867,12.5085],[104.3889,12.4979],[104.3859,12.4821],[104.3811,12.4721],[104.3807,12.4559],[104.3891,12.4367],[104.3873,12.4295],[104.3919,12.4203],[104.3763,12.4165],[104.3697,12.4081],[104.3525,12.3979],[104.3389,12.3553],[104.2601,12.3701],[104.2607,12.4151],[104.2627,12.4247],[104.2677,12.4329],[104.2623,12.4417],[104.2689,12.4583],[104.2687,12.4655],[104.2855,12.4955],[104.2847,12.4997],[104.2903,12.5089],[104.2937,12.5483],[104.2971,12.5543],[104.3205,12.5353],[104.3235,12.5339]]],[[[104.3611,12.5369],[104.3715,12.5313],[104.3847,12.5285],[104.3881,12.5265],[104.3889,12.5223],[104.3775,12.5219],[104.3617,12.5267],[104.3459,12.5407],[104.3531,12.5373],[104.3611,12.5369]]]]}},{"type":"Feature","properties":{"c":"150303","en":"Boeng Kantuot","km":"បឹងកន្ទួត"},"geometry":{"type":"Polygon","coordinates":[[[104.1059,12.5663],[104.0767,12.5651],[104.0665,12.5673],[104.0627,12.5643],[104.0461,12.5645],[104.0207,12.5591],[103.9961,12.5591],[103.9931,12.5543],[103.9923,12.5447],[103.9937,12.5263],[104.0947,12.5293],[104.0955,12.5381],[104.1065,12.5587],[104.1059,12.5663]]]}},{"type":"Feature","properties":{"c":"150304","en":"Chheu Tom","km":"ឈើតុំ"},"geometry":{"type":"Polygon","coordinates":[[[104.1787,12.4027],[104.1633,12.4051],[104.1577,12.3715],[104.1601,12.3611],[104.1581,12.3491],[104.1603,12.3363],[104.1677,12.3147],[104.1633,12.3055],[104.1683,12.2945],[104.1639,12.2719],[104.1647,12.2647],[104.1443,12.2469],[104.1203,12.2345],[104.1593,12.2011],[104.1677,12.1999],[104.1695,12.1969],[104.1731,12.1969],[104.1723,12.2013],[104.1805,12.2415],[104.1909,12.2599],[104.1999,12.2663],[104.2123,12.2843],[104.2207,12.2907],[104.2457,12.2959],[104.2541,12.2951],[104.2639,12.2993],[104.2695,12.3095],[104.2829,12.3217],[104.2961,12.3221],[104.3035,12.3263],[104.3147,12.3275],[104.3153,12.3317],[104.3267,12.3373],[104.3389,12.3553],[104.2547,12.3709],[104.2239,12.3821],[104.2115,12.3895],[104.1787,12.4027]]]}},{"type":"Feature","properties":{"c":"150305","en":"Kampong Luong","km":"កំពង់លួង"},"geometry":{"type":"Polygon","coordinates":[[[104.2083,12.5745],[104.1977,12.5835],[104.1909,12.5933],[104.1831,12.5817],[104.1705,12.5525],[104.1907,12.5447],[104.2101,12.5425],[104.2083,12.5745]]]}},{"type":"Feature","properties":{"c":"150306","en":"Kampong Pou","km":"កំពង់ពោធិ៍"},"geometry":{"type":"Polygon","coordinates":[[[104.1455,12.6945],[104.1437,12.6969],[104.1373,12.6977],[104.1299,12.6903],[104.1281,12.6681],[104.1151,12.6537],[104.1019,12.6311],[104.0925,12.6017],[104.0895,12.5987],[104.0777,12.5999],[104.0467,12.5971],[104.0177,12.5867],[103.9955,12.5671],[103.9931,12.5543],[103.9993,12.5601],[104.0207,12.5591],[104.0461,12.5645],[104.0627,12.5643],[104.0665,12.5673],[104.0767,12.5651],[104.1059,12.5663],[104.1081,12.5797],[104.1137,12.5853],[104.1249,12.6167],[104.1343,12.6295],[104.1407,12.6439],[104.1501,12.6505],[104.1457,12.6575],[104.1543,12.6577],[104.1543,12.6675],[104.1497,12.6761],[104.1557,12.6919],[104.1529,12.6951],[104.1493,12.6929],[104.1455,12.6945]]]}},{"type":"Feature","properties":{"c":"150307","en":"Kbal Trach","km":"ក្បាលត្រាច"},"geometry":{"type":"Polygon","coordinates":[[[104.2937,12.5483],[104.2851,12.5607],[104.2755,12.5559],[104.2699,12.5585],[104.2623,12.5579],[104.2455,12.5697],[104.2415,12.5681],[104.2329,12.5731],[104.2213,12.5735],[104.2163,12.5769],[104.2083,12.5745],[104.2111,12.5273],[104.2069,12.4923],[104.1907,12.4603],[104.1891,12.4407],[104.1787,12.4027],[104.2115,12.3895],[104.2239,12.3821],[104.2601,12.3701],[104.2607,12.4151],[104.2627,12.4247],[104.2677,12.4329],[104.2623,12.4417],[104.2689,12.4583],[104.2687,12.4655],[104.2855,12.4955],[104.2847,12.4997],[104.2903,12.5089],[104.2937,12.5483]]]}},{"type":"Feature","properties":{"c":"150308","en":"Ou Sandan","km":"អូរសណ្ដាន់"},"geometry":{"type":"Polygon","coordinates":[[[104.1629,12.6387],[104.1501,12.6505],[104.1427,12.6463],[104.1231,12.6131],[104.1137,12.5853],[104.1081,12.5797],[104.1065,12.5587],[104.0955,12.5381],[104.0937,12.5191],[104.0955,12.5127],[104.0875,12.4671],[104.0761,12.4345],[104.0771,12.4197],[104.0815,12.4119],[104.1027,12.4065],[104.1091,12.4389],[104.1163,12.4493],[104.1195,12.4601],[104.1151,12.4943],[104.1215,12.5079],[104.1291,12.5443],[104.1431,12.5757],[104.1469,12.5937],[104.1611,12.6121],[104.1629,12.6387]]]}},{"type":"Feature","properties":{"c":"150309","en":"Sna Ansa","km":"ស្នាអន្សា"},"geometry":{"type":"Polygon","coordinates":[[[104.1859,12.6043],[104.1741,12.6269],[104.1731,12.6377],[104.1705,12.6409],[104.1629,12.6387],[104.1611,12.6121],[104.1469,12.5937],[104.1431,12.5757],[104.1291,12.5443],[104.1215,12.5079],[104.1151,12.4943],[104.1195,12.4601],[104.1163,12.4493],[104.1091,12.4389],[104.1027,12.4065],[104.1299,12.4111],[104.1389,12.4409],[104.1397,12.4563],[104.1569,12.4875],[104.1605,12.5031],[104.1589,12.5393],[104.1687,12.5491],[104.1765,12.5629],[104.1831,12.5817],[104.1909,12.5933],[104.1893,12.6023],[104.1859,12.6043]]]}},{"type":"Feature","properties":{"c":"150310","en":"Svay Sa","km":"ស្វាយស"},"geometry":{"type":"Polygon","coordinates":[[[104.1027,12.4065],[104.0815,12.4119],[104.0733,12.3965],[104.0673,12.3711],[104.0587,12.3603],[104.0551,12.3409],[104.0443,12.3249],[104.0271,12.3127],[104.0387,12.3099],[104.0423,12.3035],[104.0573,12.3019],[104.0569,12.2983],[104.0605,12.2965],[104.0687,12.2743],[104.0751,12.2655],[104.0947,12.2489],[104.0989,12.2501],[104.1203,12.2345],[104.1443,12.2469],[104.1647,12.2647],[104.1639,12.2719],[104.1683,12.2945],[104.1633,12.3055],[104.1677,12.3147],[104.1603,12.3363],[104.1581,12.3491],[104.1601,12.3611],[104.1577,12.3715],[104.1633,12.4051],[104.1299,12.4111],[104.1027,12.4065]]]}},{"type":"Feature","properties":{"c":"150311","en":"Tnaot Chum","km":"ត្នោតជុំ"},"geometry":{"type":"Polygon","coordinates":[[[104.0815,12.4119],[104.0771,12.4197],[104.0761,12.4345],[104.0875,12.4671],[104.0955,12.5127],[104.0937,12.5191],[104.0947,12.5293],[103.9937,12.5263],[104.0077,12.5003],[104.0079,12.4849],[104.0157,12.4801],[104.0177,12.4763],[104.0149,12.4681],[103.9965,12.4537],[103.9957,12.4467],[104.0039,12.4295],[104.0071,12.4141],[103.9969,12.3889],[104.0007,12.3823],[104.0065,12.3781],[104.0135,12.3523],[104.0293,12.3411],[104.0271,12.3127],[104.0443,12.3249],[104.0551,12.3409],[104.0587,12.3603],[104.0673,12.3711],[104.0733,12.3965],[104.0815,12.4119]]]}}]}