{"type":"FeatureCollection","features":[{"type":"Feature","properties":{"c":"150401","en":"Bak Chenhchien","km":"បាក់ចិញ្ចៀន"},"geometry":{"type":"Polygon","coordinates":[[[103.7695,12.5047],[103.7581,12.5091],[103.7523,12.4883],[103.7521,12.4847],[103.7725,12.4605],[103.7691,12.4533],[103.7583,12.4479],[103.7517,12.4139],[103.7645,12.4093],[103.7893,12.4103],[103.7923,12.4121],[103.7927,12.4165],[103.7811,12.4251],[103.7839,12.4279],[103.7991,12.4257],[103.8083,12.4325],[103.8077,12.4369],[103.7991,12.4455],[103.8015,12.4511],[103.8081,12.4547],[103.8097,12.4581],[103.8073,12.4613],[103.8001,12.4579],[103.7965,12.4595],[103.7949,12.4631],[103.7971,12.4671],[103.8033,12.4701],[103.8041,12.4733],[103.7905,12.4843],[103.7903,12.4925],[103.7695,12.5047]]]}},{"type":"Feature","properties":{"c":"150402","en":"Leach","km":"លាច"},"geometry":{"type":"Polygon","coordinates":[[[103.7611,12.3859],[103.7517,12.3761],[103.7515,12.3729],[103.7587,12.3629],[103.7559,12.3609],[103.7497,12.3639],[103.7475,12.3603],[103.7495,12.3563],[103.7543,12.3565],[103.7531,12.3497],[103.7609,12.3505],[103.7625,12.3457],[103.7817,12.3511],[103.7993,12.3479],[103.8061,12.3417],[103.8135,12.3411],[103.8223,12.3309],[103.8327,12.3271],[103.8295,12.3367],[103.8225,12.3443],[103.8095,12.3493],[103.7949,12.3591],[103.7927,12.3671],[103.7717,12.3935],[103.7653,12.3913],[103.7653,12.3865],[103.7683,12.3869],[103.7697,12.3839],[103.7685,12.3807],[103.7655,12.3813],[103.7653,12.3865],[103.7611,12.3859]]]}},{"type":"Feature","properties":{"c":"150403","en":"Phteah Rung","km":"ផ្ទះរុង"},"geometry":{"type":"Polygon","coordinates":[[[103.7581,12.5091],[103.7433,12.5175],[103.7379,12.5171],[103.7355,12.5145],[103.7377,12.5017],[103.7339,12.4899],[103.7225,12.4823],[103.7049,12.4793],[103.6999,12.4755],[103.6901,12.4645],[103.6891,12.4447],[103.6811,12.4351],[103.6725,12.4305],[103.6677,12.4249],[103.6543,12.4209],[103.5677,12.3803],[103.5995,12.3651],[103.6215,12.3583],[103.6433,12.3609],[103.6463,12.3673],[103.6605,12.3689],[103.6693,12.3687],[103.6713,12.3603],[103.6887,12.3651],[103.7215,12.3635],[103.7517,12.4139],[103.7583,12.4479],[103.7691,12.4533],[103.7725,12.4605],[103.7521,12.4847],[103.7581,12.5091]]]}},{"type":"Feature","properties":{"c":"150404","en":"Prongil","km":"ព្រងិល"},"geometry":{"type":"Polygon","coordinates":[[[103.8549,12.4365],[103.8437,12.4455],[103.8417,12.4423],[103.8317,12.4449],[103.8249,12.4527],[103.8097,12.4581],[103.8081,12.4547],[103.8015,12.4511],[103.7991,12.4455],[103.8077,12.4369],[103.8083,12.4325],[103.7991,12.4257],[103.7839,12.4279],[103.7811,12.4251],[103.7927,12.4165],[103.7923,12.4121],[103.7817,12.4095],[103.7819,12.4011],[103.7765,12.3949],[103.7717,12.3935],[103.7927,12.3671],[103.7949,12.3591],[103.8255,12.3417],[103.8367,12.3207],[103.8443,12.3163],[103.8589,12.3135],[103.8843,12.2391],[103.8879,12.2219],[103.8943,12.2129],[103.8929,12.1987],[103.8983,12.2001],[103.8987,12.1967],[103.9021,12.1965],[103.9063,12.1899],[103.9057,12.1841],[103.9143,12.1799],[103.9155,12.1761],[103.9131,12.1735],[103.9235,12.1711],[103.9297,12.1655],[103.9269,12.1571],[103.9325,12.1529],[103.9245,12.1335],[103.9245,12.1159],[103.9305,12.1101],[103.9349,12.1113],[103.9373,12.0975],[103.9443,12.0957],[103.9431,12.0923],[103.9493,12.0883],[103.9481,12.0843],[103.9437,12.0825],[103.9439,12.0791],[103.9485,12.0779],[103.9447,12.0727],[103.9483,12.0669],[103.9513,12.0675],[103.9527,12.0635],[103.9559,12.0639],[103.9539,12.0567],[103.9609,12.0493],[103.9615,12.0427],[103.9717,12.0313],[103.9743,12.0209],[103.9813,12.0171],[103.9821,12.0045],[103.9855,12.0029],[103.9851,11.9909],[103.9887,11.9835],[103.9987,11.9681],[104.0099,11.9577],[104.0153,11.9299],[104.0215,11.9195],[104.0221,11.9043],[104.0435,11.9215],[104.0523,11.9203],[104.0621,11.9235],[104.0633,11.9273],[104.0561,11.9477],[104.0505,11.9557],[104.0579,11.9685],[104.0729,11.9689],[104.0763,11.9763],[104.0741,11.9813],[104.0779,11.9847],[104.0811,11.9853],[104.0871,11.9817],[104.0971,12.0207],[104.0951,12.0387],[104.1025,12.0377],[104.1141,12.0471],[104.1251,12.0477],[104.1391,12.0427],[104.1433,12.0437],[104.1493,12.0507],[104.1609,12.0497],[104.1761,12.0387],[104.1827,12.0393],[104.1813,12.0511],[104.1831,12.0559],[104.1905,12.0705],[104.1993,12.0767],[104.2001,12.0805],[104.1969,12.0951],[104.1901,12.1045],[104.1861,12.1059],[104.1845,12.1637],[104.1817,12.1697],[104.1719,12.1761],[104.1711,12.1797],[104.1715,12.1871],[104.1763,12.1947],[104.1695,12.1969],[104.1677,12.1999],[104.1593,12.2011],[104.1203,12.2345],[104.0989,12.2501],[104.0947,12.2489],[104.0751,12.2655],[104.0687,12.2743],[104.0605,12.2965],[104.0569,12.2983],[104.0573,12.3019],[104.0423,12.3035],[104.0387,12.3099],[104.0271,12.3127],[104.0293,12.3411],[104.0135,12.3523],[104.0065,12.3781],[104.0007,12.3823],[103.9969,12.3889],[103.9843,12.3727],[103.9751,12.3545],[103.9641,12.3535],[103.9615,12.3559],[103.9601,12.3721],[103.9507,12.3883],[103.9507,12.3983],[103.9431,12.4069],[103.9351,12.4095],[103.9335,12.4059],[103.9065,12.3827],[103.8935,12.3807],[103.8897,12.3841],[103.8901,12.3883],[103.8731,12.3959],[103.8679,12.4143],[103.8549,12.4365]]]}},{"type":"Feature","properties":{"c":"150405","en":"Rokat","km":"រកាត"},"geometry":{"type":"Polygon","coordinates":[[[103.7743,12.3489],[103.7625,12.3457],[103.7609,12.3505],[103.7473,12.3465],[103.7435,12.3497],[103.7393,12.3485],[103.7379,12.3449],[103.7437,12.3431],[103.7415,12.3345],[103.7451,12.3329],[103.7409,12.3283],[103.7403,12.3209],[103.7341,12.3209],[103.7347,12.3167],[103.7311,12.3149],[103.7335,12.3119],[103.7305,12.3111],[103.7313,12.3073],[103.7351,12.3091],[103.7363,12.3055],[103.7331,12.2995],[103.7189,12.2973],[103.7113,12.2923],[103.7101,12.2883],[103.7109,12.2855],[103.7187,12.2835],[103.7177,12.2797],[103.7211,12.2755],[103.7231,12.2645],[103.7207,12.2621],[103.7223,12.2587],[103.7117,12.2511],[103.7153,12.2405],[103.7065,12.2301],[103.7047,12.2213],[103.6937,12.2185],[103.6837,12.2203],[103.6805,12.2187],[103.6795,12.2137],[103.6753,12.2143],[103.6709,12.2081],[103.6595,12.1999],[103.6459,12.1971],[103.6275,12.1819],[103.6195,12.1799],[103.5949,12.1843],[103.5881,12.1777],[103.5717,12.1747],[103.5461,12.1633],[103.5239,12.1313],[103.5219,12.1257],[103.5247,12.1209],[103.5223,12.1171],[103.5087,12.1059],[103.5231,12.0977],[103.5303,12.0985],[103.5379,12.0949],[103.5403,12.0913],[103.5365,12.0857],[103.5385,12.0835],[103.5577,12.0723],[103.5633,12.0663],[103.5669,12.0667],[103.5727,12.0569],[103.5841,12.0531],[103.5909,12.0411],[103.6007,12.0333],[103.6067,12.0235],[103.6125,12.0195],[103.6329,12.0143],[103.6369,12.0073],[103.6361,12.0029],[103.6289,11.9955],[103.6381,11.9853],[103.6439,11.9861],[103.6499,11.9835],[103.6499,11.9805],[103.6553,11.9755],[103.6633,11.9737],[103.6765,11.9657],[103.6955,11.9643],[103.6995,11.9567],[103.7003,11.9479],[103.6957,11.9411],[103.7091,11.9355],[103.7115,11.9309],[103.7225,11.9281],[103.7319,11.9353],[103.7427,11.9393],[103.7557,11.9271],[103.7621,11.9255],[103.7725,11.9333],[103.7875,11.9321],[103.7965,11.9237],[103.8007,11.9117],[103.8077,11.9081],[103.8143,11.9005],[103.8153,11.8957],[103.8309,11.8799],[103.8383,11.8667],[103.8405,11.8575],[103.8527,11.8495],[103.8569,11.8435],[103.8599,11.8433],[103.8683,11.8497],[103.8747,11.8493],[103.8755,11.8573],[103.8733,11.8607],[103.8751,11.8641],[103.8581,11.8753],[103.8519,11.8855],[103.8447,11.9141],[103.8391,11.9249],[103.8383,11.9289],[103.8417,11.9361],[103.8343,11.9405],[103.8387,11.9573],[103.8341,11.9699],[103.8343,11.9763],[103.8305,11.9781],[103.8361,11.9969],[103.8247,12.0097],[103.8247,12.0219],[103.8183,12.0443],[103.8093,12.0569],[103.8123,12.0647],[103.8113,12.0721],[103.8087,12.0739],[103.8083,12.0859],[103.8119,12.0929],[103.8079,12.1007],[103.8083,12.1077],[103.8035,12.1213],[103.8041,12.1375],[103.7997,12.1421],[103.7963,12.1585],[103.7895,12.1619],[103.7895,12.1685],[103.7785,12.1825],[103.7899,12.2243],[103.7951,12.2309],[103.7897,12.2423],[103.7917,12.2577],[103.7851,12.2775],[103.7663,12.3051],[103.7699,12.3127],[103.7679,12.3187],[103.7697,12.3211],[103.7631,12.3275],[103.7665,12.3293],[103.7743,12.3489]]]}},{"type":"Feature","properties":{"c":"150407","en":"Samraong","km":"សំរោង"},"geometry":{"type":"MultiPolygon","coordinates":[[[[103.7611,12.3859],[103.7517,12.3761],[103.7515,12.3729],[103.7587,12.3629],[103.7559,12.3609],[103.7497,12.3639],[103.7475,12.3603],[103.7495,12.3563],[103.7543,12.3565],[103.7531,12.3497],[103.7473,12.3465],[103.7435,12.3497],[103.7393,12.3485],[103.7379,12.3449],[103.7437,12.3431],[103.7415,12.3345],[103.7451,12.3329],[103.7409,12.3283],[103.7403,12.3209],[103.7341,12.3209],[103.7347,12.3167],[103.7311,12.3149],[103.7335,12.3119],[103.7305,12.3111],[103.7313,12.3073],[103.7351,12.3091],[103.7363,12.3055],[103.7331,12.2995],[103.7189,12.2973],[103.7113,12.2923],[103.7109,12.2855],[103.7187,12.2835],[103.7177,12.2797],[103.7211,12.2755],[103.7231,12.2645],[103.7207,12.2621],[103.7223,12.2587],[103.7117,12.2511],[103.7153,12.2405],[103.7065,12.2301],[103.7047,12.2213],[103.6937,12.2185],[103.6837,12.2203],[103.6805,12.2187],[103.6795,12.2137],[103.6753,12.2143],[103.6709,12.2081],[103.6595,12.1999],[103.6459,12.1971],[103.6275,12.1819],[103.6195,12.1799],[103.5949,12.1843],[103.5881,12.1777],[103.5717,12.1747],[103.5461,12.1633],[103.5239,12.1313],[103.5219,12.1257],[103.5247,12.1209],[103.5223,12.1171],[103.5087,12.1059],[103.5097,12.1175],[103.5005,12.1315],[103.5083,12.1463],[103.5145,12.1531],[103.5155,12.1579],[103.5155,12.1631],[103.5103,12.1739],[103.5187,12.2067],[103.5147,12.2123],[103.5179,12.2195],[103.5221,12.2193],[103.5233,12.2329],[103.5195,12.2351],[103.5297,12.2465],[103.5269,12.2577],[103.5289,12.2599],[103.5291,12.2815],[103.5259,12.2831],[103.5283,12.2889],[103.5319,12.2907],[103.5243,12.2983],[103.5123,12.3025],[103.5093,12.3159],[103.5095,12.3303],[103.5031,12.3353],[103.5015,12.3431],[103.4961,12.3481],[103.4925,12.3589],[103.4907,12.3717],[103.4839,12.3897],[103.4861,12.4017],[103.4937,12.4147],[103.4887,12.4223],[103.4901,12.4277],[103.4827,12.4307],[103.4685,12.4503],[103.4787,12.4659],[103.4709,12.4889],[103.4675,12.4925],[103.4693,12.4971],[103.4727,12.4995],[103.4759,12.4985],[103.4847,12.4915],[103.5219,12.4315],[103.5555,12.3913],[103.5715,12.3777],[103.5995,12.3651],[103.6215,12.3583],[103.6433,12.3609],[103.6463,12.3673],[103.6605,12.3689],[103.6693,12.3687],[103.6713,12.3603],[103.6887,12.3651],[103.7215,12.3635],[103.7517,12.4139],[103.7645,12.4093],[103.7753,12.4111],[103.7779,12.4089],[103.7817,12.4095],[103.7819,12.4011],[103.7797,12.3977],[103.7653,12.3913],[103.7653,12.3865],[103.7611,12.3859]]],[[[103.7683,12.3869],[103.7685,12.3807],[103.7655,12.3813],[103.7653,12.3865],[103.7683,12.3869]]]]}},{"type":"Feature","properties":{"c":"150406","en":"Santreae","km":"សន្ទ្រែ"},"geometry":{"type":"Polygon","coordinates":[[[103.8327,12.3271],[103.8223,12.3309],[103.8135,12.3411],[103.8061,12.3417],[103.7993,12.3479],[103.7851,12.3511],[103.7743,12.3489],[103.7665,12.3293],[103.7631,12.3275],[103.7697,12.3211],[103.7679,12.3187],[103.7699,12.3127],[103.7663,12.3051],[103.7677,12.3011],[103.7839,12.2803],[103.7917,12.2577],[103.7897,12.2423],[103.7951,12.2309],[103.7899,12.2243],[103.7785,12.1825],[103.7895,12.1685],[103.7895,12.1619],[103.7963,12.1585],[103.7997,12.1421],[103.8041,12.1375],[103.8035,12.1213],[103.8083,12.1077],[103.8079,12.1007],[103.8119,12.0929],[103.8083,12.0859],[103.8087,12.0739],[103.8113,12.0721],[103.8123,12.0647],[103.8093,12.0569],[103.8183,12.0443],[103.8247,12.0219],[103.8247,12.0097],[103.8361,11.9969],[103.8305,11.9781],[103.8343,11.9763],[103.8341,11.9699],[103.8387,11.9573],[103.8343,11.9405],[103.8417,11.9361],[103.8383,11.9289],[103.8391,11.9249],[103.8447,11.9141],[103.8519,11.8855],[103.8581,11.8753],[103.8751,11.8641],[103.8923,11.8849],[103.9139,11.8909],[103.9213,11.8987],[103.9165,11.9117],[103.9179,11.9307],[103.9351,11.9357],[103.9429,11.9437],[103.9639,11.9357],[103.9737,11.9359],[103.9785,11.9311],[103.9807,11.9219],[103.9917,11.9029],[104.0197,11.9013],[104.0221,11.9043],[104.0223,11.9155],[104.0153,11.9299],[104.0099,11.9577],[103.9987,11.9681],[103.9887,11.9835],[103.9851,11.9909],[103.9855,12.0029],[103.9821,12.0045],[103.9813,12.0171],[103.9743,12.0209],[103.9717,12.0313],[103.9615,12.0427],[103.9609,12.0493],[103.9539,12.0567],[103.9559,12.0639],[103.9527,12.0635],[103.9513,12.0675],[103.9483,12.0669],[103.9447,12.0727],[103.9485,12.0779],[103.9439,12.0791],[103.9437,12.0825],[103.9481,12.0843],[103.9493,12.0883],[103.9431,12.0923],[103.9443,12.0957],[103.9373,12.0975],[103.9349,12.1113],[103.9305,12.1101],[103.9245,12.1159],[103.9245,12.1335],[103.9325,12.1529],[103.9269,12.1571],[103.9297,12.1655],[103.9235,12.1711],[103.9131,12.1735],[103.9155,12.1761],[103.9143,12.1799],[103.9057,12.1841],[103.9063,12.1899],[103.9021,12.1965],[103.8987,12.1967],[103.8983,12.2001],[103.8929,12.1987],[103.8943,12.2129],[103.8879,12.2219],[103.8843,12.2391],[103.8589,12.3135],[103.8443,12.3163],[103.8367,12.3207],[103.8327,12.3271]]]}}]}