{"type":"FeatureCollection","features":[{"type":"Feature","properties":{"c":"150508","en":"Banteay Dei","km":"សង្កាត់បន្ទាយដី"},"geometry":{"type":"Polygon","coordinates":[[[103.9931,12.5543],[103.9559,12.5561],[103.9513,12.5523],[103.9383,12.5575],[103.9327,12.5575],[103.9227,12.5491],[103.9215,12.5387],[103.9927,12.5349],[103.9931,12.5543]]]}},{"type":"Feature","properties":{"c":"150501","en":"Chamraeun Phal","km":"សង្កាត់ចំរើនផល"},"geometry":{"type":"Polygon","coordinates":[[[103.9079,12.5063],[103.9045,12.5067],[103.8979,12.5017],[103.8797,12.5035],[103.8757,12.5061],[103.8711,12.5061],[103.8661,12.5019],[103.8569,12.5061],[103.8473,12.5025],[103.8343,12.5039],[103.8235,12.4981],[103.8213,12.4885],[103.8129,12.4899],[103.8081,12.4877],[103.8077,12.4817],[103.8121,12.4801],[103.8135,12.4767],[103.8115,12.4737],[103.8041,12.4733],[103.8033,12.4701],[103.7971,12.4671],[103.7949,12.4631],[103.8001,12.4579],[103.8073,12.4613],[103.8097,12.4581],[103.8249,12.4527],[103.8317,12.4449],[103.8417,12.4423],[103.8437,12.4455],[103.8549,12.4365],[103.8935,12.4619],[103.8987,12.4675],[103.8947,12.4803],[103.9061,12.4903],[103.9079,12.5063]]]}},{"type":"Feature","properties":{"c":"150503","en":"Lolok Sa","km":"សង្កាត់លលកស"},"geometry":{"type":"Polygon","coordinates":[[[103.9143,12.5345],[103.9077,12.5371],[103.8931,12.5183],[103.8683,12.5197],[103.8651,12.5257],[103.8613,12.5237],[103.8483,12.5257],[103.8341,12.5315],[103.7947,12.5285],[103.7909,12.5263],[103.7873,12.5191],[103.7905,12.4843],[103.8013,12.4739],[103.8115,12.4737],[103.8135,12.4767],[103.8121,12.4801],[103.8077,12.4817],[103.8081,12.4877],[103.8129,12.4899],[103.8213,12.4885],[103.8235,12.4981],[103.8343,12.5039],[103.8473,12.5025],[103.8569,12.5061],[103.8661,12.5019],[103.8711,12.5061],[103.8757,12.5061],[103.8797,12.5035],[103.8979,12.5017],[103.9045,12.5067],[103.9079,12.5063],[103.9089,12.5139],[103.9145,12.5167],[103.9161,12.5201],[103.9143,12.5243],[103.9185,12.5319],[103.9143,12.5345]]]}},{"type":"Feature","properties":{"c":"150504","en":"Phteah Prey","km":"សង្កាត់ផ្ទះព្រៃ"},"geometry":{"type":"Polygon","coordinates":[[[103.9215,12.5459],[103.9159,12.5495],[103.9173,12.5737],[103.9093,12.5679],[103.8885,12.5629],[103.8851,12.5643],[103.8835,12.5721],[103.8749,12.5579],[103.8743,12.5511],[103.9185,12.5319],[103.9213,12.5349],[103.9215,12.5459]]]}},{"type":"Feature","properties":{"c":"150505","en":"Prey Nhi","km":"សង្កាត់ព្រៃញី"},"geometry":{"type":"Polygon","coordinates":[[[103.9927,12.5349],[103.9215,12.5387],[103.9185,12.5319],[103.9899,12.5261],[103.9937,12.5263],[103.9927,12.5349]]]}},{"type":"Feature","properties":{"c":"150506","en":"Roleab","km":"សង្កាត់រលាប"},"geometry":{"type":"Polygon","coordinates":[[[103.9937,12.5263],[103.9301,12.5295],[103.9185,12.5319],[103.9143,12.5243],[103.9161,12.5201],[103.9145,12.5167],[103.9089,12.5139],[103.9061,12.4903],[103.8947,12.4803],[103.8987,12.4675],[103.8935,12.4619],[103.8549,12.4365],[103.8679,12.4143],[103.8731,12.3959],[103.8901,12.3883],[103.8897,12.3841],[103.8935,12.3807],[103.8987,12.3801],[103.9099,12.3853],[103.9351,12.4095],[103.9389,12.4087],[103.9457,12.4047],[103.9507,12.3983],[103.9507,12.3883],[103.9601,12.3721],[103.9615,12.3559],[103.9673,12.3527],[103.9751,12.3545],[103.9843,12.3727],[103.9969,12.3889],[104.0065,12.4099],[104.0053,12.4253],[103.9957,12.4467],[103.9965,12.4537],[104.0149,12.4681],[104.0177,12.4763],[104.0157,12.4801],[104.0079,12.4849],[104.0077,12.5003],[103.9937,12.5263]]]}},{"type":"Feature","properties":{"c":"150507","en":"Svay At","km":"សង្កាត់ស្វាយអាត់"},"geometry":{"type":"Polygon","coordinates":[[[103.9077,12.5371],[103.8743,12.5511],[103.8721,12.5389],[103.8651,12.5257],[103.8659,12.5219],[103.8737,12.5187],[103.8931,12.5183],[103.9077,12.5371]]]}}]}