{"type":"FeatureCollection","features":[{"type":"Feature","properties":{"c":"150603","en":"Anlong Reab","km":"អន្លង់រាប"},"geometry":{"type":"Polygon","coordinates":[[[103.0609,12.4125],[103.0373,12.4113],[103.0319,12.4161],[103.0075,12.4273],[102.9903,12.4425],[102.9747,12.4509],[102.9549,12.4429],[102.9471,12.4333],[102.9427,12.4315],[102.9241,12.4345],[102.9125,12.4289],[102.9067,12.4333],[102.9031,12.4321],[102.8945,12.4207],[102.8831,12.4123],[102.8815,12.4079],[102.8771,12.4071],[102.8735,12.3983],[102.8705,12.3975],[102.8531,12.4037],[102.8475,12.4091],[102.8361,12.4117],[102.8205,12.3927],[102.8175,12.3857],[102.8189,12.3769],[102.8309,12.3697],[102.8445,12.3671],[102.8533,12.3597],[102.8551,12.3511],[102.8631,12.3393],[102.8707,12.2845],[102.8687,12.2367],[102.8873,12.2305],[102.8951,12.2213],[102.9029,12.2147],[102.9101,12.2121],[102.9121,12.2085],[102.9137,12.1809],[102.9165,12.1787],[102.9173,12.1701],[102.9229,12.1559],[102.9351,12.1471],[102.9303,12.1407],[102.9297,12.1339],[102.9323,12.1269],[102.9313,12.1139],[102.9367,12.0935],[102.9473,12.0827],[102.9649,12.1065],[102.9603,12.1211],[102.9667,12.1303],[102.9685,12.1375],[102.9739,12.1431],[102.9759,12.1555],[102.9987,12.1623],[103.0181,12.1719],[103.0395,12.1633],[103.0463,12.1693],[103.0533,12.1825],[103.0605,12.1881],[103.0691,12.2009],[103.0663,12.2083],[103.0709,12.2225],[103.0685,12.2387],[103.0703,12.2503],[103.0777,12.2651],[103.0755,12.2673],[103.0753,12.2753],[103.0789,12.2735],[103.0855,12.2767],[103.0773,12.2851],[103.0749,12.2927],[103.0729,12.3597],[103.0639,12.3691],[103.0563,12.3827],[103.0585,12.3933],[103.0669,12.4025],[103.0609,12.4125]]]}},{"type":"Feature","properties":{"c":"150602","en":"Krapeu Pir","km":"ក្រពើពីរ"},"geometry":{"type":"Polygon","coordinates":[[[103.3857,12.5579],[103.3697,12.5505],[103.3619,12.5523],[103.3601,12.5603],[103.3279,12.5677],[103.3247,12.5667],[103.3277,12.5605],[103.3145,12.5587],[103.3073,12.5603],[103.3035,12.5585],[103.3019,12.5461],[103.2859,12.5497],[103.2813,12.5429],[103.2715,12.5409],[103.2683,12.5341],[103.2555,12.5285],[103.2481,12.5197],[103.2309,12.5265],[103.2231,12.5249],[103.2071,12.5113],[103.1829,12.5049],[103.1597,12.4813],[103.1557,12.4813],[103.1407,12.4895],[103.1367,12.4887],[103.1359,12.4849],[103.1283,12.4827],[103.1053,12.4681],[103.1033,12.4637],[103.0831,12.4645],[103.0723,12.4597],[103.0711,12.4401],[103.0667,12.4375],[103.0225,12.4475],[103.0085,12.4747],[102.9989,12.4847],[102.9957,12.4847],[102.9823,12.4723],[102.9737,12.4577],[102.9747,12.4509],[102.9903,12.4425],[103.0075,12.4273],[103.0319,12.4161],[103.0373,12.4113],[103.0609,12.4125],[103.0907,12.4191],[103.1123,12.4121],[103.1187,12.4135],[103.1353,12.4103],[103.1667,12.4131],[103.1859,12.4093],[103.2031,12.4019],[103.2241,12.3879],[103.2879,12.3843],[103.3229,12.3757],[103.3659,12.3763],[103.3811,12.3697],[103.3885,12.3697],[103.4057,12.3753],[103.4275,12.3693],[103.4411,12.3695],[103.4647,12.3591],[103.4773,12.3483],[103.4913,12.3281],[103.5105,12.3247],[103.5095,12.3303],[103.5031,12.3353],[103.5015,12.3431],[103.4961,12.3481],[103.4839,12.3897],[103.4861,12.4017],[103.4937,12.4147],[103.4887,12.4223],[103.4901,12.4277],[103.4827,12.4307],[103.4685,12.4503],[103.4787,12.4659],[103.4785,12.4707],[103.4675,12.4925],[103.4727,12.4995],[103.4719,12.5027],[103.4609,12.5237],[103.4467,12.5383],[103.3997,12.5581],[103.3931,12.5597],[103.3857,12.5579]]]}},{"type":"Feature","properties":{"c":"150601","en":"Ou Saom","km":"អូរសោម"},"geometry":{"type":"Polygon","coordinates":[[[103.5195,12.2351],[103.5151,12.2347],[103.5101,12.2383],[103.5041,12.2373],[103.4889,12.2257],[103.4705,12.2307],[103.4623,12.2363],[103.4257,12.2503],[103.4037,12.2435],[103.3961,12.2479],[103.3857,12.2463],[103.3519,12.2485],[103.3213,12.2589],[103.2673,12.2635],[103.2493,12.2677],[103.2273,12.2579],[103.2213,12.2515],[103.2203,12.2341],[103.2119,12.2365],[103.1981,12.2303],[103.1881,12.2141],[103.1865,12.2015],[103.1841,12.1981],[103.1647,12.1983],[103.1625,12.1965],[103.1613,12.1875],[103.1555,12.1809],[103.1423,12.1757],[103.1299,12.1609],[103.1221,12.1563],[103.1061,12.1529],[103.0985,12.1539],[103.0633,12.1411],[103.0541,12.1419],[103.0435,12.1481],[103.0395,12.1633],[103.0181,12.1719],[102.9987,12.1623],[102.9759,12.1555],[102.9739,12.1431],[102.9685,12.1375],[102.9667,12.1303],[102.9603,12.1211],[102.9649,12.1065],[102.9473,12.0827],[102.9483,12.0789],[102.9555,12.0657],[102.9615,12.0597],[102.9855,12.0471],[102.9973,12.0369],[103.0107,12.0313],[103.0045,12.0171],[103.0037,11.9941],[103.1199,11.9457],[103.1401,11.9443],[103.1525,11.9479],[103.1597,11.9443],[103.1665,11.9457],[103.1713,11.9497],[103.1743,11.9487],[103.1851,11.9525],[103.1943,11.9621],[103.1987,11.9635],[103.2193,11.9603],[103.2231,11.9569],[103.2295,11.9631],[103.2285,11.9689],[103.2313,11.9759],[103.2447,11.9767],[103.2525,11.9739],[103.2571,11.9781],[103.2579,11.9829],[103.2633,11.9841],[103.2681,11.9885],[103.2731,11.9885],[103.2893,11.9805],[103.2977,11.9853],[103.3113,11.9859],[103.3161,11.9935],[103.3195,12.0087],[103.3289,12.0169],[103.3413,12.0223],[103.3467,12.0275],[103.3627,12.0305],[103.3611,12.0443],[103.3643,12.0597],[103.3741,12.0699],[103.3849,12.0705],[103.3865,12.0735],[103.3827,12.0763],[103.3849,12.0815],[103.3809,12.0891],[103.3839,12.0925],[103.3821,12.0959],[103.3917,12.1073],[103.3989,12.1091],[103.4033,12.1041],[103.4111,12.1025],[103.4157,12.0965],[103.4325,12.0873],[103.4589,12.1015],[103.4715,12.1161],[103.4755,12.1157],[103.4865,12.1061],[103.4897,12.0997],[103.5087,12.1059],[103.5097,12.1175],[103.5005,12.1315],[103.5083,12.1463],[103.5145,12.1531],[103.5155,12.1579],[103.5155,12.1631],[103.5103,12.1739],[103.5187,12.2067],[103.5147,12.2123],[103.5155,12.2163],[103.5179,12.2195],[103.5221,12.2193],[103.5231,12.2253],[103.5233,12.2329],[103.5195,12.2351]]]}},{"type":"Feature","properties":{"c":"150604","en":"Pramaoy","km":"ប្រម៉ោយ"},"geometry":{"type":"Polygon","coordinates":[[[103.5105,12.3247],[103.4913,12.3281],[103.4773,12.3483],[103.4647,12.3591],[103.4411,12.3695],[103.4275,12.3693],[103.4057,12.3753],[103.3885,12.3697],[103.3811,12.3697],[103.3659,12.3763],[103.3229,12.3757],[103.2879,12.3843],[103.2241,12.3879],[103.2031,12.4019],[103.1859,12.4093],[103.1667,12.4131],[103.1353,12.4103],[103.1187,12.4135],[103.1123,12.4121],[103.0907,12.4191],[103.0609,12.4125],[103.0669,12.4025],[103.0585,12.3933],[103.0563,12.3827],[103.0639,12.3691],[103.0729,12.3597],[103.0749,12.2927],[103.0773,12.2851],[103.0855,12.2767],[103.0789,12.2735],[103.0753,12.2753],[103.0755,12.2673],[103.0777,12.2651],[103.0703,12.2503],[103.0685,12.2387],[103.0709,12.2225],[103.0663,12.2083],[103.0691,12.2009],[103.0605,12.1881],[103.0533,12.1825],[103.0463,12.1693],[103.0395,12.1633],[103.0435,12.1481],[103.0509,12.1429],[103.0633,12.1411],[103.0985,12.1539],[103.1061,12.1529],[103.1261,12.1583],[103.1423,12.1757],[103.1555,12.1809],[103.1613,12.1875],[103.1625,12.1965],[103.1647,12.1983],[103.1841,12.1981],[103.1865,12.2015],[103.1881,12.2141],[103.1981,12.2303],[103.2119,12.2365],[103.2203,12.2341],[103.2213,12.2515],[103.2273,12.2579],[103.2493,12.2677],[103.2673,12.2635],[103.3213,12.2589],[103.3519,12.2485],[103.3857,12.2463],[103.3961,12.2479],[103.4037,12.2435],[103.4257,12.2503],[103.4623,12.2363],[103.4705,12.2307],[103.4889,12.2257],[103.5041,12.2373],[103.5101,12.2383],[103.5151,12.2347],[103.5195,12.2351],[103.5297,12.2465],[103.5269,12.2577],[103.5289,12.2599],[103.5291,12.2815],[103.5259,12.2831],[103.5283,12.2889],[103.5319,12.2907],[103.5243,12.2983],[103.5123,12.3025],[103.5093,12.3159],[103.5105,12.3247]]]}},{"type":"Feature","properties":{"c":"150605","en":"Thma Da","km":"ថ្មដា"},"geometry":{"type":"Polygon","coordinates":[[[102.8189,12.3769],[102.8095,12.3715],[102.7977,12.3811],[102.7849,12.4003],[102.7813,12.4003],[102.7721,12.3941],[102.7611,12.3941],[102.7461,12.3889],[102.7257,12.3637],[102.7235,12.3341],[102.7263,12.3261],[102.7255,12.2995],[102.7223,12.2839],[102.7141,12.2643],[102.7183,12.2477],[102.7185,12.2255],[102.7177,12.2213],[102.7141,12.2211],[102.7087,12.2055],[102.7123,12.1959],[102.7045,12.1743],[102.7089,12.1661],[102.7099,12.1531],[102.7213,12.1343],[102.7287,12.1307],[102.7325,12.1243],[102.7345,12.1109],[102.7371,12.1073],[102.7521,12.0939],[102.7581,12.0811],[102.7711,12.0723],[102.7701,12.0639],[102.7741,12.0545],[102.7741,12.0361],[102.7797,12.0231],[102.7977,12.0135],[102.9727,12.0023],[103.0037,11.9941],[103.0045,12.0171],[103.0107,12.0313],[102.9973,12.0369],[102.9855,12.0471],[102.9581,12.0623],[102.9451,12.0863],[102.9375,12.0907],[102.9313,12.1139],[102.9323,12.1269],[102.9297,12.1339],[102.9303,12.1407],[102.9351,12.1471],[102.9229,12.1559],[102.9173,12.1701],[102.9165,12.1787],[102.9137,12.1809],[102.9121,12.2085],[102.9101,12.2121],[102.9029,12.2147],[102.8951,12.2213],[102.8873,12.2305],[102.8687,12.2367],[102.8707,12.2845],[102.8667,12.3239],[102.8631,12.3393],[102.8551,12.3511],[102.8533,12.3597],[102.8445,12.3671],[102.8309,12.3697],[102.8189,12.3769]]]}}]}