{"type":"FeatureCollection","features":[{"type":"Feature","properties":{"c":"160101","en":"Malik","km":"ម៉ាលិក"},"geometry":{"type":"Polygon","coordinates":[[[107.3619,13.8387],[107.3507,13.8511],[107.3495,13.8855],[107.3459,13.8885],[107.3405,13.8875],[107.3347,13.8845],[107.3199,13.8679],[107.3079,13.8673],[107.2985,13.8741],[107.2903,13.8985],[107.2837,13.9059],[107.2309,13.8871],[107.2135,13.8907],[107.2045,13.8889],[107.1963,13.8667],[107.1895,13.8617],[107.1905,13.8525],[107.1873,13.8475],[107.1935,13.8383],[107.2001,13.8371],[107.2151,13.8265],[107.2219,13.8239],[107.2395,13.8237],[107.2541,13.8089],[107.2593,13.8121],[107.2689,13.8115],[107.2883,13.8055],[107.3079,13.8067],[107.3619,13.8387]]]}},{"type":"Feature","properties":{"c":"160103","en":"Nhang","km":"ញ៉ាង"},"geometry":{"type":"Polygon","coordinates":[[[107.3293,14.1313],[107.3153,14.1343],[107.2965,14.1247],[107.2795,14.1055],[107.2597,14.0769],[107.2437,14.0605],[107.2367,14.0481],[107.2153,14.0275],[107.2355,14.0137],[107.2367,14.0177],[107.2415,14.0165],[107.2457,14.0041],[107.2559,13.9925],[107.2565,13.9759],[107.2621,13.9691],[107.2763,13.9649],[107.2921,13.9541],[107.3103,13.9501],[107.3173,13.9445],[107.3203,13.9213],[107.3191,13.9149],[107.3217,13.9117],[107.2837,13.9059],[107.2903,13.8985],[107.2985,13.8741],[107.3079,13.8673],[107.3161,13.8665],[107.3225,13.8699],[107.3347,13.8845],[107.3459,13.8885],[107.3495,13.8855],[107.3507,13.8511],[107.3619,13.8387],[107.3619,13.8251],[107.3593,13.8187],[107.3635,13.8117],[107.3885,13.8075],[107.4169,13.7863],[107.4519,13.7945],[107.4613,13.8133],[107.4615,13.8171],[107.4555,13.8255],[107.4567,13.8301],[107.4659,13.8393],[107.4731,13.8523],[107.4721,13.8571],[107.4559,13.8679],[107.4543,13.8721],[107.4581,13.8791],[107.4693,13.8893],[107.4725,13.9145],[107.4703,13.9213],[107.4581,13.9231],[107.4539,13.9301],[107.4557,13.9785],[107.4463,13.9879],[107.4439,13.9967],[107.4335,13.9945],[107.4279,13.9979],[107.4081,13.9907],[107.3967,13.9925],[107.3875,13.9905],[107.3643,14.0143],[107.3579,14.0169],[107.3585,14.0289],[107.3655,14.0339],[107.3651,14.0617],[107.3711,14.0693],[107.3717,14.0837],[107.3665,14.0851],[107.3441,14.1071],[107.3383,14.1067],[107.3353,14.1097],[107.3401,14.1321],[107.3293,14.1313]]]}},{"type":"Feature","properties":{"c":"160104","en":"Ta Lav","km":"តាឡាវ"},"geometry":{"type":"Polygon","coordinates":[[[107.2837,13.9059],[107.3217,13.9117],[107.3191,13.9149],[107.3203,13.9213],[107.3173,13.9445],[107.3103,13.9501],[107.2921,13.9541],[107.2763,13.9649],[107.2621,13.9691],[107.2565,13.9759],[107.2559,13.9925],[107.2457,14.0041],[107.2415,14.0165],[107.2367,14.0177],[107.2355,14.0137],[107.2153,14.0275],[107.1845,14.0013],[107.1643,13.9977],[107.1635,13.9855],[107.1675,13.9723],[107.1657,13.9689],[107.1629,13.9695],[107.1609,13.9633],[107.1589,13.9417],[107.1561,13.9343],[107.1631,13.9289],[107.1615,13.9245],[107.1667,13.9145],[107.1653,13.9079],[107.1513,13.8921],[107.1557,13.8889],[107.1551,13.8739],[107.1625,13.8605],[107.1589,13.8509],[107.1625,13.8453],[107.1587,13.8309],[107.1603,13.8269],[107.1811,13.8303],[107.1935,13.8383],[107.1873,13.8475],[107.1905,13.8525],[107.1895,13.8617],[107.1963,13.8667],[107.2045,13.8889],[107.2135,13.8907],[107.2309,13.8871],[107.2837,13.9059]]]}}]}