{"type":"FeatureCollection","features":[{"type":"Feature","properties":{"c":"160204","en":"Boeng Kansaeng","km":"សង្កាត់បឹងកន្សែង"},"geometry":{"type":"Polygon","coordinates":[[[106.9959,13.7407],[106.9995,13.7589],[106.9843,13.7557],[106.9679,13.7461],[106.9575,13.7435],[106.9687,13.7311],[106.9797,13.7373],[106.9959,13.7407]]]}},{"type":"Feature","properties":{"c":"160201","en":"Kachanh","km":"សង្កាត់កាចាញ"},"geometry":{"type":"Polygon","coordinates":[[[106.9687,13.7311],[106.9575,13.7435],[106.9463,13.7361],[106.9431,13.7313],[106.9435,13.7183],[106.9573,13.7075],[106.9599,13.6961],[106.9643,13.6963],[106.9703,13.6919],[106.9775,13.6679],[106.9905,13.6449],[107.0117,13.6329],[107.0155,13.6207],[107.0189,13.6175],[107.0421,13.6041],[107.0399,13.5887],[107.0453,13.5827],[107.0699,13.5811],[107.0741,13.5827],[107.0827,13.5907],[107.0875,13.6015],[107.0875,13.6255],[107.0795,13.6497],[107.0801,13.6549],[107.0873,13.6595],[107.0845,13.6663],[107.0887,13.6727],[107.0753,13.6809],[107.0613,13.6841],[107.0489,13.6971],[107.0453,13.7037],[107.0459,13.7071],[107.0175,13.7095],[106.9969,13.7241],[106.9935,13.7201],[106.9873,13.7181],[106.9789,13.7221],[106.9687,13.7311]]]}},{"type":"Feature","properties":{"c":"160202","en":"Labansiek","km":"សង្កាត់ឡាបានសៀក"},"geometry":{"type":"Polygon","coordinates":[[[106.9969,13.7241],[106.9959,13.7407],[106.9797,13.7373],[106.9687,13.7311],[106.9789,13.7221],[106.9873,13.7181],[106.9935,13.7201],[106.9969,13.7241]]]}},{"type":"Feature","properties":{"c":"160203","en":"Yeak Laom","km":"សង្កាត់យក្ខឡោម"},"geometry":{"type":"Polygon","coordinates":[[[107.0565,13.7459],[107.0461,13.7491],[107.0407,13.7631],[107.0197,13.7633],[106.9995,13.7589],[106.9959,13.7453],[106.9969,13.7241],[107.0175,13.7095],[107.0459,13.7071],[107.0453,13.7037],[107.0489,13.6971],[107.0613,13.6841],[107.0753,13.6809],[107.0887,13.6727],[107.0917,13.6753],[107.0897,13.6823],[107.0907,13.6945],[107.0805,13.7077],[107.0793,13.7175],[107.0849,13.7375],[107.0721,13.7455],[107.0565,13.7459]]]}}]}