{"type":"FeatureCollection","features":[{"type":"Feature","properties":{"c":"160301","en":"Kak","km":"កក់"},"geometry":{"type":"Polygon","coordinates":[[[107.2845,13.7375],[107.2745,13.7413],[107.2011,13.7437],[107.2061,13.7569],[107.2019,13.7673],[107.2017,13.7763],[107.1893,13.7869],[107.1835,13.7981],[107.1833,13.8059],[107.1927,13.8177],[107.1911,13.8293],[107.1935,13.8383],[107.1811,13.8303],[107.1705,13.8291],[107.1719,13.8259],[107.1591,13.8029],[107.1509,13.7927],[107.1493,13.7843],[107.1399,13.7855],[107.1371,13.7827],[107.1371,13.7747],[107.1485,13.7651],[107.1551,13.7635],[107.1535,13.7479],[107.1605,13.7433],[107.1611,13.7397],[107.1699,13.7367],[107.1731,13.7381],[107.1917,13.7259],[107.1915,13.7221],[107.1945,13.7189],[107.1905,13.7171],[107.1915,13.7125],[107.2023,13.6917],[107.2093,13.6959],[107.2243,13.6925],[107.2243,13.6883],[107.2647,13.6883],[107.2639,13.6983],[107.2699,13.7021],[107.2715,13.7061],[107.2689,13.7161],[107.2723,13.7191],[107.2767,13.7185],[107.2825,13.7245],[107.2845,13.7375]]]}},{"type":"Feature","properties":{"c":"160302","en":"Keh Chong","km":"កិះចុង"},"geometry":{"type":"Polygon","coordinates":[[[107.3247,13.8173],[107.3043,13.8051],[107.2839,13.8061],[107.2689,13.8115],[107.2593,13.8121],[107.2541,13.8089],[107.2395,13.8237],[107.2187,13.8249],[107.2001,13.8371],[107.1935,13.8383],[107.1911,13.8293],[107.1927,13.8177],[107.1833,13.8059],[107.1835,13.7981],[107.1893,13.7869],[107.2017,13.7763],[107.2019,13.7673],[107.2061,13.7569],[107.2011,13.7437],[107.2745,13.7413],[107.2845,13.7375],[107.2845,13.7423],[107.2895,13.7527],[107.2961,13.7565],[107.3007,13.7555],[107.3027,13.7585],[107.3059,13.7739],[107.3243,13.7797],[107.3257,13.7929],[107.3217,13.8093],[107.3247,13.8173]]]}},{"type":"Feature","properties":{"c":"160303","en":"La Minh","km":"ឡាមីញ"},"geometry":{"type":"Polygon","coordinates":[[[107.2243,13.6883],[107.2243,13.6925],[107.2093,13.6959],[107.2023,13.6917],[107.1915,13.7125],[107.1905,13.7171],[107.1945,13.7189],[107.1915,13.7221],[107.1917,13.7259],[107.1849,13.7317],[107.1731,13.7381],[107.1649,13.7377],[107.1575,13.7453],[107.1499,13.7403],[107.1471,13.7291],[107.1429,13.7239],[107.1437,13.7205],[107.1481,13.7135],[107.1559,13.7093],[107.1611,13.7025],[107.1609,13.6941],[107.1501,13.6869],[107.1513,13.6725],[107.1695,13.6655],[107.2187,13.6401],[107.2189,13.6517],[107.2269,13.6617],[107.2243,13.6883]]]}},{"type":"Feature","properties":{"c":"160304","en":"Lung Khung","km":"លុងឃុង"},"geometry":{"type":"Polygon","coordinates":[[[107.2187,13.6401],[107.1695,13.6655],[107.1513,13.6725],[107.1501,13.6869],[107.1609,13.6941],[107.1611,13.7025],[107.1583,13.7055],[107.1405,13.7007],[107.1271,13.7029],[107.1139,13.6975],[107.0979,13.6779],[107.0861,13.6709],[107.0845,13.6663],[107.0873,13.6595],[107.0801,13.6549],[107.0795,13.6497],[107.0875,13.6255],[107.0955,13.6199],[107.0951,13.6123],[107.0999,13.6157],[107.1109,13.6115],[107.1223,13.6115],[107.1287,13.6065],[107.1395,13.6033],[107.2009,13.6007],[107.2383,13.5923],[107.2409,13.5957],[107.2399,13.6001],[107.2341,13.6123],[107.2269,13.6187],[107.2245,13.6305],[107.2187,13.6401]]]}},{"type":"Feature","properties":{"c":"160305","en":"Saeung","km":"ស៊ើង"},"geometry":{"type":"Polygon","coordinates":[[[107.2687,13.6745],[107.2647,13.6883],[107.2243,13.6883],[107.2269,13.6617],[107.2189,13.6517],[107.2187,13.6401],[107.2245,13.6305],[107.2269,13.6187],[107.2341,13.6123],[107.2399,13.6001],[107.2409,13.5957],[107.2383,13.5923],[107.2601,13.5925],[107.2699,13.5955],[107.2673,13.6021],[107.2653,13.6241],[107.2679,13.6383],[107.2665,13.6573],[107.2687,13.6745]]]}},{"type":"Feature","properties":{"c":"160306","en":"Ting Chak","km":"ទីងចាក់"},"geometry":{"type":"Polygon","coordinates":[[[107.1575,13.7453],[107.1535,13.7479],[107.1551,13.7635],[107.1485,13.7651],[107.1401,13.7727],[107.1373,13.7689],[107.1391,13.7641],[107.1361,13.7603],[107.1243,13.7577],[107.1185,13.7599],[107.1153,13.7487],[107.1049,13.7429],[107.0849,13.7375],[107.0797,13.7217],[107.0797,13.7131],[107.0805,13.7077],[107.0907,13.6945],[107.0897,13.6823],[107.0917,13.6753],[107.0979,13.6779],[107.1171,13.6995],[107.1271,13.7029],[107.1405,13.7007],[107.1583,13.7055],[107.1481,13.7135],[107.1429,13.7239],[107.1471,13.7291],[107.1499,13.7403],[107.1575,13.7453]]]}}]}