{"type":"FeatureCollection","features":[{"type":"Feature","properties":{"c":"160401","en":"Serei Mongkol","km":"សិរីមង្គល"},"geometry":{"type":"Polygon","coordinates":[[[106.8993,13.5635],[106.8941,13.5711],[106.8823,13.5721],[106.8317,13.5591],[106.8237,13.5275],[106.8169,13.5215],[106.8161,13.4845],[106.8061,13.4649],[106.8011,13.4589],[106.7975,13.4583],[106.7963,13.4511],[106.7909,13.4443],[106.7857,13.4083],[106.7737,13.4055],[106.7673,13.3983],[106.7485,13.3901],[106.7463,13.3859],[106.7409,13.3831],[106.7383,13.3757],[106.7397,13.3691],[106.7433,13.3679],[106.7485,13.3565],[106.7435,13.3365],[106.7403,13.3313],[106.7337,13.3273],[106.7299,13.3163],[106.7301,13.3039],[106.7245,13.2965],[106.7191,13.2795],[106.7161,13.2773],[106.7233,13.2675],[106.7175,13.2571],[106.7185,13.2471],[106.7459,13.2275],[106.7763,13.1995],[106.8669,13.1747],[106.8985,13.1751],[106.9027,13.1769],[106.9001,13.1799],[106.8993,13.1911],[106.9093,13.2275],[106.8979,13.2429],[106.8957,13.2607],[106.8989,13.2671],[106.8973,13.2697],[106.8851,13.2733],[106.8813,13.2785],[106.8877,13.2907],[106.8935,13.2963],[106.8927,13.3059],[106.8981,13.3117],[106.8991,13.3181],[106.9037,13.3251],[106.9031,13.3327],[106.9051,13.3357],[106.9037,13.3451],[106.8893,13.3541],[106.8819,13.3745],[106.8855,13.3797],[106.8833,13.3825],[106.8829,13.3939],[106.8779,13.4007],[106.8651,13.4103],[106.8567,13.4107],[106.8455,13.4309],[106.8511,13.4385],[106.8709,13.4391],[106.8783,13.4497],[106.8781,13.4565],[106.8723,13.4657],[106.8753,13.4865],[106.8769,13.4901],[106.8977,13.5027],[106.8993,13.5075],[106.8975,13.5149],[106.9047,13.5269],[106.9041,13.5323],[106.8945,13.5407],[106.8989,13.5545],[106.8993,13.5635]]]}},{"type":"Feature","properties":{"c":"160402","en":"Srae Angkrorng","km":"ស្រែអង្គ្រង"},"geometry":{"type":"Polygon","coordinates":[[[106.7441,13.4703],[106.7321,13.4635],[106.6865,13.4575],[106.6529,13.5201],[106.6419,13.5145],[106.6311,13.5147],[106.6233,13.5099],[106.6177,13.5129],[106.6065,13.5111],[106.5973,13.5149],[106.5881,13.5137],[106.5811,13.5173],[106.5745,13.5121],[106.5749,13.4943],[106.5965,13.4539],[106.6007,13.4385],[106.6125,13.4273],[106.6137,13.4181],[106.6049,13.4059],[106.6053,13.4015],[106.6143,13.3903],[106.6221,13.3879],[106.6209,13.3761],[106.6269,13.3711],[106.6249,13.3465],[106.6089,13.3411],[106.6105,13.3261],[106.6081,13.3229],[106.7185,13.2471],[106.7175,13.2571],[106.7233,13.2675],[106.7161,13.2773],[106.7191,13.2795],[106.7245,13.2965],[106.7301,13.3039],[106.7299,13.3163],[106.7337,13.3273],[106.7403,13.3313],[106.7435,13.3365],[106.7485,13.3565],[106.7433,13.3679],[106.7397,13.3691],[106.7383,13.3757],[106.7409,13.3831],[106.7463,13.3859],[106.7485,13.3901],[106.7673,13.3983],[106.7737,13.4055],[106.7857,13.4083],[106.7895,13.4395],[106.7963,13.4511],[106.7975,13.4583],[106.7921,13.4703],[106.7851,13.4761],[106.7763,13.4745],[106.7659,13.4661],[106.7557,13.4655],[106.7441,13.4703]]]}},{"type":"Feature","properties":{"c":"160403","en":"Ta Ang","km":"តាអង"},"geometry":{"type":"Polygon","coordinates":[[[106.8797,13.7933],[106.8725,13.7995],[106.8495,13.7909],[106.8389,13.7809],[106.8239,13.7733],[106.8123,13.7717],[106.7957,13.7765],[106.7789,13.7891],[106.7719,13.7899],[106.7697,13.7873],[106.7727,13.7845],[106.7733,13.7757],[106.7815,13.7657],[106.7787,13.7519],[106.7803,13.7447],[106.7901,13.7427],[106.7953,13.7465],[106.7999,13.7457],[106.8139,13.7383],[106.8233,13.7269],[106.8217,13.7239],[106.8255,13.7153],[106.8317,13.7109],[106.8447,13.7077],[106.8473,13.7109],[106.8559,13.7113],[106.8707,13.7041],[106.8751,13.6557],[106.8999,13.6455],[106.9259,13.6153],[106.9309,13.6257],[106.9373,13.6575],[106.9437,13.6615],[106.9425,13.6653],[106.9453,13.6721],[106.9577,13.6857],[106.9599,13.6961],[106.9585,13.7039],[106.9573,13.7075],[106.9435,13.7183],[106.9327,13.7245],[106.9139,13.7265],[106.9061,13.7353],[106.9013,13.7369],[106.8969,13.7425],[106.9119,13.7679],[106.9013,13.7687],[106.8941,13.7735],[106.8671,13.7831],[106.8797,13.7933]]]}},{"type":"Feature","properties":{"c":"160404","en":"Teun","km":"តឺន"},"geometry":{"type":"Polygon","coordinates":[[[106.7697,13.7873],[106.7585,13.7919],[106.7457,13.7925],[106.7351,13.8035],[106.7265,13.8071],[106.7105,13.8075],[106.6745,13.8165],[106.6581,13.8231],[106.6539,13.8141],[106.6535,13.8063],[106.6613,13.7851],[106.6667,13.7827],[106.6653,13.7645],[106.6941,13.6951],[106.6967,13.6971],[106.7065,13.6953],[106.7209,13.7021],[106.7401,13.7071],[106.7567,13.7029],[106.7721,13.7043],[106.7773,13.6763],[106.7737,13.6413],[106.7771,13.6195],[106.7825,13.6201],[106.7987,13.6135],[106.8293,13.6115],[106.8421,13.6183],[106.8523,13.6187],[106.8545,13.6145],[106.8531,13.6071],[106.8573,13.5989],[106.8635,13.5923],[106.8771,13.5843],[106.8823,13.5721],[106.8941,13.5711],[106.8993,13.5635],[106.9133,13.5857],[106.9193,13.5903],[106.9183,13.6051],[106.9259,13.6153],[106.8999,13.6455],[106.8751,13.6557],[106.8707,13.7041],[106.8559,13.7113],[106.8473,13.7109],[106.8447,13.7077],[106.8317,13.7109],[106.8255,13.7153],[106.8217,13.7239],[106.8233,13.7269],[106.8139,13.7383],[106.7999,13.7457],[106.7953,13.7465],[106.7901,13.7427],[106.7803,13.7447],[106.7787,13.7519],[106.7815,13.7657],[106.7733,13.7757],[106.7727,13.7845],[106.7697,13.7873]]]}},{"type":"Feature","properties":{"c":"160405","en":"Trapeang Chres","km":"ត្រពាំងច្រេស"},"geometry":{"type":"Polygon","coordinates":[[[106.8823,13.5721],[106.8771,13.5843],[106.8635,13.5923],[106.8545,13.6025],[106.8545,13.6145],[106.8523,13.6187],[106.8421,13.6183],[106.8293,13.6115],[106.7987,13.6135],[106.7825,13.6201],[106.7771,13.6195],[106.7737,13.6413],[106.7773,13.6763],[106.7721,13.7043],[106.7567,13.7029],[106.7401,13.7071],[106.7209,13.7021],[106.7065,13.6953],[106.6967,13.6971],[106.6941,13.6951],[106.7157,13.5635],[106.7207,13.5567],[106.7253,13.5545],[106.7405,13.5491],[106.7539,13.5483],[106.7533,13.5261],[106.7567,13.5119],[106.7555,13.4941],[106.7451,13.4883],[106.7441,13.4703],[106.7557,13.4655],[106.7659,13.4661],[106.7763,13.4745],[106.7851,13.4761],[106.7921,13.4703],[106.7975,13.4583],[106.8011,13.4589],[106.8161,13.4845],[106.8169,13.5215],[106.8237,13.5275],[106.8317,13.5591],[106.8823,13.5721]]]}},{"type":"Feature","properties":{"c":"160406","en":"Trapeang Kraham","km":"ត្រពាំងក្រហម"},"geometry":{"type":"Polygon","coordinates":[[[106.6941,13.6951],[106.6653,13.7645],[106.6667,13.7827],[106.6633,13.7829],[106.6573,13.7647],[106.6457,13.7491],[106.6365,13.7417],[106.6319,13.7215],[106.6177,13.7031],[106.6065,13.6969],[106.6035,13.6929],[106.5893,13.6869],[106.5863,13.6831],[106.5699,13.6821],[106.5547,13.6735],[106.5309,13.6703],[106.5317,13.5531],[106.5415,13.5519],[106.5525,13.5449],[106.5603,13.5299],[106.5745,13.5121],[106.5811,13.5173],[106.5881,13.5137],[106.5973,13.5149],[106.6065,13.5111],[106.6177,13.5129],[106.6233,13.5099],[106.6311,13.5147],[106.6419,13.5145],[106.6529,13.5201],[106.6847,13.4605],[106.6865,13.4575],[106.6907,13.4571],[106.7035,13.4607],[106.7321,13.4635],[106.7441,13.4703],[106.7451,13.4883],[106.7555,13.4941],[106.7567,13.5119],[106.7533,13.5261],[106.7539,13.5483],[106.7405,13.5491],[106.7253,13.5545],[106.7207,13.5567],[106.7157,13.5635],[106.6941,13.6951]]]}}]}