{"type":"FeatureCollection","features":[{"type":"Feature","properties":{"c":"160505","en":"Ba Tang","km":"បាតាង"},"geometry":{"type":"Polygon","coordinates":[[[107.0399,13.5887],[106.9929,13.5873],[106.9545,13.5907],[106.9453,13.5873],[106.9381,13.5893],[106.9321,13.5869],[106.9193,13.5903],[106.9133,13.5857],[106.8993,13.5635],[106.8989,13.5545],[106.8945,13.5407],[106.9041,13.5323],[106.9047,13.5269],[106.9737,13.5149],[106.9777,13.5125],[107.0025,13.5233],[107.0095,13.5309],[107.0203,13.5339],[107.0267,13.5393],[107.0351,13.5617],[107.0367,13.5745],[107.0453,13.5827],[107.0399,13.5887]]]}},{"type":"Feature","properties":{"c":"160501","en":"Chey Otdam","km":"ជ័យឧត្ដម"},"geometry":{"type":"Polygon","coordinates":[[[106.9987,13.5217],[106.9777,13.5125],[106.9737,13.5149],[106.9047,13.5269],[106.8975,13.5149],[106.8993,13.5075],[106.8977,13.5027],[106.8769,13.4901],[106.8753,13.4865],[106.8723,13.4657],[106.8781,13.4565],[106.8769,13.4463],[106.8709,13.4391],[106.8663,13.4375],[106.8511,13.4385],[106.8455,13.4309],[106.8567,13.4107],[106.8651,13.4103],[106.8779,13.4007],[106.8829,13.3939],[106.8833,13.3825],[106.8855,13.3797],[106.8819,13.3745],[106.8893,13.3541],[106.9037,13.3451],[106.9037,13.3251],[106.8991,13.3181],[106.8981,13.3117],[106.8927,13.3059],[106.8935,13.2963],[106.8877,13.2907],[106.8813,13.2785],[106.8851,13.2733],[106.8973,13.2697],[106.8989,13.2671],[106.8957,13.2607],[106.8979,13.2429],[106.9093,13.2275],[106.8993,13.1911],[106.9001,13.1799],[106.9027,13.1769],[106.9159,13.1785],[106.9339,13.1739],[106.9539,13.1779],[106.9633,13.1839],[106.9747,13.1815],[106.9803,13.1779],[107.0051,13.1877],[107.0153,13.1845],[107.0239,13.1867],[107.0309,13.1851],[107.0373,13.1741],[107.0487,13.1737],[107.0595,13.1821],[107.0639,13.1905],[107.0693,13.1949],[107.0725,13.1941],[107.0837,13.2053],[107.0821,13.2097],[107.0847,13.2231],[107.0835,13.2301],[107.0891,13.2351],[107.0869,13.2373],[107.0931,13.2409],[107.0931,13.2445],[107.0873,13.2523],[107.0905,13.2553],[107.0877,13.2593],[107.0891,13.2743],[107.0817,13.2793],[107.0813,13.2881],[107.0745,13.2943],[107.0777,13.2945],[107.0759,13.2979],[107.0713,13.2995],[107.0751,13.3023],[107.0703,13.3079],[107.0705,13.3111],[107.0785,13.3137],[107.0759,13.3173],[107.0785,13.3211],[107.0635,13.3611],[107.0411,13.3737],[107.0389,13.3923],[107.0315,13.3981],[107.0179,13.4167],[107.0149,13.4299],[107.0167,13.4509],[107.0117,13.4731],[107.0129,13.5095],[107.0003,13.5173],[106.9987,13.5217]]]}},{"type":"Feature","properties":{"c":"160502","en":"Ka Laeng","km":"កាឡែង"},"geometry":{"type":"Polygon","coordinates":[[[107.1349,13.6043],[107.1223,13.6115],[107.1109,13.6115],[107.0999,13.6157],[107.0951,13.6123],[107.0955,13.6199],[107.0875,13.6255],[107.0875,13.6015],[107.0827,13.5907],[107.0699,13.5811],[107.0453,13.5827],[107.0367,13.5745],[107.0351,13.5617],[107.0267,13.5393],[107.0203,13.5339],[107.0095,13.5309],[106.9987,13.5217],[107.0003,13.5173],[107.0129,13.5095],[107.0117,13.4731],[107.0169,13.4473],[107.0149,13.4299],[107.0201,13.4117],[107.0407,13.3887],[107.0395,13.3763],[107.0441,13.3713],[107.0635,13.3611],[107.0785,13.3211],[107.0873,13.3127],[107.0989,13.3081],[107.1109,13.3097],[107.1239,13.3161],[107.1335,13.3299],[107.1415,13.3311],[107.1457,13.3309],[107.1575,13.3237],[107.1593,13.3119],[107.1657,13.3075],[107.1897,13.3079],[107.2101,13.3183],[107.2167,13.3291],[107.2317,13.3349],[107.2369,13.3409],[107.2351,13.3575],[107.2403,13.3661],[107.2367,13.3671],[107.2347,13.3709],[107.2395,13.4007],[107.2381,13.4037],[107.2319,13.4061],[107.2313,13.4089],[107.2393,13.4151],[107.2389,13.4181],[107.2127,13.4333],[107.1431,13.4943],[107.1341,13.5549],[107.1349,13.6043]]]}},{"type":"Feature","properties":{"c":"160503","en":"Lbang Muoy","km":"ល្បាំង១"},"geometry":{"type":"Polygon","coordinates":[[[107.0141,13.6243],[106.9475,13.6245],[106.9427,13.6349],[106.9397,13.6519],[106.9363,13.6535],[106.9309,13.6257],[106.9183,13.6051],[106.9193,13.5903],[106.9321,13.5869],[106.9381,13.5893],[106.9453,13.5873],[106.9545,13.5907],[106.9929,13.5873],[107.0399,13.5887],[107.0421,13.6041],[107.0225,13.6147],[107.0141,13.6243]]]}},{"type":"Feature","properties":{"c":"160504","en":"Lbang Pir","km":"ល្បាំង២"},"geometry":{"type":"Polygon","coordinates":[[[107.0141,13.6243],[107.0117,13.6329],[106.9905,13.6449],[106.9775,13.6679],[106.9703,13.6919],[106.9643,13.6963],[106.9599,13.6961],[106.9577,13.6857],[106.9453,13.6721],[106.9425,13.6653],[106.9437,13.6615],[106.9373,13.6575],[106.9363,13.6535],[106.9397,13.6519],[106.9427,13.6349],[106.9475,13.6245],[107.0141,13.6243]]]}},{"type":"Feature","properties":{"c":"160506","en":"Seda","km":"សេដា"},"geometry":{"type":"Polygon","coordinates":[[[107.2383,13.5923],[107.2009,13.6007],[107.1349,13.6043],[107.1341,13.5549],[107.1431,13.4943],[107.2127,13.4333],[107.2389,13.4181],[107.2393,13.4151],[107.2313,13.4089],[107.2319,13.4061],[107.2381,13.4037],[107.2395,13.4007],[107.2347,13.3709],[107.2367,13.3671],[107.2465,13.3673],[107.2697,13.3587],[107.2911,13.3101],[107.3023,13.3073],[107.3097,13.3091],[107.3183,13.3155],[107.3385,13.3161],[107.3383,13.3199],[107.3427,13.3219],[107.3441,13.3285],[107.3503,13.3355],[107.3583,13.3329],[107.3619,13.3343],[107.3579,13.3457],[107.3647,13.3423],[107.3757,13.3569],[107.3719,13.3773],[107.3757,13.3845],[107.3605,13.3925],[107.3587,13.3967],[107.3617,13.3961],[107.3623,13.4051],[107.3581,13.4081],[107.3555,13.4187],[107.3485,13.4199],[107.3453,13.4275],[107.3425,13.4281],[107.3425,13.4321],[107.3453,13.4349],[107.3393,13.4453],[107.3293,13.4425],[107.3231,13.4489],[107.3141,13.4507],[107.3161,13.4583],[107.3081,13.4669],[107.3103,13.4693],[107.3085,13.4785],[107.3041,13.4841],[107.3063,13.4943],[107.3029,13.5043],[107.3049,13.5083],[107.3001,13.5159],[107.2995,13.5283],[107.2903,13.5357],[107.2853,13.5441],[107.2851,13.5491],[107.2915,13.5555],[107.2945,13.5627],[107.2915,13.5707],[107.2849,13.5761],[107.2825,13.5855],[107.2699,13.5955],[107.2601,13.5925],[107.2383,13.5923]]]}}]}