{"type":"FeatureCollection","features":[{"type":"Feature","properties":{"c":"160603","en":"Aekakpheap","km":"ឯកភាព"},"geometry":{"type":"Polygon","coordinates":[[[107.1371,13.7747],[107.1261,13.7815],[107.0951,13.7801],[107.0813,13.7613],[107.0735,13.7583],[107.0617,13.7581],[107.0565,13.7459],[107.0721,13.7455],[107.0849,13.7375],[107.1049,13.7429],[107.1153,13.7487],[107.1185,13.7599],[107.1243,13.7577],[107.1361,13.7603],[107.1391,13.7641],[107.1373,13.7689],[107.1401,13.7727],[107.1371,13.7747]]]}},{"type":"Feature","properties":{"c":"160601","en":"Cha Ung","km":"ចាអ៊ុង"},"geometry":{"type":"Polygon","coordinates":[[[106.9311,13.8067],[106.9211,13.8107],[106.9177,13.8069],[106.9073,13.8065],[106.9011,13.8013],[106.8983,13.8023],[106.8915,13.7953],[106.8845,13.7977],[106.8781,13.7901],[106.8671,13.7831],[106.8941,13.7735],[106.9013,13.7687],[106.9119,13.7679],[106.8969,13.7425],[106.9139,13.7265],[106.9327,13.7245],[106.9435,13.7183],[106.9431,13.7313],[106.9463,13.7361],[106.9575,13.7435],[106.9577,13.7707],[106.9623,13.7881],[106.9577,13.7973],[106.9337,13.7991],[106.9311,13.8067]]]}},{"type":"Feature","properties":{"c":"160604","en":"Kalai","km":"កាឡៃ"},"geometry":{"type":"Polygon","coordinates":[[[106.9849,13.8989],[106.9793,13.9031],[106.9733,13.9009],[106.9651,13.9027],[106.9605,13.9011],[106.9483,13.8855],[106.9337,13.8911],[106.9285,13.8853],[106.9261,13.8781],[106.9069,13.8637],[106.9049,13.8605],[106.9105,13.8453],[106.9105,13.8363],[106.9205,13.8233],[106.9211,13.8107],[106.9311,13.8067],[106.9443,13.8131],[106.9597,13.8171],[106.9663,13.8247],[106.9689,13.8323],[106.9749,13.8351],[106.9807,13.8417],[106.9857,13.8545],[106.9807,13.8715],[106.9811,13.8779],[106.9875,13.8907],[106.9849,13.8989]]]}},{"type":"Feature","properties":{"c":"160607","en":"L'ak","km":"ល្អក់"},"geometry":{"type":"Polygon","coordinates":[[[107.1615,13.9245],[107.1323,13.9309],[107.0887,13.8945],[107.0549,13.8921],[107.0413,13.8815],[107.0363,13.8803],[107.0105,13.8799],[107.0127,13.8467],[107.0161,13.8401],[107.0197,13.8387],[107.0363,13.8177],[107.0419,13.8063],[107.0415,13.7991],[107.0439,13.7943],[107.0475,13.7935],[107.0509,13.8023],[107.0547,13.8025],[107.0589,13.8007],[107.0627,13.7949],[107.0855,13.7887],[107.0857,13.8089],[107.0961,13.8313],[107.1049,13.8393],[107.1091,13.8473],[107.1157,13.8515],[107.1209,13.8637],[107.1289,13.8697],[107.1407,13.8891],[107.1513,13.8921],[107.1653,13.9079],[107.1667,13.9145],[107.1615,13.9245]]]}},{"type":"Feature","properties":{"c":"160605","en":"Ou Chum","km":"អូរជុំ"},"geometry":{"type":"Polygon","coordinates":[[[107.0105,13.8799],[106.9967,13.8959],[106.9849,13.8989],[106.9875,13.8907],[106.9811,13.8779],[106.9807,13.8715],[106.9857,13.8545],[106.9807,13.8417],[106.9749,13.8351],[106.9689,13.8323],[106.9663,13.8247],[106.9597,13.8171],[106.9443,13.8131],[106.9311,13.8067],[106.9337,13.7991],[106.9577,13.7973],[106.9611,13.7919],[106.9623,13.7881],[106.9573,13.7665],[106.9575,13.7435],[106.9679,13.7461],[106.9843,13.7557],[107.0137,13.7623],[107.0303,13.7637],[107.0407,13.7631],[107.0461,13.7491],[107.0565,13.7459],[107.0617,13.7581],[107.0771,13.7589],[107.0889,13.7701],[107.0879,13.7855],[107.0855,13.7887],[107.0627,13.7949],[107.0589,13.8007],[107.0547,13.8025],[107.0509,13.8023],[107.0475,13.7935],[107.0439,13.7943],[107.0415,13.7991],[107.0419,13.8063],[107.0363,13.8177],[107.0197,13.8387],[107.0161,13.8401],[107.0127,13.8467],[107.0105,13.8799]]]}},{"type":"Feature","properties":{"c":"160602","en":"Pouy","km":"ប៉ូយ"},"geometry":{"type":"Polygon","coordinates":[[[107.0663,13.9735],[107.0571,13.9743],[107.0497,13.9717],[107.0249,13.9697],[107.0003,13.9629],[106.9931,13.9515],[106.9941,13.9475],[106.9905,13.9381],[106.9651,13.9027],[106.9733,13.9009],[106.9793,13.9031],[106.9849,13.8989],[106.9931,13.8977],[107.0057,13.8871],[107.0105,13.8799],[107.0329,13.8797],[107.0413,13.8815],[107.0549,13.8921],[107.0887,13.8945],[107.1323,13.9309],[107.1139,13.9379],[107.0833,13.9393],[107.0775,13.9425],[107.0729,13.9501],[107.0663,13.9735]]]}},{"type":"Feature","properties":{"c":"160606","en":"Sameakki","km":"សាមគ្គី"},"geometry":{"type":"Polygon","coordinates":[[[107.1705,13.8291],[107.1603,13.8269],[107.1587,13.8309],[107.1625,13.8453],[107.1589,13.8509],[107.1625,13.8605],[107.1551,13.8739],[107.1557,13.8889],[107.1513,13.8921],[107.1407,13.8891],[107.1289,13.8697],[107.1209,13.8637],[107.1157,13.8515],[107.1091,13.8473],[107.1049,13.8393],[107.0961,13.8313],[107.0857,13.8089],[107.0855,13.7887],[107.0879,13.7855],[107.0889,13.7701],[107.0951,13.7801],[107.1261,13.7815],[107.1371,13.7747],[107.1371,13.7827],[107.1399,13.7855],[107.1493,13.7843],[107.1509,13.7927],[107.1591,13.8029],[107.1719,13.8259],[107.1705,13.8291]]]}}]}