{"type":"FeatureCollection","features":[{"type":"Feature","properties":{"c":"160701","en":"Bar Kham","km":"បរខាំ"},"geometry":{"type":"Polygon","coordinates":[[[107.2919,13.6701],[107.2687,13.6745],[107.2665,13.6573],[107.2679,13.6383],[107.2653,13.6241],[107.2673,13.6021],[107.2699,13.5955],[107.2825,13.5855],[107.2849,13.5761],[107.2933,13.5669],[107.2933,13.5591],[107.2851,13.5491],[107.2853,13.5441],[107.2903,13.5357],[107.2995,13.5283],[107.3001,13.5159],[107.3049,13.5083],[107.3029,13.5043],[107.3063,13.4943],[107.3041,13.4841],[107.3085,13.4785],[107.3103,13.4693],[107.3081,13.4669],[107.3161,13.4583],[107.3141,13.4507],[107.3231,13.4489],[107.3293,13.4425],[107.3393,13.4453],[107.3453,13.4349],[107.3425,13.4321],[107.3425,13.4281],[107.3453,13.4275],[107.3485,13.4199],[107.3555,13.4187],[107.3581,13.4081],[107.3623,13.4051],[107.3617,13.3961],[107.3587,13.3967],[107.3605,13.3925],[107.3757,13.3845],[107.3719,13.3773],[107.3757,13.3569],[107.3647,13.3423],[107.3579,13.3457],[107.3619,13.3343],[107.3583,13.3329],[107.3503,13.3355],[107.3441,13.3285],[107.3427,13.3219],[107.3383,13.3199],[107.3385,13.3161],[107.3469,13.3039],[107.3565,13.2967],[107.3661,13.2797],[107.3703,13.2771],[107.3815,13.2819],[107.3895,13.2805],[107.3957,13.2881],[107.4023,13.2855],[107.4053,13.2867],[107.4029,13.2971],[107.4153,13.3047],[107.4383,13.3121],[107.4485,13.3209],[107.4553,13.3191],[107.4619,13.3429],[107.4563,13.3503],[107.4481,13.3529],[107.4433,13.3577],[107.4415,13.3765],[107.4347,13.3847],[107.4329,13.3911],[107.4207,13.3873],[107.4181,13.3903],[107.4171,13.4047],[107.4065,13.4117],[107.4055,13.4169],[107.4021,13.4193],[107.4051,13.4227],[107.4153,13.4223],[107.4177,13.4241],[107.4083,13.4319],[107.4085,13.4351],[107.4133,13.4383],[107.4115,13.4453],[107.4163,13.4489],[107.4049,13.4543],[107.4069,13.4575],[107.4061,13.4747],[107.3937,13.4955],[107.3897,13.5093],[107.3595,13.5405],[107.3473,13.5571],[107.3281,13.5979],[107.3199,13.6279],[107.3087,13.6511],[107.2947,13.6695],[107.2919,13.6701]]]}},{"type":"Feature","properties":{"c":"160702","en":"Lum Choar","km":"លំជ័រ"},"geometry":{"type":"Polygon","coordinates":[[[107.3721,13.6861],[107.3489,13.7291],[107.3155,13.7585],[107.3049,13.7627],[107.3007,13.7555],[107.2961,13.7565],[107.2895,13.7527],[107.2845,13.7423],[107.2825,13.7245],[107.2767,13.7185],[107.2723,13.7191],[107.2689,13.7161],[107.2715,13.7061],[107.2699,13.7021],[107.2639,13.6983],[107.2687,13.6745],[107.2947,13.6695],[107.3219,13.6773],[107.3571,13.6683],[107.3715,13.6789],[107.3721,13.6861]]]}},{"type":"Feature","properties":{"c":"160704","en":"Pa Te","km":"ប៉ាតេ"},"geometry":{"type":"Polygon","coordinates":[[[107.3605,13.6697],[107.3571,13.6683],[107.3219,13.6773],[107.2947,13.6695],[107.3051,13.6571],[107.3199,13.6279],[107.3269,13.6009],[107.3457,13.5599],[107.3595,13.5405],[107.3897,13.5093],[107.3937,13.4955],[107.4061,13.4747],[107.4069,13.4575],[107.4049,13.4543],[107.4163,13.4489],[107.4115,13.4453],[107.4133,13.4383],[107.4085,13.4351],[107.4083,13.4319],[107.4177,13.4241],[107.4153,13.4223],[107.4051,13.4227],[107.4021,13.4193],[107.4055,13.4169],[107.4065,13.4117],[107.4171,13.4047],[107.4181,13.3903],[107.4207,13.3873],[107.4329,13.3911],[107.4347,13.3847],[107.4415,13.3765],[107.4433,13.3577],[107.4481,13.3529],[107.4563,13.3503],[107.4619,13.3429],[107.4579,13.3309],[107.4673,13.3345],[107.4969,13.2973],[107.5007,13.2967],[107.5073,13.3025],[107.5111,13.3017],[107.5167,13.2957],[107.5329,13.2997],[107.5497,13.2935],[107.5561,13.2873],[107.5649,13.2839],[107.5743,13.2935],[107.5811,13.2953],[107.5845,13.3049],[107.5921,13.3063],[107.6001,13.3019],[107.6029,13.3025],[107.6161,13.3373],[107.6031,13.3497],[107.5861,13.3811],[107.5813,13.3807],[107.5621,13.3973],[107.5387,13.4085],[107.5225,13.4529],[107.5099,13.4767],[107.4743,13.5147],[107.4467,13.5361],[107.4269,13.5681],[107.4101,13.6013],[107.3955,13.6175],[107.3831,13.6395],[107.3605,13.6697]]]}},{"type":"Feature","properties":{"c":"160703","en":"Pak Nhai","km":"ប៉ក់ញ៉ៃ"},"geometry":{"type":"Polygon","coordinates":[[[107.6069,13.5477],[107.5727,13.6247],[107.5707,13.6627],[107.5523,13.6945],[107.5353,13.7423],[107.4979,13.7683],[107.4735,13.7589],[107.4505,13.7623],[107.4291,13.7513],[107.4167,13.7359],[107.4085,13.7303],[107.4329,13.7045],[107.4771,13.6777],[107.5005,13.6517],[107.5053,13.6417],[107.5167,13.6349],[107.5193,13.6309],[107.5159,13.6157],[107.5205,13.5927],[107.5385,13.5687],[107.5513,13.5581],[107.5613,13.5537],[107.5967,13.5473],[107.6069,13.5477]]]}},{"type":"Feature","properties":{"c":"160706","en":"Saom Thum","km":"សោមធំ"},"geometry":{"type":"Polygon","coordinates":[[[107.3593,13.8187],[107.3619,13.8251],[107.3619,13.8387],[107.3423,13.8257],[107.3247,13.8173],[107.3217,13.8093],[107.3257,13.7929],[107.3243,13.7797],[107.3059,13.7739],[107.3039,13.7709],[107.3049,13.7627],[107.3155,13.7585],[107.3489,13.7291],[107.3721,13.6861],[107.4329,13.7045],[107.4085,13.7303],[107.4167,13.7359],[107.3769,13.7993],[107.3723,13.8035],[107.3549,13.8083],[107.3551,13.8127],[107.3593,13.8187]]]}},{"type":"Feature","properties":{"c":"160705","en":"Sesan","km":"សេសាន"},"geometry":{"type":"Polygon","coordinates":[[[107.4519,13.7945],[107.4169,13.7863],[107.3885,13.8075],[107.3635,13.8117],[107.3593,13.8187],[107.3551,13.8127],[107.3549,13.8083],[107.3575,13.8061],[107.3723,13.8035],[107.3769,13.7993],[107.4167,13.7359],[107.4291,13.7513],[107.4425,13.7595],[107.4505,13.7623],[107.4735,13.7589],[107.4979,13.7683],[107.4907,13.7741],[107.4707,13.7791],[107.4519,13.7945]]]}},{"type":"Feature","properties":{"c":"160707","en":"Ya Tung","km":"យ៉ាទុង"},"geometry":{"type":"Polygon","coordinates":[[[107.6069,13.5477],[107.5967,13.5473],[107.5613,13.5537],[107.5421,13.5649],[107.5205,13.5927],[107.5159,13.6157],[107.5193,13.6309],[107.5167,13.6349],[107.5053,13.6417],[107.5005,13.6517],[107.4741,13.6803],[107.4405,13.7009],[107.4329,13.7045],[107.3721,13.6861],[107.3715,13.6789],[107.3605,13.6697],[107.3831,13.6395],[107.3955,13.6175],[107.4101,13.6013],[107.4269,13.5681],[107.4467,13.5361],[107.4743,13.5147],[107.5099,13.4767],[107.5225,13.4529],[107.5387,13.4085],[107.5621,13.3973],[107.5813,13.3807],[107.5861,13.3811],[107.6031,13.3497],[107.6161,13.3373],[107.6277,13.3695],[107.6197,13.5021],[107.6169,13.5259],[107.6069,13.5477]]]}}]}