{"type":"FeatureCollection","features":[{"type":"Feature","properties":{"c":"160802","en":"Ta Veaeng Kraom","km":"តាវែងក្រោម"},"geometry":{"type":"Polygon","coordinates":[[[107.1103,14.3935],[107.1073,14.3965],[107.0935,14.3923],[107.0833,14.3965],[107.0755,14.4147],[107.0783,14.4221],[107.0773,14.4251],[107.0699,14.4295],[107.0629,14.4389],[107.0519,14.4407],[107.0427,14.4487],[107.0397,14.4483],[107.0377,14.4431],[107.0463,14.4249],[107.0457,14.4161],[107.0369,14.4131],[107.0153,14.3955],[107.0141,14.3883],[107.0089,14.3853],[106.9957,14.3571],[106.9899,14.3589],[106.9917,14.3305],[106.9887,14.3163],[106.9909,14.3059],[106.9889,14.2947],[106.9911,14.2817],[106.9953,14.2753],[107.0071,14.2671],[107.0047,14.2597],[107.0081,14.2495],[107.0097,14.2233],[107.0223,14.2067],[107.0301,14.2005],[107.0311,14.1961],[107.0267,14.1847],[107.0339,14.1623],[107.0429,14.1523],[107.0533,14.1515],[107.0525,14.1473],[107.0591,14.1451],[107.0593,14.1343],[107.0555,14.1321],[107.0523,14.1239],[107.0583,14.1175],[107.0649,14.1145],[107.0647,14.1099],[107.0673,14.1065],[107.0679,14.1029],[107.0589,14.0923],[107.0525,14.0939],[107.0489,14.0911],[107.0293,14.0587],[107.0279,14.0435],[107.0549,13.9917],[107.0647,13.9789],[107.0731,13.9883],[107.0757,13.9965],[107.0893,14.0025],[107.0919,14.0061],[107.1043,14.0327],[107.1085,14.0519],[107.1233,14.0677],[107.1205,14.0761],[107.1145,14.0789],[107.1205,14.0839],[107.1211,14.0891],[107.1319,14.0955],[107.1353,14.1013],[107.1497,14.1137],[107.1537,14.1215],[107.1569,14.1205],[107.1559,14.1149],[107.1637,14.1141],[107.1705,14.1189],[107.1733,14.1227],[107.1745,14.1321],[107.1791,14.1389],[107.1777,14.1535],[107.1815,14.1559],[107.1799,14.1627],[107.1829,14.1705],[107.1829,14.1787],[107.1777,14.1857],[107.1839,14.1985],[107.1809,14.2013],[107.1823,14.2131],[107.1805,14.2169],[107.1731,14.2151],[107.1647,14.2185],[107.1619,14.2141],[107.1575,14.2123],[107.1509,14.2231],[107.1507,14.2299],[107.1455,14.2345],[107.1505,14.2397],[107.1479,14.2415],[107.1507,14.2441],[107.1483,14.2457],[107.1433,14.2445],[107.1397,14.2489],[107.1439,14.2535],[107.1367,14.2573],[107.1305,14.2549],[107.1303,14.2579],[107.1231,14.2609],[107.1293,14.2675],[107.1305,14.2771],[107.1249,14.2863],[107.1235,14.2979],[107.1171,14.3057],[107.1141,14.3185],[107.1157,14.3265],[107.1067,14.3463],[107.1119,14.3509],[107.1153,14.3735],[107.1109,14.3801],[107.1103,14.3935]]]}},{"type":"Feature","properties":{"c":"160801","en":"Ta Veaeng Leu","km":"តាវែងលើ"},"geometry":{"type":"Polygon","coordinates":[[[107.3401,14.1321],[107.3533,14.1497],[107.3535,14.1545],[107.3627,14.1629],[107.3591,14.1683],[107.3607,14.1713],[107.3699,14.1799],[107.3767,14.1789],[107.3795,14.1831],[107.3885,14.2071],[107.3905,14.2103],[107.3939,14.2103],[107.3971,14.2227],[107.4071,14.2345],[107.4013,14.2511],[107.4093,14.2643],[107.4069,14.2973],[107.3911,14.3173],[107.3933,14.3285],[107.3995,14.3335],[107.4031,14.3429],[107.4091,14.3489],[107.4093,14.3633],[107.4153,14.3627],[107.4283,14.3763],[107.4397,14.3821],[107.4501,14.4179],[107.4583,14.4125],[107.4633,14.4057],[107.4753,14.4075],[107.4815,14.4037],[107.4893,14.4079],[107.4899,14.4273],[107.4917,14.4321],[107.4977,14.4363],[107.5051,14.4569],[107.5019,14.4663],[107.5061,14.4833],[107.5139,14.4991],[107.5083,14.5077],[107.5163,14.5121],[107.5221,14.5199],[107.5227,14.5277],[107.5281,14.5371],[107.5279,14.5437],[107.5313,14.5461],[107.5321,14.5541],[107.5233,14.5663],[107.5229,14.5775],[107.5185,14.5847],[107.5249,14.5973],[107.5339,14.5991],[107.5427,14.6059],[107.5447,14.6163],[107.5581,14.6225],[107.5581,14.6337],[107.5529,14.6411],[107.5491,14.6579],[107.5547,14.6617],[107.5547,14.6669],[107.5507,14.6743],[107.5509,14.6787],[107.5555,14.6853],[107.5355,14.6891],[107.5271,14.6823],[107.5237,14.6755],[107.5247,14.6647],[107.5175,14.6481],[107.5009,14.6367],[107.4985,14.6291],[107.4929,14.6237],[107.4893,14.6219],[107.4817,14.6249],[107.4763,14.6237],[107.4655,14.6171],[107.4617,14.6067],[107.4673,14.5943],[107.4651,14.5905],[107.4551,14.5887],[107.4535,14.5851],[107.4581,14.5779],[107.4579,14.5745],[107.4553,14.5573],[107.4497,14.5503],[107.4477,14.5423],[107.4537,14.5335],[107.4487,14.5285],[107.4383,14.5245],[107.4211,14.5289],[107.3989,14.5419],[107.3871,14.5381],[107.3855,14.5407],[107.3769,14.5403],[107.3683,14.5467],[107.3645,14.5539],[107.3641,14.5655],[107.3567,14.5733],[107.3449,14.5785],[107.3395,14.5851],[107.3289,14.5911],[107.3189,14.5875],[107.2989,14.5875],[107.2893,14.5809],[107.2877,14.5781],[107.2891,14.5747],[107.2831,14.5707],[107.2825,14.5637],[107.2847,14.5597],[107.2813,14.5483],[107.2745,14.5415],[107.2657,14.5437],[107.2611,14.5413],[107.2539,14.5217],[107.2553,14.4999],[107.2583,14.4935],[107.2545,14.4879],[107.2361,14.4793],[107.2285,14.4849],[107.2201,14.4837],[107.2187,14.4873],[107.2145,14.4885],[107.2065,14.4865],[107.1977,14.4649],[107.1965,14.4491],[107.1899,14.4385],[107.1821,14.4365],[107.1757,14.4315],[107.1733,14.4225],[107.1633,14.4149],[107.1603,14.4147],[107.1575,14.4215],[107.1501,14.4217],[107.1461,14.4149],[107.1347,14.4137],[107.1323,14.4061],[107.1237,14.4035],[107.1215,14.3979],[107.1103,14.3935],[107.1109,14.3801],[107.1153,14.3735],[107.1119,14.3509],[107.1067,14.3463],[107.1157,14.3265],[107.1141,14.3185],[107.1171,14.3057],[107.1235,14.2979],[107.1249,14.2863],[107.1305,14.2771],[107.1293,14.2675],[107.1231,14.2609],[107.1303,14.2579],[107.1305,14.2549],[107.1367,14.2573],[107.1439,14.2535],[107.1397,14.2489],[107.1433,14.2445],[107.1483,14.2457],[107.1507,14.2441],[107.1479,14.2415],[107.1505,14.2397],[107.1455,14.2345],[107.1507,14.2299],[107.1509,14.2231],[107.1575,14.2123],[107.1619,14.2141],[107.1647,14.2185],[107.1731,14.2151],[107.1805,14.2169],[107.1823,14.2131],[107.1809,14.2013],[107.1839,14.1985],[107.1777,14.1857],[107.1829,14.1787],[107.1829,14.1705],[107.1799,14.1627],[107.1815,14.1559],[107.1777,14.1535],[107.1791,14.1389],[107.1745,14.1321],[107.1733,14.1227],[107.1637,14.1141],[107.1559,14.1149],[107.1569,14.1205],[107.1537,14.1215],[107.1497,14.1137],[107.1353,14.1013],[107.1319,14.0955],[107.1211,14.0891],[107.1205,14.0839],[107.1145,14.0789],[107.1205,14.0761],[107.1233,14.0677],[107.1085,14.0519],[107.1043,14.0327],[107.0919,14.0061],[107.0893,14.0025],[107.0757,13.9965],[107.0731,13.9883],[107.0647,13.9789],[107.0747,13.9459],[107.0833,13.9393],[107.1139,13.9379],[107.1323,13.9309],[107.1615,13.9245],[107.1631,13.9289],[107.1561,13.9343],[107.1589,13.9417],[107.1609,13.9633],[107.1629,13.9695],[107.1657,13.9689],[107.1675,13.9723],[107.1635,13.9855],[107.1643,13.9977],[107.1845,14.0013],[107.2341,14.0451],[107.2437,14.0605],[107.2597,14.0769],[107.2795,14.1055],[107.2965,14.1247],[107.3153,14.1343],[107.3293,14.1313],[107.3401,14.1321]]]}}]}