{"type":"FeatureCollection","features":[{"type":"Feature","properties":{"c":"160903","en":"Hat Pak","km":"ហាត់ប៉ក់"},"geometry":{"type":"Polygon","coordinates":[[[106.7457,13.8695],[106.7291,13.8697],[106.7119,13.8807],[106.7021,13.8841],[106.6373,13.8887],[106.6315,13.8713],[106.6341,13.8627],[106.6409,13.8601],[106.6419,13.8571],[106.6503,13.8513],[106.6489,13.8483],[106.6521,13.8385],[106.6581,13.8381],[106.6639,13.8299],[106.6581,13.8231],[106.6623,13.8207],[106.7105,13.8075],[106.7265,13.8071],[106.7351,13.8035],[106.7457,13.7925],[106.7585,13.7919],[106.7697,13.7873],[106.7757,13.7903],[106.8029,13.7733],[106.8123,13.7717],[106.8239,13.7733],[106.8389,13.7809],[106.8495,13.7909],[106.8725,13.7995],[106.8669,13.8057],[106.8527,13.8135],[106.8449,13.8261],[106.8355,13.8331],[106.8203,13.8295],[106.7975,13.8295],[106.7787,13.8325],[106.7655,13.8257],[106.7547,13.8283],[106.7525,13.8425],[106.7447,13.8457],[106.7395,13.8523],[106.7457,13.8695]]]}},{"type":"Feature","properties":{"c":"160904","en":"Ka Choun","km":"កាចូន"},"geometry":{"type":"Polygon","coordinates":[[[106.9817,13.9275],[106.9763,13.9315],[106.9717,13.9405],[106.9651,13.9453],[106.9497,13.9455],[106.9473,13.9589],[106.9399,13.9693],[106.9331,13.9715],[106.9287,13.9689],[106.9029,13.9773],[106.9109,13.9987],[106.9055,14.0151],[106.8817,13.9709],[106.8761,13.9767],[106.8705,13.9891],[106.8665,13.9915],[106.8625,13.9907],[106.8531,13.9789],[106.8517,13.9743],[106.8813,13.9287],[106.9007,13.9213],[106.9149,13.9093],[106.9261,13.9061],[106.9369,13.8915],[106.9439,13.8859],[106.9483,13.8855],[106.9569,13.8981],[106.9651,13.9027],[106.9817,13.9275]]]}},{"type":"Feature","properties":{"c":"160905","en":"Kaoh Pang","km":"កោះប៉ង់"},"geometry":{"type":"Polygon","coordinates":[[[106.9899,14.3589],[106.9783,14.3599],[106.9761,14.3575],[106.9717,14.3407],[106.9785,14.3345],[106.9673,14.3149],[106.9455,14.3151],[106.9377,14.3235],[106.9017,14.3333],[106.8963,14.3327],[106.8951,14.3147],[106.8929,14.3129],[106.8967,14.3059],[106.8979,14.2571],[106.9067,14.2497],[106.9145,14.2355],[106.9071,14.2165],[106.9165,14.1801],[106.9219,14.1395],[106.9225,14.1153],[106.9505,14.0751],[106.9521,14.0679],[106.9609,14.0551],[106.9631,14.0429],[106.9747,14.0297],[106.9907,14.0489],[106.9987,14.0483],[107.0185,14.0399],[107.0279,14.0435],[107.0293,14.0587],[107.0489,14.0911],[107.0525,14.0939],[107.0589,14.0923],[107.0679,14.1029],[107.0649,14.1145],[107.0583,14.1175],[107.0523,14.1239],[107.0555,14.1321],[107.0593,14.1343],[107.0591,14.1451],[107.0525,14.1473],[107.0533,14.1515],[107.0429,14.1523],[107.0339,14.1623],[107.0267,14.1847],[107.0311,14.1961],[107.0301,14.2005],[107.0223,14.2067],[107.0097,14.2233],[107.0081,14.2495],[107.0047,14.2597],[107.0071,14.2671],[106.9953,14.2753],[106.9911,14.2817],[106.9889,14.2947],[106.9909,14.3059],[106.9887,14.3163],[106.9917,14.3305],[106.9899,14.3589]]]}},{"type":"Feature","properties":{"c":"160906","en":"Kaoh Peak","km":"កោះពាក្យ"},"geometry":{"type":"Polygon","coordinates":[[[106.9585,14.0593],[106.8963,14.0605],[106.8947,14.0161],[106.9055,14.0151],[106.9109,13.9987],[106.9029,13.9773],[106.9287,13.9689],[106.9331,13.9715],[106.9399,13.9693],[106.9473,13.9589],[106.9497,13.9455],[106.9651,13.9453],[106.9717,13.9405],[106.9763,13.9315],[106.9817,13.9275],[106.9905,13.9381],[106.9941,13.9475],[106.9931,13.9515],[107.0003,13.9629],[107.0249,13.9697],[107.0497,13.9717],[107.0571,13.9743],[107.0663,13.9735],[107.0279,14.0435],[107.0185,14.0399],[106.9987,14.0483],[106.9907,14.0489],[106.9747,14.0297],[106.9631,14.0429],[106.9585,14.0593]]]}},{"type":"Feature","properties":{"c":"160907","en":"Kok Lak","km":"កុកឡាក់"},"geometry":{"type":"Polygon","coordinates":[[[106.8929,14.3129],[106.8859,14.3139],[106.8797,14.3181],[106.8653,14.3175],[106.8521,14.3031],[106.8505,14.2939],[106.8389,14.2941],[106.8267,14.2883],[106.8221,14.2773],[106.8215,14.2731],[106.8293,14.2551],[106.8325,14.2541],[106.8393,14.2441],[106.8355,14.2385],[106.8409,14.2279],[106.8327,14.2183],[106.8177,14.2161],[106.8177,14.2017],[106.8211,14.1933],[106.8167,14.1873],[106.8211,14.1779],[106.8207,14.1599],[106.8281,14.1349],[106.8309,14.1317],[106.8341,14.1317],[106.8439,14.0943],[106.8575,14.0931],[106.8609,14.0947],[106.8635,14.0927],[106.8605,14.0779],[106.8619,14.0745],[106.8665,14.0741],[106.8695,14.0573],[106.8679,14.0535],[106.8641,14.0555],[106.8611,14.0523],[106.8611,14.0479],[106.8569,14.0429],[106.8597,14.0407],[106.8529,14.0361],[106.8499,14.0155],[106.8427,14.0049],[106.8377,13.9995],[106.8347,14.0013],[106.8233,13.9917],[106.8181,13.9829],[106.8169,13.9789],[106.8401,13.9717],[106.8517,13.9743],[106.8593,13.9871],[106.8665,13.9915],[106.8705,13.9891],[106.8761,13.9767],[106.8817,13.9709],[106.9055,14.0151],[106.8947,14.0161],[106.8963,14.0605],[106.9585,14.0593],[106.9377,14.0959],[106.9225,14.1153],[106.9219,14.1395],[106.9165,14.1801],[106.9071,14.2165],[106.9145,14.2355],[106.9067,14.2497],[106.8979,14.2571],[106.8967,14.3059],[106.8929,14.3129]]]}},{"type":"Feature","properties":{"c":"160908","en":"Pa Kalan","km":"ប៉ាកាឡាន់"},"geometry":{"type":"Polygon","coordinates":[[[106.7743,13.9481],[106.7723,13.9523],[106.7531,13.9689],[106.7453,13.9971],[106.7417,14.0203],[106.7315,14.0193],[106.7261,14.0145],[106.7155,14.0107],[106.7077,14.0051],[106.7033,13.9979],[106.6957,13.9951],[106.6885,13.9985],[106.6731,13.9953],[106.6689,13.9967],[106.6551,13.9867],[106.6301,13.9941],[106.6165,13.9923],[106.6177,13.9879],[106.6125,13.9761],[106.6183,13.9447],[106.6261,13.9347],[106.6251,13.9065],[106.6283,13.8989],[106.6373,13.8887],[106.7021,13.8841],[106.7331,13.8687],[106.7457,13.8695],[106.7467,13.8775],[106.7499,13.8817],[106.7611,13.8887],[106.7569,13.9031],[106.7583,13.9433],[106.7659,13.9485],[106.7743,13.9481]]]}},{"type":"Feature","properties":{"c":"160909","en":"Phnum Kok","km":"ភ្នំកុក"},"geometry":{"type":"Polygon","coordinates":[[[106.9069,13.8637],[106.8915,13.8681],[106.8885,13.8757],[106.8665,13.8923],[106.8515,13.9169],[106.8017,13.9623],[106.7953,13.9533],[106.7949,13.9483],[106.8013,13.9319],[106.8009,13.9267],[106.7965,13.9249],[106.7885,13.9279],[106.7743,13.9481],[106.7659,13.9485],[106.7583,13.9433],[106.7569,13.9031],[106.7611,13.8887],[106.7467,13.8775],[106.7449,13.8641],[106.7395,13.8523],[106.7447,13.8457],[106.7525,13.8425],[106.7547,13.8283],[106.7655,13.8257],[106.7787,13.8325],[106.7975,13.8295],[106.8203,13.8295],[106.8355,13.8331],[106.8449,13.8261],[106.8527,13.8135],[106.8669,13.8057],[106.8797,13.7933],[106.8845,13.7977],[106.8915,13.7953],[106.8983,13.8023],[106.9011,13.8013],[106.9073,13.8065],[106.9177,13.8069],[106.9211,13.8107],[106.9205,13.8233],[106.9105,13.8363],[106.9105,13.8453],[106.9049,13.8605],[106.9069,13.8637]]]}},{"type":"Feature","properties":{"c":"160901","en":"Pong","km":"ប៉ុង"},"geometry":{"type":"Polygon","coordinates":[[[106.8517,13.9743],[106.8401,13.9717],[106.8169,13.9789],[106.8017,13.9623],[106.8515,13.9169],[106.8665,13.8923],[106.8885,13.8757],[106.8915,13.8681],[106.8963,13.8679],[106.8973,13.8651],[106.9015,13.8641],[106.9117,13.8657],[106.9261,13.8781],[106.9305,13.8883],[106.9369,13.8915],[106.9357,13.8947],[106.9261,13.9061],[106.9149,13.9093],[106.9007,13.9213],[106.8813,13.9287],[106.8517,13.9743]]]}},{"type":"Feature","properties":{"c":"160910","en":"Veun Sai","km":"វើនសៃ"},"geometry":{"type":"Polygon","coordinates":[[[106.8389,14.2941],[106.8349,14.3093],[106.8313,14.3121],[106.8159,14.3121],[106.7977,14.3269],[106.7939,14.3407],[106.7871,14.3417],[106.7849,14.3529],[106.7721,14.3715],[106.7697,14.3805],[106.7551,14.3869],[106.7477,14.3623],[106.7471,14.3469],[106.7505,14.2739],[106.7547,14.2435],[106.7595,14.2359],[106.7531,14.2103],[106.7515,14.1737],[106.7533,14.1675],[106.7597,14.1597],[106.7799,14.1097],[106.7893,14.0777],[106.7845,14.0649],[106.7583,14.0281],[106.7493,14.0211],[106.7417,14.0203],[106.7453,13.9971],[106.7531,13.9689],[106.7723,13.9523],[106.7885,13.9279],[106.7965,13.9249],[106.8009,13.9267],[106.8013,13.9319],[106.7949,13.9483],[106.7953,13.9533],[106.8169,13.9789],[106.8233,13.9917],[106.8347,14.0013],[106.8377,13.9995],[106.8427,14.0049],[106.8499,14.0155],[106.8529,14.0361],[106.8597,14.0407],[106.8569,14.0429],[106.8611,14.0479],[106.8611,14.0523],[106.8641,14.0555],[106.8679,14.0535],[106.8695,14.0573],[106.8665,14.0741],[106.8619,14.0745],[106.8605,14.0779],[106.8635,14.0927],[106.8609,14.0947],[106.8575,14.0931],[106.8439,14.0943],[106.8341,14.1317],[106.8309,14.1317],[106.8263,14.1401],[106.8207,14.1599],[106.8211,14.1779],[106.8167,14.1873],[106.8211,14.1933],[106.8177,14.2017],[106.8177,14.2161],[106.8327,14.2183],[106.8409,14.2279],[106.8355,14.2385],[106.8393,14.2441],[106.8325,14.2541],[106.8293,14.2551],[106.8215,14.2731],[106.8235,14.2839],[106.8267,14.2883],[106.8389,14.2941]]]}}]}