{"type":"FeatureCollection","features":[{"type":"Feature","properties":{"c":"170101","en":"Char Chhuk","km":"ចារឈូក"},"geometry":{"type":"Polygon","coordinates":[[[103.6499,13.6325],[103.6489,13.7163],[103.6463,13.7209],[103.6267,13.7127],[103.6253,13.7037],[103.6125,13.6927],[103.6013,13.6901],[103.5927,13.6825],[103.5889,13.6643],[103.5859,13.6609],[103.5881,13.6545],[103.5871,13.6375],[103.5819,13.6323],[103.5891,13.6305],[103.6499,13.6325]]]}},{"type":"Feature","properties":{"c":"170102","en":"Doun Peng","km":"ដូនពេង"},"geometry":{"type":"Polygon","coordinates":[[[103.7635,13.7575],[103.7063,13.7581],[103.7027,13.7639],[103.6917,13.7649],[103.6805,13.7691],[103.6739,13.7629],[103.6699,13.7621],[103.6579,13.7435],[103.6553,13.7369],[103.6577,13.7285],[103.6561,13.7247],[103.6619,13.7157],[103.6845,13.6959],[103.7275,13.6957],[103.7363,13.7079],[103.7409,13.7235],[103.7501,13.7407],[103.7635,13.7575]]]}},{"type":"Feature","properties":{"c":"170103","en":"Kouk Doung","km":"គោកដូង"},"geometry":{"type":"Polygon","coordinates":[[[103.8535,13.7463],[103.8395,13.7519],[103.8121,13.7581],[103.7635,13.7575],[103.7431,13.7281],[103.7339,13.7041],[103.7275,13.6957],[103.7173,13.6889],[103.7161,13.6845],[103.7193,13.6767],[103.7163,13.6699],[103.7187,13.6657],[103.7289,13.6591],[103.7313,13.6499],[103.7351,13.6453],[103.7507,13.6409],[103.7653,13.6317],[103.7723,13.6365],[103.7853,13.6545],[103.7963,13.6589],[103.8373,13.6833],[103.8443,13.6975],[103.8573,13.7113],[103.8811,13.7211],[103.8847,13.7279],[103.8817,13.7309],[103.8647,13.7429],[103.8535,13.7463]]]}},{"type":"Feature","properties":{"c":"170104","en":"Koul","km":"គោល"},"geometry":{"type":"Polygon","coordinates":[[[103.6561,13.7247],[103.6577,13.7285],[103.6553,13.7369],[103.6605,13.7483],[103.6531,13.7461],[103.6479,13.7409],[103.6335,13.7337],[103.6237,13.7333],[103.6133,13.7387],[103.6139,13.6953],[103.6253,13.7037],[103.6267,13.7127],[103.6561,13.7247]]]}},{"type":"Feature","properties":{"c":"170105","en":"Nokor Pheas","km":"នគរភាស"},"geometry":{"type":"Polygon","coordinates":[[[103.7653,13.6317],[103.7547,13.6391],[103.7327,13.6471],[103.7289,13.6591],[103.7187,13.6657],[103.7163,13.6699],[103.7029,13.6641],[103.6855,13.6491],[103.6775,13.6361],[103.6783,13.6315],[103.6751,13.6213],[103.6799,13.6103],[103.6887,13.6001],[103.7025,13.5951],[103.7313,13.5943],[103.7393,13.5959],[103.7639,13.6181],[103.7653,13.6317]]]}},{"type":"Feature","properties":{"c":"170106","en":"Srae Khvav","km":"ស្រែខ្វាវ"},"geometry":{"type":"Polygon","coordinates":[[[103.7417,13.8275],[103.7347,13.8487],[103.7085,13.8397],[103.6577,13.8393],[103.6329,13.8267],[103.6125,13.7825],[103.6133,13.7387],[103.6237,13.7333],[103.6373,13.7345],[103.6531,13.7461],[103.6605,13.7483],[103.6699,13.7621],[103.6739,13.7629],[103.6849,13.7737],[103.7029,13.7811],[103.7101,13.7889],[103.7209,13.7941],[103.7315,13.7943],[103.7365,13.8031],[103.7417,13.8275]]]}},{"type":"Feature","properties":{"c":"170107","en":"Ta Saom","km":"តាសោម"},"geometry":{"type":"Polygon","coordinates":[[[103.7275,13.6957],[103.6845,13.6959],[103.6619,13.7157],[103.6561,13.7247],[103.6463,13.7209],[103.6489,13.7163],[103.6499,13.6325],[103.6655,13.6311],[103.6751,13.6213],[103.6783,13.6315],[103.6775,13.6361],[103.6833,13.6465],[103.7029,13.6641],[103.7163,13.6699],[103.7193,13.6767],[103.7161,13.6845],[103.7173,13.6889],[103.7275,13.6957]]]}}]}