{"type":"FeatureCollection","features":[{"type":"Feature","properties":{"c":"170201","en":"Chob Ta Trav","km":"ជប់តាត្រាវ"},"geometry":{"type":"Polygon","coordinates":[[[103.8619,13.6965],[103.8501,13.7017],[103.8415,13.6935],[103.8373,13.6833],[103.7963,13.6589],[103.7853,13.6545],[103.7723,13.6365],[103.7653,13.6317],[103.7639,13.6181],[103.7527,13.6087],[103.7679,13.5889],[103.7779,13.5799],[103.7823,13.5769],[103.8115,13.5751],[103.8155,13.5805],[103.8569,13.6129],[103.8619,13.6965]]]}},{"type":"Feature","properties":{"c":"170202","en":"Leang Dai","km":"លាងដៃ"},"geometry":{"type":"Polygon","coordinates":[[[103.9133,13.5485],[103.8943,13.5521],[103.8683,13.5525],[103.8523,13.5473],[103.8435,13.5413],[103.8325,13.5127],[103.8281,13.5065],[103.8289,13.4991],[103.8151,13.4905],[103.8077,13.4909],[103.8179,13.4767],[103.8137,13.4697],[103.9109,13.4687],[103.9125,13.4557],[103.9207,13.4571],[103.9249,13.4703],[103.9195,13.4833],[103.9221,13.4935],[103.9145,13.5077],[103.9191,13.5337],[103.9133,13.5485]]]}},{"type":"Feature","properties":{"c":"170203","en":"Peak Snaeng","km":"ពាក់ស្នែង"},"geometry":{"type":"Polygon","coordinates":[[[103.9281,13.6833],[103.9189,13.6923],[103.9115,13.6957],[103.9063,13.6957],[103.8857,13.6873],[103.8739,13.6941],[103.8619,13.6965],[103.8569,13.6129],[103.8155,13.5805],[103.8115,13.5751],[103.8421,13.5453],[103.8435,13.5413],[103.8523,13.5473],[103.8683,13.5525],[103.8943,13.5521],[103.9133,13.5485],[103.9161,13.5495],[103.9191,13.5575],[103.9291,13.5627],[103.9325,13.5675],[103.9329,13.5761],[103.9263,13.5835],[103.9201,13.5981],[103.9241,13.6337],[103.9183,13.6565],[103.9281,13.6833]]]}},{"type":"Feature","properties":{"c":"170204","en":"Svay Chek","km":"ស្វាយចេក"},"geometry":{"type":"Polygon","coordinates":[[[103.8115,13.5751],[103.7823,13.5769],[103.7835,13.5731],[103.7909,13.5667],[103.8087,13.5641],[103.7877,13.5495],[103.7865,13.5437],[103.7783,13.5317],[103.7823,13.5171],[103.7805,13.5067],[103.7969,13.5059],[103.8077,13.4909],[103.8151,13.4905],[103.8289,13.4991],[103.8281,13.5065],[103.8325,13.5127],[103.8435,13.5413],[103.8421,13.5453],[103.8115,13.5751]]]}}]}