{"type":"FeatureCollection","features":[{"type":"Feature","properties":{"c":"170301","en":"Khnar Sanday","km":"ខ្នារសណ្ដាយ"},"geometry":{"type":"Polygon","coordinates":[[[103.9941,13.6157],[103.9911,13.6225],[103.9833,13.6263],[103.9269,13.6255],[103.9235,13.6275],[103.9201,13.5981],[103.9263,13.5835],[103.9329,13.5761],[103.9325,13.5675],[103.9291,13.5627],[103.9191,13.5575],[103.9161,13.5495],[103.9133,13.5485],[103.9191,13.5337],[103.9147,13.5111],[103.9545,13.5077],[103.9627,13.5049],[103.9631,13.5169],[103.9683,13.5393],[103.9667,13.5417],[103.9687,13.5565],[103.9805,13.5849],[103.9907,13.5975],[103.9941,13.6157]]]}},{"type":"Feature","properties":{"c":"170302","en":"Khun Ream","km":"ឃុនរាម"},"geometry":{"type":"Polygon","coordinates":[[[104.0905,13.6621],[104.0903,13.6765],[104.1085,13.7023],[104.1115,13.7109],[104.1129,13.7293],[104.0991,13.7515],[104.0849,13.7533],[104.0779,13.7697],[104.0719,13.7665],[104.0605,13.7513],[104.0531,13.7181],[104.0499,13.7187],[104.0491,13.7223],[104.0509,13.7379],[104.0467,13.7399],[104.0425,13.7387],[104.0393,13.7357],[104.0291,13.7109],[104.0253,13.7085],[104.0139,13.7125],[103.9917,13.7017],[103.9273,13.6803],[103.9183,13.6565],[103.9213,13.6489],[103.9235,13.6275],[103.9269,13.6255],[103.9833,13.6263],[103.9911,13.6225],[103.9941,13.6157],[104.0025,13.6167],[104.0097,13.6245],[104.0227,13.6175],[104.0349,13.6213],[104.0445,13.6203],[104.0655,13.6061],[104.0705,13.6013],[104.0705,13.5975],[104.0771,13.5931],[104.0821,13.6019],[104.0973,13.6049],[104.1021,13.6161],[104.1033,13.6325],[104.0915,13.6489],[104.0905,13.6621]]]}},{"type":"Feature","properties":{"c":"170303","en":"Preah Dak","km":"ព្រះដាក់"},"geometry":{"type":"Polygon","coordinates":[[[103.9627,13.5049],[103.9545,13.5077],[103.9147,13.5111],[103.9161,13.5031],[103.9221,13.4935],[103.9195,13.4833],[103.9249,13.4703],[103.9207,13.4571],[103.9125,13.4557],[103.9215,13.4467],[103.9235,13.4275],[103.9739,13.4255],[103.9693,13.4909],[103.9627,13.5049]]]}},{"type":"Feature","properties":{"c":"170304","en":"Rumchek","km":"រំចេក"},"geometry":{"type":"Polygon","coordinates":[[[103.9963,13.5031],[103.9933,13.5355],[103.9683,13.5393],[103.9631,13.5169],[103.9627,13.5049],[103.9693,13.4909],[103.9703,13.4773],[103.9921,13.4887],[103.9957,13.4955],[103.9963,13.5031]]]}},{"type":"Feature","properties":{"c":"170305","en":"Run Ta Aek","km":"រុនតាឯក"},"geometry":{"type":"Polygon","coordinates":[[[104.1189,13.5017],[103.9963,13.5031],[103.9957,13.4955],[103.9921,13.4887],[103.9703,13.4773],[103.9739,13.4255],[103.9899,13.4231],[104.0153,13.4237],[104.0299,13.4337],[104.0355,13.4479],[104.0491,13.4463],[104.0757,13.4535],[104.0873,13.4455],[104.0977,13.4471],[104.1059,13.4573],[104.1051,13.4779],[104.1155,13.4891],[104.1189,13.5017]]]}},{"type":"Feature","properties":{"c":"170306","en":"Tbaeng","km":"ត្បែង"},"geometry":{"type":"Polygon","coordinates":[[[104.0771,13.5931],[104.0705,13.5975],[104.0705,13.6013],[104.0655,13.6061],[104.0445,13.6203],[104.0349,13.6213],[104.0227,13.6175],[104.0097,13.6245],[104.0025,13.6167],[103.9941,13.6157],[103.9907,13.5975],[103.9805,13.5849],[103.9699,13.5599],[103.9667,13.5417],[103.9683,13.5393],[103.9933,13.5355],[103.9963,13.5031],[104.1189,13.5017],[104.1143,13.5077],[104.1107,13.5207],[104.1039,13.5261],[104.1003,13.5387],[104.0927,13.5435],[104.0755,13.5699],[104.0771,13.5931]]]}}]}