{"type":"FeatureCollection","features":[{"type":"Feature","properties":{"c":"170401","en":"Anlong Samnar","km":"អន្លង់សំណរ"},"geometry":{"type":"Polygon","coordinates":[[[104.3143,13.0669],[104.2865,13.0681],[104.2543,13.0755],[104.2419,13.0725],[104.2219,13.0605],[104.1987,13.0347],[104.1755,13.0193],[104.1765,12.8457],[104.1933,12.8163],[104.2059,12.7797],[104.2099,12.7821],[104.2127,12.7895],[104.2211,12.7999],[104.2281,12.7985],[104.2271,12.8043],[104.2323,12.8087],[104.2325,12.8149],[104.2593,12.8489],[104.2585,12.9615],[104.2729,12.9813],[104.2777,12.9933],[104.2859,13.0019],[104.3143,13.0669]]]}},{"type":"Feature","properties":{"c":"170402","en":"Chi Kraeng","km":"ជីក្រែង"},"geometry":{"type":"Polygon","coordinates":[[[104.3253,13.1131],[104.2847,13.1105],[104.2409,13.0921],[104.1753,13.0695],[104.1755,13.0193],[104.1987,13.0347],[104.2219,13.0605],[104.2419,13.0725],[104.2543,13.0755],[104.2865,13.0681],[104.3143,13.0669],[104.3271,13.0819],[104.3273,13.0889],[104.3331,13.1005],[104.3327,13.1051],[104.3253,13.1131]]]}},{"type":"Feature","properties":{"c":"170403","en":"Kampong Kdei","km":"កំពង់ក្ដី"},"geometry":{"type":"Polygon","coordinates":[[[104.3853,13.1169],[104.3667,13.1345],[104.3603,13.1437],[104.3605,13.1703],[104.3555,13.1829],[104.3499,13.1741],[104.3513,13.1715],[104.3495,13.1673],[104.3463,13.1655],[104.3441,13.1583],[104.3411,13.1563],[104.3409,13.1513],[104.3381,13.1493],[104.3417,13.1435],[104.3379,13.1407],[104.3379,13.1369],[104.3419,13.1297],[104.3379,13.1209],[104.3339,13.1185],[104.3295,13.1193],[104.3253,13.1131],[104.3327,13.1051],[104.3331,13.1005],[104.3273,13.0889],[104.3271,13.0819],[104.3415,13.0849],[104.3507,13.0937],[104.3667,13.0977],[104.3853,13.1169]]]}},{"type":"Feature","properties":{"c":"170404","en":"Khvav","km":"ខ្វាវ"},"geometry":{"type":"Polygon","coordinates":[[[104.6683,13.5297],[104.6501,13.5167],[104.6189,13.5055],[104.5983,13.5235],[104.5693,13.5219],[104.5575,13.5263],[104.5527,13.5259],[104.5317,13.5449],[104.5091,13.5461],[104.4755,13.5527],[104.4569,13.5523],[104.4485,13.5369],[104.4417,13.5321],[104.4301,13.5289],[104.4245,13.5137],[104.4057,13.4971],[104.4017,13.4785],[104.4051,13.4685],[104.4033,13.4655],[104.4061,13.4639],[104.3971,13.4429],[104.3967,13.4333],[104.3925,13.4285],[104.3681,13.4173],[104.3483,13.4261],[104.2931,13.4249],[104.3203,13.4039],[104.3399,13.4007],[104.3499,13.4041],[104.3613,13.4043],[104.3737,13.4015],[104.3855,13.3941],[104.3883,13.3903],[104.3931,13.3637],[104.3983,13.3503],[104.3921,13.3407],[104.3917,13.3337],[104.3887,13.3327],[104.3873,13.3291],[104.3889,13.3211],[104.4135,13.3231],[104.4255,13.3339],[104.4557,13.3295],[104.5027,13.3277],[104.5715,13.3165],[104.5715,13.3233],[104.5679,13.3299],[104.5669,13.3577],[104.5745,13.3847],[104.5869,13.3973],[104.5951,13.4141],[104.6317,13.4409],[104.6393,13.4549],[104.6497,13.4671],[104.6501,13.4949],[104.6771,13.5203],[104.6829,13.5285],[104.6753,13.5345],[104.6683,13.5297]]]}},{"type":"Feature","properties":{"c":"170405","en":"Kouk Thlok Kraom","km":"គោកធ្លកក្រោម"},"geometry":{"type":"Polygon","coordinates":[[[104.3409,13.1513],[104.3247,13.1535],[104.3219,13.1571],[104.3205,13.1779],[104.3231,13.2149],[104.3047,13.2455],[104.2985,13.2351],[104.2959,13.2201],[104.2807,13.1961],[104.2783,13.1843],[104.2689,13.1679],[104.2657,13.1653],[104.2461,13.1629],[104.2279,13.1341],[104.2119,13.1285],[104.1987,13.1267],[104.1751,13.1145],[104.1753,13.0695],[104.2409,13.0921],[104.2847,13.1105],[104.3253,13.1131],[104.3295,13.1193],[104.3339,13.1185],[104.3379,13.1209],[104.3419,13.1297],[104.3379,13.1369],[104.3379,13.1407],[104.3417,13.1435],[104.3381,13.1493],[104.3409,13.1513]]]}},{"type":"Feature","properties":{"c":"170406","en":"Kouk Thlok Leu","km":"គោកធ្លកលើ"},"geometry":{"type":"Polygon","coordinates":[[[104.3173,13.4065],[104.2931,13.4249],[104.2527,13.4227],[104.2459,13.4189],[104.2387,13.4055],[104.2311,13.3995],[104.2267,13.3995],[104.2165,13.4109],[104.2123,13.4123],[104.2117,13.3447],[104.2125,13.3415],[104.2271,13.3495],[104.2551,13.3029],[104.2813,13.2773],[104.2973,13.2577],[104.3231,13.2149],[104.3205,13.1779],[104.3219,13.1571],[104.3247,13.1535],[104.3409,13.1513],[104.3411,13.1563],[104.3513,13.1715],[104.3499,13.1741],[104.3529,13.1807],[104.3631,13.1905],[104.3623,13.1945],[104.3657,13.1975],[104.3703,13.2175],[104.3735,13.2193],[104.3679,13.2253],[104.3761,13.2453],[104.3767,13.2529],[104.3491,13.2709],[104.3137,13.2829],[104.3039,13.2899],[104.3115,13.3189],[104.3083,13.3411],[104.3157,13.3561],[104.3271,13.3713],[104.3289,13.3801],[104.3269,13.3907],[104.3173,13.4065]]]}},{"type":"Feature","properties":{"c":"170407","en":"Lveaeng Ruessei","km":"ល្វែងឫស្សី"},"geometry":{"type":"Polygon","coordinates":[[[104.4747,13.1395],[104.4729,13.1427],[104.4675,13.1409],[104.4429,13.1283],[104.4221,13.1117],[104.4105,13.1057],[104.4129,13.0979],[104.4075,13.0871],[104.3981,13.0837],[104.3889,13.0727],[104.3859,13.0583],[104.3887,13.0417],[104.3611,12.9957],[104.3525,12.9743],[104.3275,12.9427],[104.3199,12.9403],[104.3141,12.9337],[104.2995,12.8789],[104.3039,12.8791],[104.3085,12.8853],[104.3171,12.8847],[104.3343,12.8953],[104.3443,12.8979],[104.3511,12.8953],[104.3607,12.9019],[104.3701,12.9195],[104.3685,12.9259],[104.3717,12.9331],[104.3825,12.9455],[104.3925,12.9553],[104.3969,12.9547],[104.4041,12.9601],[104.4159,12.9783],[104.4241,12.9863],[104.4401,12.9859],[104.4487,13.0017],[104.4561,13.0015],[104.4605,13.0121],[104.4523,13.0239],[104.4527,13.0357],[104.4547,13.0441],[104.4609,13.0495],[104.4655,13.0479],[104.4665,13.0525],[104.4663,13.0641],[104.4707,13.0871],[104.4707,13.1267],[104.4747,13.1395]]]}},{"type":"Feature","properties":{"c":"170408","en":"Pongro Kraom","km":"ពង្រក្រោម"},"geometry":{"type":"Polygon","coordinates":[[[104.5287,13.2003],[104.5049,13.2051],[104.4595,13.2089],[104.4411,13.2063],[104.3951,13.2053],[104.3679,13.2077],[104.3657,13.1975],[104.3623,13.1945],[104.3631,13.1905],[104.3555,13.1829],[104.3605,13.1703],[104.3603,13.1437],[104.3667,13.1345],[104.3853,13.1169],[104.4011,13.1069],[104.4105,13.1057],[104.4221,13.1117],[104.4403,13.1269],[104.4729,13.1427],[104.4729,13.1601],[104.4793,13.1767],[104.4841,13.1819],[104.4967,13.1849],[104.5061,13.1923],[104.5287,13.2003]]]}},{"type":"Feature","properties":{"c":"170409","en":"Pongro Leu","km":"ពង្រលើ"},"geometry":{"type":"Polygon","coordinates":[[[104.5715,13.3165],[104.5027,13.3277],[104.4557,13.3295],[104.4255,13.3339],[104.4135,13.3231],[104.3889,13.3211],[104.3873,13.3291],[104.3887,13.3327],[104.3917,13.3337],[104.3921,13.3407],[104.3983,13.3503],[104.3931,13.3637],[104.3883,13.3903],[104.3855,13.3941],[104.3737,13.4015],[104.3613,13.4043],[104.3499,13.4041],[104.3399,13.4007],[104.3203,13.4039],[104.3269,13.3907],[104.3283,13.3755],[104.3083,13.3411],[104.3115,13.3189],[104.3039,13.2899],[104.3137,13.2829],[104.3491,13.2709],[104.3767,13.2529],[104.3761,13.2453],[104.3679,13.2253],[104.3735,13.2193],[104.3703,13.2175],[104.3679,13.2077],[104.3951,13.2053],[104.4411,13.2063],[104.4595,13.2089],[104.5049,13.2051],[104.5287,13.2003],[104.5491,13.2071],[104.5573,13.2257],[104.5717,13.2737],[104.5649,13.2967],[104.5671,13.3081],[104.5715,13.3165]]]}},{"type":"Feature","properties":{"c":"170410","en":"Ruessei Lok","km":"ឫស្សីលក"},"geometry":{"type":"Polygon","coordinates":[[[104.2783,13.2799],[104.2551,13.3029],[104.2271,13.3495],[104.2125,13.3415],[104.2031,13.3035],[104.2105,13.2925],[104.2117,13.2859],[104.2245,13.2741],[104.1957,13.2535],[104.1749,13.2245],[104.1749,13.1609],[104.2057,13.1839],[104.2233,13.2053],[104.2659,13.2243],[104.2777,13.2471],[104.2783,13.2799]]]}},{"type":"Feature","properties":{"c":"170411","en":"Sangvaeuy","km":"សង្វើយ"},"geometry":{"type":"Polygon","coordinates":[[[104.3047,13.2455],[104.2947,13.2613],[104.2783,13.2799],[104.2777,13.2471],[104.2659,13.2243],[104.2233,13.2053],[104.2057,13.1839],[104.1749,13.1609],[104.1751,13.1145],[104.1987,13.1267],[104.2119,13.1285],[104.2279,13.1341],[104.2461,13.1629],[104.2657,13.1653],[104.2689,13.1679],[104.2783,13.1843],[104.2807,13.1961],[104.2959,13.2201],[104.2985,13.2351],[104.3047,13.2455]]]}},{"type":"Feature","properties":{"c":"170412","en":"Spean Tnaot","km":"ស្ពានត្នោត"},"geometry":{"type":"Polygon","coordinates":[[[104.4105,13.1057],[104.4011,13.1069],[104.3853,13.1169],[104.3667,13.0977],[104.3507,13.0937],[104.3415,13.0849],[104.3271,13.0819],[104.3143,13.0669],[104.2859,13.0019],[104.2777,12.9933],[104.2729,12.9813],[104.2585,12.9615],[104.2593,12.8489],[104.2683,12.8569],[104.2671,12.8641],[104.2705,12.8669],[104.2783,12.8659],[104.2813,12.8697],[104.2805,12.8747],[104.2995,12.8789],[104.3141,12.9337],[104.3199,12.9403],[104.3275,12.9427],[104.3525,12.9743],[104.3611,12.9957],[104.3887,13.0417],[104.3859,13.0583],[104.3889,13.0727],[104.3981,13.0837],[104.4075,13.0871],[104.4129,13.0979],[104.4105,13.1057]]]}}]}