{"type":"FeatureCollection","features":[{"type":"Feature","properties":{"c":"170601","en":"Chanleas Dai","km":"ចន្លាសដៃ"},"geometry":{"type":"Polygon","coordinates":[[[103.5127,13.6819],[103.4967,13.6825],[103.4709,13.6885],[103.4543,13.6975],[103.4379,13.6935],[103.4393,13.6903],[103.4329,13.6819],[103.4423,13.6745],[103.4357,13.6619],[103.4329,13.6455],[103.4325,13.6195],[103.4539,13.5893],[103.4613,13.5915],[103.4869,13.5909],[103.4903,13.6095],[103.4967,13.6173],[103.4977,13.6453],[103.5009,13.6593],[103.5127,13.6819]]]}},{"type":"Feature","properties":{"c":"170602","en":"Kampong Thkov","km":"កំពង់ថ្កូវ"},"geometry":{"type":"Polygon","coordinates":[[[103.4539,13.5893],[103.4325,13.6195],[103.4159,13.6163],[103.4071,13.6117],[103.4071,13.6045],[103.4141,13.6011],[103.4149,13.5973],[103.4129,13.5943],[103.4043,13.5915],[103.4261,13.5849],[103.4505,13.5725],[103.4567,13.5837],[103.4539,13.5893]]]}},{"type":"Feature","properties":{"c":"170603","en":"Kralanh","km":"ក្រឡាញ់"},"geometry":{"type":"Polygon","coordinates":[[[103.4505,13.5725],[103.4261,13.5849],[103.4043,13.5915],[103.4047,13.5881],[103.4123,13.5833],[103.4081,13.5825],[103.4081,13.5787],[103.4119,13.5765],[103.4163,13.5791],[103.4131,13.5711],[103.4031,13.5693],[103.4085,13.5665],[103.4067,13.5635],[103.4093,13.5615],[103.4137,13.5619],[103.4103,13.5515],[103.4179,13.5431],[103.4153,13.5405],[103.4165,13.5367],[103.4249,13.5321],[103.4375,13.5343],[103.4477,13.5305],[103.4521,13.5645],[103.4505,13.5725]]]}},{"type":"Feature","properties":{"c":"170604","en":"Krouch Kor","km":"ក្រូចគរ"},"geometry":{"type":"Polygon","coordinates":[[[103.6139,13.6953],[103.6133,13.7387],[103.6065,13.7341],[103.6001,13.7349],[103.5867,13.7255],[103.5825,13.7289],[103.5679,13.7295],[103.5665,13.7211],[103.5507,13.6985],[103.5567,13.6851],[103.5635,13.6817],[103.5927,13.6825],[103.6013,13.6901],[103.6125,13.6927],[103.6139,13.6953]]]}},{"type":"Feature","properties":{"c":"170605","en":"Roung Kou","km":"រោងគោ"},"geometry":{"type":"Polygon","coordinates":[[[103.5559,13.5861],[103.5021,13.6281],[103.4983,13.6319],[103.4967,13.6173],[103.4903,13.6095],[103.4869,13.5909],[103.4969,13.5895],[103.5067,13.5937],[103.5353,13.5901],[103.5547,13.5817],[103.5559,13.5861]]]}},{"type":"Feature","properties":{"c":"170607","en":"Saen Sokh","km":"សែនសុខ"},"geometry":{"type":"Polygon","coordinates":[[[103.5679,13.7295],[103.5337,13.7459],[103.5241,13.7447],[103.5073,13.7503],[103.5025,13.7495],[103.4881,13.7411],[103.4843,13.7311],[103.4769,13.7249],[103.4745,13.7187],[103.4681,13.7127],[103.4667,13.7071],[103.4543,13.6975],[103.4709,13.6885],[103.4967,13.6825],[103.5593,13.6823],[103.5535,13.6897],[103.5507,13.6985],[103.5665,13.7211],[103.5679,13.7295]]]}},{"type":"Feature","properties":{"c":"170606","en":"Sambuor","km":"សំបួរ"},"geometry":{"type":"Polygon","coordinates":[[[103.4477,13.5305],[103.4375,13.5343],[103.4249,13.5321],[103.4165,13.5367],[103.4151,13.5337],[103.4177,13.5305],[103.4137,13.5289],[103.4129,13.5207],[103.4055,13.5137],[103.4121,13.5007],[103.4079,13.4991],[103.4071,13.4949],[103.4039,13.4979],[103.4035,13.4893],[103.4013,13.4867],[103.4025,13.4793],[103.4003,13.4757],[103.4031,13.4715],[103.4139,13.4657],[103.4129,13.4619],[103.4039,13.4535],[103.4007,13.4357],[103.3941,13.4239],[103.3945,13.4137],[103.4005,13.4085],[103.4117,13.3881],[103.4119,13.3793],[103.4161,13.3683],[103.4227,13.3675],[103.4267,13.3627],[103.4373,13.3585],[103.4405,13.3601],[103.4455,13.3559],[103.4559,13.3533],[103.4631,13.3465],[103.4671,13.3463],[103.4771,13.3537],[103.4937,13.3445],[103.4981,13.3483],[103.4935,13.3551],[103.4905,13.3711],[103.4871,13.3767],[103.4873,13.3867],[103.4845,13.3899],[103.4809,13.4103],[103.4791,13.4371],[103.4737,13.4485],[103.4767,13.4551],[103.4903,13.4625],[103.4903,13.4657],[103.4857,13.4707],[103.4879,13.4739],[103.4783,13.4789],[103.4653,13.4917],[103.4477,13.5305]]]}},{"type":"Feature","properties":{"c":"170608","en":"Snuol","km":"ស្នួល"},"geometry":{"type":"Polygon","coordinates":[[[103.5819,13.6323],[103.5871,13.6375],[103.5881,13.6545],[103.5859,13.6609],[103.5889,13.6643],[103.5927,13.6825],[103.5127,13.6819],[103.5019,13.6621],[103.4977,13.6453],[103.4983,13.6319],[103.5559,13.5861],[103.5577,13.5933],[103.5819,13.6323]]]}},{"type":"Feature","properties":{"c":"170609","en":"Sranal","km":"ស្រណាល"},"geometry":{"type":"Polygon","coordinates":[[[103.5547,13.5817],[103.5353,13.5901],[103.5067,13.5937],[103.4969,13.5895],[103.4613,13.5915],[103.4539,13.5893],[103.4567,13.5837],[103.4505,13.5725],[103.4521,13.5645],[103.4477,13.5305],[103.4563,13.5145],[103.4629,13.4955],[103.4783,13.4789],[103.4879,13.4739],[103.4953,13.4815],[103.4949,13.4897],[103.4997,13.4975],[103.5193,13.5085],[103.5269,13.5277],[103.5359,13.5413],[103.5391,13.5425],[103.5411,13.5487],[103.5471,13.5487],[103.5495,13.5515],[103.5555,13.5675],[103.5547,13.5817]]]}},{"type":"Feature","properties":{"c":"170610","en":"Ta An","km":"តាអាន"},"geometry":{"type":"Polygon","coordinates":[[[103.4325,13.6195],[103.4329,13.6455],[103.4357,13.6619],[103.4423,13.6745],[103.4329,13.6819],[103.4135,13.6721],[103.4135,13.6681],[103.4065,13.6637],[103.4061,13.6593],[103.4009,13.6551],[103.4017,13.6515],[103.3965,13.6461],[103.3983,13.6423],[103.4047,13.6397],[103.4077,13.6335],[103.4053,13.6317],[103.3973,13.6331],[103.3963,13.6257],[103.3903,13.6223],[103.3979,13.6153],[103.3953,13.6093],[103.3991,13.6079],[103.4017,13.6121],[103.4071,13.6117],[103.4159,13.6163],[103.4325,13.6195]]]}}]}