{"type":"FeatureCollection","features":[{"type":"Feature","properties":{"c":"170702","en":"Doun Kaev","km":"ដូនកែវ"},"geometry":{"type":"Polygon","coordinates":[[[103.8077,13.4909],[103.7969,13.5059],[103.7805,13.5067],[103.7823,13.5171],[103.7799,13.5235],[103.7577,13.5171],[103.7309,13.4939],[103.7339,13.4717],[103.7515,13.4489],[103.7639,13.4441],[103.7903,13.4445],[103.7915,13.4493],[103.8061,13.4627],[103.8059,13.4691],[103.8137,13.4697],[103.8179,13.4767],[103.8077,13.4909]]]}},{"type":"Feature","properties":{"c":"170704","en":"Kaev Poar","km":"កែវពណ៌"},"geometry":{"type":"Polygon","coordinates":[[[103.7577,13.3711],[103.7453,13.3847],[103.7429,13.3985],[103.7337,13.3953],[103.7251,13.3867],[103.7091,13.3809],[103.6887,13.3559],[103.6531,13.2891],[103.6549,13.2863],[103.6617,13.2833],[103.6695,13.2747],[103.6783,13.2813],[103.6779,13.2847],[103.6833,13.2861],[103.7041,13.2713],[103.7139,13.2571],[103.7167,13.2561],[103.7151,13.2603],[103.7207,13.2641],[103.7325,13.2601],[103.7441,13.2887],[103.7557,13.3059],[103.7539,13.3361],[103.7499,13.3471],[103.7577,13.3711]]]}},{"type":"Feature","properties":{"c":"170703","en":"Kdei Run","km":"ក្ដីរុន"},"geometry":{"type":"Polygon","coordinates":[[[103.6751,13.6213],[103.6655,13.6311],[103.6499,13.6325],[103.5849,13.6305],[103.5819,13.6323],[103.5741,13.6199],[103.5927,13.6133],[103.6003,13.6025],[103.6019,13.5935],[103.6053,13.5931],[103.6443,13.5977],[103.6577,13.5945],[103.6765,13.6107],[103.6783,13.6137],[103.6751,13.6213]]]}},{"type":"Feature","properties":{"c":"170705","en":"Khnat","km":"ខ្នាត"},"geometry":{"type":"Polygon","coordinates":[[[103.7639,13.4441],[103.7515,13.4489],[103.7461,13.4343],[103.7391,13.4241],[103.7485,13.4159],[103.7429,13.3985],[103.7453,13.3847],[103.7577,13.3711],[103.7683,13.3815],[103.7785,13.3853],[103.7779,13.3975],[103.7817,13.4109],[103.7819,13.4241],[103.7637,13.4263],[103.7639,13.4441]]]}},{"type":"Feature","properties":{"c":"170707","en":"Lvea","km":"ល្វា"},"geometry":{"type":"Polygon","coordinates":[[[103.7309,13.4939],[103.7107,13.5023],[103.6913,13.5167],[103.6595,13.5249],[103.6749,13.5071],[103.6765,13.4991],[103.6585,13.4761],[103.6155,13.3915],[103.5801,13.3139],[103.5869,13.3005],[103.5929,13.2941],[103.6033,13.2955],[103.6183,13.3235],[103.6973,13.4369],[103.7339,13.4717],[103.7309,13.4939]]]}},{"type":"Feature","properties":{"c":"170708","en":"Mukh Paen","km":"មុខប៉ែន"},"geometry":{"type":"Polygon","coordinates":[[[103.6585,13.4761],[103.6343,13.4843],[103.6133,13.4871],[103.6059,13.4959],[103.5867,13.4993],[103.5677,13.5119],[103.5655,13.5085],[103.5481,13.4647],[103.5467,13.4387],[103.5489,13.4225],[103.5691,13.3453],[103.5801,13.3139],[103.6155,13.3915],[103.6585,13.4761]]]}},{"type":"Feature","properties":{"c":"170709","en":"Pou Treay","km":"ពោធិ៍ទ្រាយ"},"geometry":{"type":"Polygon","coordinates":[[[103.5489,13.4225],[103.4797,13.4229],[103.4841,13.3993],[103.4831,13.3953],[103.4873,13.3867],[103.4871,13.3767],[103.4905,13.3711],[103.4923,13.3585],[103.4981,13.3483],[103.5061,13.3527],[103.5231,13.3503],[103.5269,13.3481],[103.5285,13.3409],[103.5429,13.3373],[103.5531,13.3319],[103.5583,13.3135],[103.5665,13.3105],[103.5687,13.3129],[103.5801,13.3139],[103.5691,13.3453],[103.5489,13.4225]]]}},{"type":"Feature","properties":{"c":"170711","en":"Prey Chruk","km":"ព្រៃជ្រូក"},"geometry":{"type":"Polygon","coordinates":[[[103.6019,13.5935],[103.6003,13.6025],[103.5927,13.6133],[103.5741,13.6199],[103.5577,13.5933],[103.5547,13.5817],[103.5555,13.5675],[103.5495,13.5515],[103.5471,13.5487],[103.5411,13.5487],[103.5391,13.5425],[103.5359,13.5413],[103.5269,13.5277],[103.5193,13.5085],[103.4997,13.4975],[103.4949,13.4897],[103.4953,13.4815],[103.4857,13.4707],[103.4903,13.4657],[103.4903,13.4625],[103.4811,13.4587],[103.4741,13.4521],[103.4737,13.4485],[103.4791,13.4371],[103.4797,13.4229],[103.5489,13.4225],[103.5461,13.4517],[103.5481,13.4647],[103.5655,13.5085],[103.5893,13.5369],[103.5845,13.5469],[103.5841,13.5577],[103.5965,13.5783],[103.6019,13.5935]]]}},{"type":"Feature","properties":{"c":"170710","en":"Puok","km":"ពួក"},"geometry":{"type":"Polygon","coordinates":[[[103.7515,13.4489],[103.7339,13.4717],[103.7067,13.4471],[103.6973,13.4369],[103.6183,13.3235],[103.6033,13.2955],[103.6105,13.2923],[103.6137,13.2953],[103.6241,13.2979],[103.6321,13.2957],[103.6311,13.2997],[103.6359,13.3101],[103.7031,13.4109],[103.7127,13.4217],[103.7391,13.4241],[103.7461,13.4343],[103.7515,13.4489]]]}},{"type":"Feature","properties":{"c":"170712","en":"Reul","km":"រើល"},"geometry":{"type":"Polygon","coordinates":[[[103.7823,13.5769],[103.7679,13.5889],[103.7215,13.5503],[103.6569,13.5507],[103.6595,13.5249],[103.6913,13.5167],[103.7107,13.5023],[103.7309,13.4939],[103.7577,13.5171],[103.7799,13.5235],[103.7783,13.5317],[103.7865,13.5437],[103.7877,13.5495],[103.8087,13.5641],[103.7909,13.5667],[103.7835,13.5731],[103.7823,13.5769]]]}},{"type":"Feature","properties":{"c":"170713","en":"Samraong Yea","km":"សំរោងយា"},"geometry":{"type":"Polygon","coordinates":[[[103.7429,13.3985],[103.7485,13.4159],[103.7391,13.4241],[103.7157,13.4223],[103.7103,13.4199],[103.6407,13.3177],[103.6323,13.3037],[103.6321,13.2957],[103.6357,13.2933],[103.6461,13.2933],[103.6531,13.2891],[103.6955,13.3661],[103.7091,13.3809],[103.7251,13.3867],[103.7337,13.3953],[103.7429,13.3985]]]}},{"type":"Feature","properties":{"c":"170701","en":"Sasar Sdam","km":"សសរស្ដម្ភ"},"geometry":{"type":"Polygon","coordinates":[[[103.6569,13.5507],[103.6561,13.5553],[103.6097,13.5321],[103.6015,13.5317],[103.5893,13.5369],[103.5677,13.5119],[103.5867,13.4993],[103.6059,13.4959],[103.6133,13.4871],[103.6343,13.4843],[103.6585,13.4761],[103.6749,13.4949],[103.6769,13.5029],[103.6595,13.5249],[103.6569,13.5507]]]}},{"type":"Feature","properties":{"c":"170715","en":"Trei Nhoar","km":"ត្រីញ័រ"},"geometry":{"type":"Polygon","coordinates":[[[103.7527,13.6087],[103.7393,13.5959],[103.7125,13.5941],[103.6887,13.6001],[103.6783,13.6137],[103.6577,13.5945],[103.6569,13.5507],[103.7215,13.5503],[103.7679,13.5889],[103.7527,13.6087]]]}},{"type":"Feature","properties":{"c":"170716","en":"Yeang","km":"យាង"},"geometry":{"type":"Polygon","coordinates":[[[103.6577,13.5945],[103.6443,13.5977],[103.6019,13.5935],[103.5965,13.5783],[103.5841,13.5577],[103.5845,13.5469],[103.5893,13.5369],[103.6015,13.5317],[103.6133,13.5331],[103.6561,13.5553],[103.6577,13.5945]]]}}]}