{"type":"FeatureCollection","features":[{"type":"Feature","properties":{"c":"170902","en":"Bakong","km":"បាគង"},"geometry":{"type":"Polygon","coordinates":[[[104.0153,13.3751],[104.0069,13.3831],[103.9871,13.3853],[103.9863,13.3817],[103.9653,13.3671],[103.9659,13.3233],[103.9783,13.3265],[103.9917,13.3371],[103.9953,13.3483],[104.0041,13.3419],[104.0079,13.3485],[104.0177,13.3547],[104.0177,13.3723],[104.0153,13.3751]]]}},{"type":"Feature","properties":{"c":"170903","en":"Ballangk","km":"បល្ល័ង្ក"},"geometry":{"type":"Polygon","coordinates":[[[104.0535,13.4471],[104.0355,13.4479],[104.0299,13.4337],[104.0153,13.4237],[103.9899,13.4231],[103.9915,13.4121],[103.9871,13.3853],[104.0069,13.3831],[104.0177,13.3723],[104.0431,13.3739],[104.0537,13.3821],[104.0535,13.4471]]]}},{"type":"Feature","properties":{"c":"170904","en":"Kampong Phluk","km":"កំពង់ភ្លុក"},"geometry":{"type":"Polygon","coordinates":[[[103.9791,13.2815],[103.9603,13.2885],[103.9513,13.2957],[103.9411,13.2905],[103.9365,13.2851],[103.9347,13.2731],[103.9363,13.2573],[103.9349,13.2111],[103.9443,13.2085],[103.9699,13.1949],[103.9869,13.1931],[104.0275,13.1651],[104.0291,13.1787],[104.0271,13.2535],[104.0411,13.2775],[104.0219,13.2877],[104.0177,13.2825],[104.0117,13.2803],[103.9947,13.2811],[103.9867,13.2789],[103.9791,13.2815]]]}},{"type":"Feature","properties":{"c":"170906","en":"Kandaek","km":"កណ្ដែក"},"geometry":{"type":"Polygon","coordinates":[[[103.9659,13.3233],[103.9653,13.3671],[103.9073,13.3659],[103.9071,13.2115],[103.9173,13.2137],[103.9303,13.2091],[103.9349,13.2111],[103.9353,13.2819],[103.9411,13.2905],[103.9513,13.2957],[103.9523,13.3133],[103.9543,13.3165],[103.9659,13.3233]]]}},{"type":"Feature","properties":{"c":"170905","en":"Kantreang","km":"កន្ទ្រាំង"},"geometry":{"type":"Polygon","coordinates":[[[104.0623,13.3699],[104.0539,13.3777],[104.0537,13.3821],[104.0431,13.3739],[104.0177,13.3723],[104.0177,13.3547],[104.0059,13.3459],[104.0041,13.3419],[104.0063,13.3377],[104.0137,13.3299],[104.0197,13.3271],[104.0611,13.3265],[104.0623,13.3699]]]}},{"type":"Feature","properties":{"c":"170907","en":"Mean Chey","km":"មានជ័យ"},"geometry":{"type":"Polygon","coordinates":[[[104.0089,13.3183],[103.9923,13.3203],[103.9887,13.3183],[103.9791,13.2815],[103.9867,13.2789],[103.9947,13.2811],[104.0117,13.2803],[104.0177,13.2825],[104.0219,13.2877],[104.0207,13.3129],[104.0179,13.3159],[104.0089,13.3183]]]}},{"type":"Feature","properties":{"c":"170908","en":"Roluos","km":"រលួស"},"geometry":{"type":"Polygon","coordinates":[[[104.0041,13.3419],[103.9953,13.3483],[103.9917,13.3371],[103.9783,13.3265],[103.9659,13.3233],[103.9543,13.3165],[103.9523,13.3133],[103.9513,13.2957],[103.9603,13.2885],[103.9791,13.2815],[103.9887,13.3183],[103.9923,13.3203],[104.0089,13.3183],[104.0109,13.3215],[104.0137,13.3299],[104.0041,13.3419]]]}},{"type":"Feature","properties":{"c":"170909","en":"Trapeang Thum","km":"ត្រពាំងធំ"},"geometry":{"type":"Polygon","coordinates":[[[104.0611,13.3265],[104.0197,13.3271],[104.0137,13.3299],[104.0089,13.3183],[104.0179,13.3159],[104.0207,13.3129],[104.0219,13.2877],[104.0411,13.2775],[104.0671,13.2897],[104.0757,13.2983],[104.0767,13.3131],[104.0755,13.3193],[104.0651,13.3215],[104.0611,13.3265]]]}}]}