{"type":"FeatureCollection","features":[{"type":"Feature","properties":{"c":"171011","en":"Ampil","km":"សង្កាត់អំពិល"},"geometry":{"type":"Polygon","coordinates":[[[103.9739,13.4255],[103.9235,13.4275],[103.9191,13.4245],[103.9065,13.4109],[103.9073,13.3659],[103.9605,13.3659],[103.9863,13.3817],[103.9915,13.4121],[103.9899,13.4231],[103.9739,13.4255]]]}},{"type":"Feature","properties":{"c":"171007","en":"Chong Khnies","km":"សង្កាត់ចុងឃ្នៀស"},"geometry":{"type":"Polygon","coordinates":[[[103.8651,13.2767],[103.8085,13.2839],[103.8151,13.2785],[103.8165,13.2367],[103.8293,13.2351],[103.8423,13.2279],[103.8553,13.2313],[103.8633,13.2301],[103.8651,13.2767]]]}},{"type":"Feature","properties":{"c":"171006","en":"Chreav","km":"សង្កាត់ជ្រាវ"},"geometry":{"type":"Polygon","coordinates":[[[103.9065,13.3547],[103.8895,13.3583],[103.8685,13.3355],[103.8621,13.3357],[103.8613,13.3209],[103.8641,13.3177],[103.8649,13.2989],[103.8633,13.2301],[103.8835,13.2197],[103.8955,13.2199],[103.9071,13.2115],[103.9065,13.3547]]]}},{"type":"Feature","properties":{"c":"171003","en":"Kok Chak","km":"សង្កាត់គោកចក"},"geometry":{"type":"Polygon","coordinates":[[[103.8677,13.4677],[103.8059,13.4691],[103.8061,13.4627],[103.7915,13.4493],[103.7903,13.4445],[103.8367,13.4437],[103.8387,13.4121],[103.8325,13.3827],[103.8587,13.3695],[103.8615,13.3851],[103.8591,13.4025],[103.8585,13.4525],[103.8595,13.4563],[103.8659,13.4593],[103.8677,13.4677]]]}},{"type":"Feature","properties":{"c":"171012","en":"Krabei Riel","km":"សង្កាត់ក្របីរៀល"},"geometry":{"type":"Polygon","coordinates":[[[103.8089,13.3787],[103.7785,13.3853],[103.7683,13.3815],[103.7577,13.3711],[103.7499,13.3471],[103.7539,13.3361],[103.7557,13.3059],[103.7691,13.3251],[103.7809,13.3337],[103.7955,13.3387],[103.8019,13.3647],[103.8089,13.3787]]]}},{"type":"Feature","properties":{"c":"171005","en":"Nokor Thum","km":"សង្កាត់នគរធំ"},"geometry":{"type":"Polygon","coordinates":[[[103.9125,13.4557],[103.9109,13.4687],[103.8677,13.4677],[103.8659,13.4593],[103.8595,13.4563],[103.8575,13.4407],[103.8595,13.4337],[103.8591,13.4025],[103.8615,13.3851],[103.8749,13.3813],[103.9065,13.3815],[103.9065,13.4109],[103.9235,13.4275],[103.9215,13.4467],[103.9125,13.4557]]]}},{"type":"Feature","properties":{"c":"171004","en":"Sala Kamreuk","km":"សង្កាត់សាលាកំរើក"},"geometry":{"type":"Polygon","coordinates":[[[103.8895,13.3583],[103.8605,13.3617],[103.8477,13.3455],[103.8447,13.3367],[103.8685,13.3355],[103.8895,13.3583]]]}},{"type":"Feature","properties":{"c":"171009","en":"Siem Reab","km":"សង្កាត់សៀមរាប"},"geometry":{"type":"Polygon","coordinates":[[[103.8621,13.3357],[103.8447,13.3367],[103.8239,13.3255],[103.8259,13.3065],[103.8241,13.2973],[103.8205,13.2885],[103.8123,13.2905],[103.8091,13.2881],[103.8085,13.2839],[103.8651,13.2767],[103.8641,13.3177],[103.8613,13.3209],[103.8621,13.3357]]]}},{"type":"Feature","properties":{"c":"171001","en":"Sla Kram","km":"សង្កាត់ស្លក្រាម"},"geometry":{"type":"Polygon","coordinates":[[[103.9065,13.3815],[103.8749,13.3813],[103.8615,13.3851],[103.8573,13.3647],[103.8639,13.3607],[103.9065,13.3547],[103.9065,13.3815]]]}},{"type":"Feature","properties":{"c":"171008","en":"Sngkat Sambuor","km":"សង្កាត់សំបួរ"},"geometry":{"type":"Polygon","coordinates":[[[103.7951,13.2431],[103.7935,13.2591],[103.7951,13.3013],[103.8015,13.3075],[103.8155,13.3321],[103.8191,13.3447],[103.8193,13.3555],[103.8165,13.3621],[103.8059,13.3559],[103.7975,13.3421],[103.7767,13.2955],[103.7733,13.2473],[103.7817,13.2417],[103.7951,13.2431]]]}},{"type":"Feature","properties":{"c":"171010","en":"Srangae","km":"សង្កាត់ស្រង៉ែ"},"geometry":{"type":"MultiPolygon","coordinates":[[[[103.7733,13.2473],[103.7643,13.2491],[103.7325,13.2601],[103.7441,13.2887],[103.7651,13.3211],[103.7809,13.3337],[103.7955,13.3387],[103.7767,13.2955],[103.7745,13.2501],[103.7733,13.2473]]],[[[103.7975,13.3421],[103.8019,13.3647],[103.8075,13.3743],[103.8115,13.3917],[103.8185,13.3871],[103.8325,13.3827],[103.8325,13.3757],[103.8295,13.3713],[103.8059,13.3559],[103.8009,13.3469],[103.7975,13.3421]]]]}},{"type":"Feature","properties":{"c":"171002","en":"Svay Dankum","km":"សង្កាត់ស្វាយដង្គំ"},"geometry":{"type":"Polygon","coordinates":[[[103.8587,13.3695],[103.8325,13.3827],[103.8325,13.3757],[103.8295,13.3713],[103.8165,13.3621],[103.8193,13.3555],[103.8175,13.3383],[103.8059,13.3145],[103.7951,13.3013],[103.7937,13.2789],[103.7951,13.2431],[103.8093,13.2361],[103.8165,13.2367],[103.8151,13.2785],[103.8103,13.2807],[103.8091,13.2881],[103.8123,13.2905],[103.8205,13.2885],[103.8259,13.3065],[103.8239,13.3255],[103.8447,13.3367],[103.8477,13.3455],[103.8605,13.3617],[103.8573,13.3647],[103.8587,13.3695]]]}},{"type":"Feature","properties":{"c":"171013","en":"Tuek Vil","km":"សង្កាត់ទឹកវិល"},"geometry":{"type":"Polygon","coordinates":[[[103.8325,13.3827],[103.8387,13.4121],[103.8367,13.4437],[103.7639,13.4441],[103.7637,13.4263],[103.7819,13.4241],[103.7817,13.4109],[103.7779,13.3975],[103.7785,13.3853],[103.8089,13.3787],[103.8115,13.3917],[103.8185,13.3871],[103.8325,13.3827]]]}}]}