{"type":"FeatureCollection","features":[{"type":"Feature","properties":{"c":"171101","en":"Chan Sa","km":"ចាន់ស"},"geometry":{"type":"Polygon","coordinates":[[[104.1605,13.4795],[104.1467,13.4795],[104.1351,13.4829],[104.1133,13.4233],[104.0963,13.4057],[104.0923,13.3835],[104.0819,13.3745],[104.0695,13.3699],[104.0623,13.3699],[104.0611,13.3265],[104.0651,13.3215],[104.0755,13.3193],[104.0765,13.3035],[104.0829,13.3071],[104.1113,13.3065],[104.1273,13.3297],[104.1343,13.3763],[104.1425,13.4021],[104.1437,13.4311],[104.1493,13.4455],[104.1523,13.4649],[104.1605,13.4795]]]}},{"type":"Feature","properties":{"c":"171102","en":"Dam Daek","km":"ដំដែក"},"geometry":{"type":"Polygon","coordinates":[[[104.1429,13.2763],[104.1231,13.2815],[104.1065,13.2947],[104.1039,13.2933],[104.1013,13.2893],[104.0995,13.2619],[104.0919,13.2567],[104.1061,13.2315],[104.1383,13.2283],[104.1395,13.2501],[104.1377,13.2551],[104.1429,13.2763]]]}},{"type":"Feature","properties":{"c":"171103","en":"Dan Run","km":"ដានរុន"},"geometry":{"type":"Polygon","coordinates":[[[104.0919,13.2567],[104.0793,13.2569],[104.0751,13.2533],[104.0695,13.2413],[104.0583,13.2287],[104.0529,13.2171],[104.0393,13.1991],[104.0291,13.1787],[104.0273,13.1703],[104.0275,13.1651],[104.0553,13.1317],[104.0733,13.1055],[104.0939,13.1435],[104.1305,13.1473],[104.1393,13.1713],[104.1383,13.2283],[104.1061,13.2315],[104.0919,13.2567]]]}},{"type":"Feature","properties":{"c":"171104","en":"Kampong Khleang","km":"កំពង់ឃ្លាំង"},"geometry":{"type":"Polygon","coordinates":[[[104.1749,13.1609],[104.1743,13.1719],[104.1393,13.1713],[104.1305,13.1473],[104.0939,13.1435],[104.0733,13.1055],[104.0953,13.0613],[104.1103,13.0179],[104.1261,12.9613],[104.1357,12.9501],[104.1461,12.9483],[104.1507,12.9395],[104.1587,12.9159],[104.1517,12.8981],[104.1571,12.8755],[104.1765,12.8457],[104.1749,13.1609]]]}},{"type":"Feature","properties":{"c":"171106","en":"Khchas","km":"ខ្ចាស់"},"geometry":{"type":"Polygon","coordinates":[[[104.1113,13.3065],[104.0797,13.3059],[104.0765,13.3035],[104.0757,13.2983],[104.0671,13.2897],[104.0443,13.2803],[104.0349,13.2697],[104.0271,13.2535],[104.0291,13.1787],[104.0419,13.2035],[104.0529,13.2171],[104.0583,13.2287],[104.0695,13.2413],[104.0751,13.2533],[104.0793,13.2569],[104.0919,13.2567],[104.0995,13.2619],[104.1013,13.2893],[104.1097,13.2993],[104.1113,13.3065]]]}},{"type":"Feature","properties":{"c":"171107","en":"Khnar Pou","km":"ខ្នារពោធិ៍"},"geometry":{"type":"Polygon","coordinates":[[[104.1351,13.4829],[104.1319,13.4861],[104.1299,13.4839],[104.1225,13.4889],[104.1217,13.4975],[104.1189,13.5017],[104.1155,13.4891],[104.1051,13.4779],[104.1069,13.4621],[104.1011,13.4495],[104.0905,13.4447],[104.0757,13.4535],[104.0535,13.4471],[104.0539,13.3777],[104.0623,13.3699],[104.0695,13.3699],[104.0819,13.3745],[104.0923,13.3835],[104.0963,13.4057],[104.1133,13.4233],[104.1351,13.4829]]]}},{"type":"Feature","properties":{"c":"171105","en":"Kien Sangkae","km":"កៀនសង្កែ"},"geometry":{"type":"Polygon","coordinates":[[[104.1957,13.2535],[104.1865,13.2525],[104.1749,13.2463],[104.1635,13.2439],[104.1503,13.2441],[104.1395,13.2501],[104.1393,13.1713],[104.1743,13.1719],[104.1749,13.2245],[104.1957,13.2535]]]}},{"type":"Feature","properties":{"c":"171108","en":"Popel","km":"ពពេល"},"geometry":{"type":"Polygon","coordinates":[[[104.1799,13.4781],[104.1711,13.4821],[104.1653,13.4791],[104.1605,13.4795],[104.1523,13.4649],[104.1493,13.4455],[104.1437,13.4311],[104.1425,13.4021],[104.1343,13.3763],[104.1273,13.3297],[104.1381,13.3283],[104.1397,13.3245],[104.1669,13.3235],[104.1699,13.3263],[104.1707,13.3451],[104.1777,13.3577],[104.1759,13.3663],[104.1871,13.3751],[104.2015,13.4069],[104.2019,13.4117],[104.1793,13.4127],[104.1755,13.4151],[104.1731,13.4461],[104.1753,13.4519],[104.1895,13.4651],[104.1905,13.4693],[104.1799,13.4781]]]}},{"type":"Feature","properties":{"c":"171109","en":"Samraong","km":"សំរោង"},"geometry":{"type":"Polygon","coordinates":[[[104.1669,13.3235],[104.1397,13.3245],[104.1381,13.3283],[104.1273,13.3297],[104.1113,13.3065],[104.1115,13.3027],[104.1065,13.2947],[104.1231,13.2815],[104.1429,13.2763],[104.1523,13.2873],[104.1549,13.2977],[104.1649,13.3125],[104.1669,13.3235]]]}},{"type":"Feature","properties":{"c":"171110","en":"Ta Yaek","km":"តាយ៉ែក"},"geometry":{"type":"Polygon","coordinates":[[[104.2125,13.3415],[104.2123,13.4123],[104.2019,13.4117],[104.1921,13.3833],[104.1849,13.3725],[104.1759,13.3663],[104.1777,13.3577],[104.1707,13.3451],[104.1699,13.3263],[104.1669,13.3235],[104.1649,13.3125],[104.1549,13.2977],[104.1523,13.2873],[104.1429,13.2763],[104.1377,13.2551],[104.1395,13.2501],[104.1503,13.2441],[104.1721,13.2455],[104.1865,13.2525],[104.1957,13.2535],[104.2245,13.2741],[104.2117,13.2859],[104.2105,13.2925],[104.2031,13.3035],[104.2125,13.3415]]]}}]}