{"type":"FeatureCollection","features":[{"type":"Feature","properties":{"c":"171201","en":"Chrouy Neang Nguon","km":"ជ្រោយនាងងួន"},"geometry":{"type":"Polygon","coordinates":[[[103.5337,13.8989],[103.5319,13.9025],[103.5301,13.8977],[103.5233,13.8983],[103.5119,13.8855],[103.5091,13.8617],[103.5039,13.8557],[103.4967,13.8325],[103.4967,13.8191],[103.4987,13.8151],[103.5141,13.7989],[103.5267,13.7977],[103.5605,13.8037],[103.5905,13.8043],[103.6023,13.8101],[103.6213,13.8031],[103.6307,13.8249],[103.6477,13.8327],[103.6341,13.8475],[103.5981,13.8271],[103.5697,13.8343],[103.5621,13.8403],[103.5499,13.8573],[103.5409,13.8627],[103.5347,13.8841],[103.5337,13.8989]]]}},{"type":"Feature","properties":{"c":"171202","en":"Klang Hay","km":"ក្លាំងហាយ"},"geometry":{"type":"Polygon","coordinates":[[[103.4887,13.8999],[103.4807,13.9019],[103.4735,13.8931],[103.4701,13.8923],[103.4677,13.8947],[103.4547,13.8871],[103.4589,13.8769],[103.4677,13.8681],[103.4759,13.8327],[103.4967,13.8325],[103.5039,13.8557],[103.5091,13.8617],[103.5119,13.8855],[103.5233,13.8983],[103.5189,13.8967],[103.5163,13.8999],[103.4887,13.8999]]]}},{"type":"Feature","properties":{"c":"171204","en":"Moung","km":"មោង"},"geometry":{"type":"Polygon","coordinates":[[[103.6213,13.8031],[103.6023,13.8101],[103.5905,13.8043],[103.5605,13.8037],[103.5267,13.7977],[103.5141,13.7989],[103.5013,13.7685],[103.4961,13.7455],[103.5073,13.7503],[103.5241,13.7447],[103.5337,13.7459],[103.5679,13.7295],[103.5825,13.7289],[103.5867,13.7255],[103.6001,13.7349],[103.6027,13.7333],[103.6101,13.7355],[103.6133,13.7387],[103.6135,13.7429],[103.6125,13.7825],[103.6213,13.8031]]]}},{"type":"Feature","properties":{"c":"171205","en":"Prei","km":"ប្រីយ៍"},"geometry":{"type":"Polygon","coordinates":[[[103.4967,13.8325],[103.4759,13.8327],[103.4677,13.8681],[103.4589,13.8769],[103.4547,13.8871],[103.4485,13.8833],[103.4445,13.8837],[103.4441,13.8801],[103.4407,13.8775],[103.4385,13.8803],[103.4289,13.8801],[103.4259,13.8773],[103.4307,13.8669],[103.4277,13.8653],[103.4275,13.8583],[103.4237,13.8593],[103.4217,13.8563],[103.4239,13.8531],[103.4257,13.8365],[103.4233,13.8345],[103.4277,13.8251],[103.4319,13.8245],[103.4299,13.8205],[103.4321,13.8171],[103.4443,13.8181],[103.4643,13.8071],[103.4731,13.8067],[103.4815,13.8003],[103.5027,13.7975],[103.5141,13.7989],[103.4987,13.8151],[103.4967,13.8191],[103.4967,13.8325]]]}},{"type":"Feature","properties":{"c":"171206","en":"Slaeng Spean","km":"ស្លែងស្ពាន"},"geometry":{"type":"Polygon","coordinates":[[[103.6819,13.9603],[103.6615,13.9649],[103.6627,13.9687],[103.6535,13.9683],[103.6515,13.9709],[103.6465,13.9665],[103.6469,13.9633],[103.6355,13.9717],[103.6325,13.9695],[103.6325,13.9661],[103.6295,13.9667],[103.6269,13.9641],[103.6299,13.9617],[103.6245,13.9593],[103.6197,13.9619],[103.6197,13.9547],[103.6167,13.9549],[103.6161,13.9491],[103.6053,13.9459],[103.6033,13.9415],[103.5935,13.9333],[103.5927,13.9261],[103.5891,13.9295],[103.5853,13.9295],[103.5787,13.9265],[103.5799,13.9201],[103.5727,13.9151],[103.5687,13.9167],[103.5703,13.9097],[103.5681,13.9059],[103.5563,13.9085],[103.5545,13.9019],[103.5523,13.9053],[103.5375,13.8965],[103.5337,13.8989],[103.5347,13.8841],[103.5409,13.8627],[103.5499,13.8573],[103.5621,13.8403],[103.5697,13.8343],[103.5939,13.8269],[103.6025,13.8283],[103.6341,13.8475],[103.6477,13.8327],[103.6577,13.8393],[103.7085,13.8397],[103.7271,13.8449],[103.7293,13.8993],[103.7073,13.9267],[103.6899,13.9549],[103.6819,13.9603]]]}},{"type":"Feature","properties":{"c":"171203","en":"Tram Sasar","km":"ត្រាំសសរ"},"geometry":{"type":"Polygon","coordinates":[[[103.4195,13.7369],[103.4225,13.7337],[103.4287,13.7363],[103.4257,13.7331],[103.4225,13.7337],[103.4217,13.7295],[103.4277,13.7249],[103.4209,13.7229],[103.4231,13.7159],[103.4213,13.7127],[103.4217,13.7087],[103.4285,13.7051],[103.4323,13.6965],[103.4379,13.6935],[103.4543,13.6975],[103.4667,13.7071],[103.4681,13.7127],[103.4745,13.7187],[103.4769,13.7249],[103.4843,13.7311],[103.4855,13.7381],[103.4961,13.7455],[103.5013,13.7685],[103.5141,13.7989],[103.5027,13.7975],[103.4815,13.8003],[103.4731,13.8067],[103.4643,13.8071],[103.4579,13.8121],[103.4409,13.8183],[103.4377,13.8119],[103.4309,13.8073],[103.4309,13.8021],[103.4221,13.7969],[103.4249,13.7951],[103.4275,13.7971],[103.4279,13.7931],[103.4229,13.7891],[103.4257,13.7831],[103.4245,13.7791],[103.4159,13.7781],[103.4141,13.7749],[103.4121,13.7783],[103.4101,13.7761],[103.4117,13.7719],[103.4153,13.7697],[103.4183,13.7707],[103.4239,13.7657],[103.4243,13.7547],[103.4301,13.7535],[103.4287,13.7499],[103.4217,13.7465],[103.4207,13.7431],[103.4237,13.7437],[103.4229,13.7395],[103.4195,13.7369]]]}}]}