{"type":"FeatureCollection","features":[{"type":"Feature","properties":{"c":"171301","en":"Boeng Mealea","km":"បឹងមាលា"},"geometry":{"type":"Polygon","coordinates":[[[104.4023,13.4823],[104.3459,13.4807],[104.3161,13.4863],[104.2919,13.4875],[104.2521,13.5003],[104.2187,13.5027],[104.2113,13.5071],[104.2077,13.5023],[104.1901,13.4905],[104.1799,13.4781],[104.1905,13.4693],[104.1895,13.4651],[104.1753,13.4519],[104.1731,13.4461],[104.1755,13.4151],[104.1793,13.4127],[104.2123,13.4123],[104.2165,13.4109],[104.2267,13.3995],[104.2311,13.3995],[104.2387,13.4055],[104.2459,13.4189],[104.2557,13.4235],[104.3483,13.4261],[104.3645,13.4177],[104.3709,13.4181],[104.3901,13.4269],[104.3967,13.4333],[104.3971,13.4429],[104.4061,13.4639],[104.4033,13.4655],[104.4051,13.4685],[104.4023,13.4823]]]}},{"type":"Feature","properties":{"c":"171302","en":"Kantuot","km":"កន្ទួត"},"geometry":{"type":"Polygon","coordinates":[[[104.4219,13.9389],[104.4163,13.9349],[104.4069,13.9527],[104.3909,13.9625],[104.3689,13.9611],[104.3603,13.9645],[104.3487,13.9537],[104.3339,13.9581],[104.3049,13.9557],[104.2909,13.9601],[104.2825,13.9589],[104.2727,13.9527],[104.2669,13.9575],[104.2607,13.9579],[104.2161,13.9283],[104.1919,13.9345],[104.1747,13.9517],[104.1629,13.9563],[104.1479,13.9597],[104.1115,13.9549],[104.1111,13.9125],[104.0999,13.8983],[104.0971,13.8899],[104.0993,13.8705],[104.1075,13.8579],[104.1077,13.8455],[104.1031,13.8393],[104.1035,13.8357],[104.1119,13.7959],[104.1157,13.7891],[104.0779,13.7697],[104.0849,13.7533],[104.0991,13.7515],[104.1129,13.7293],[104.1115,13.7109],[104.1085,13.7023],[104.0903,13.6765],[104.0905,13.6621],[104.1013,13.6541],[104.1209,13.6487],[104.1275,13.6373],[104.1435,13.6471],[104.2077,13.6735],[104.2269,13.6951],[104.2527,13.7101],[104.2887,13.7375],[104.3115,13.7517],[104.3461,13.7639],[104.3975,13.7767],[104.3859,13.8067],[104.3821,13.8097],[104.3645,13.8071],[104.3613,13.8079],[104.3583,13.8135],[104.3675,13.8257],[104.3689,13.8387],[104.3783,13.8379],[104.3815,13.8431],[104.3823,13.8515],[104.3897,13.8555],[104.3903,13.8591],[104.3957,13.8643],[104.3903,13.8685],[104.3907,13.8721],[104.3993,13.8917],[104.4173,13.8917],[104.4171,13.8957],[104.4075,13.9047],[104.4115,13.9131],[104.4227,13.9219],[104.4263,13.9353],[104.4253,13.9385],[104.4219,13.9389]]]}},{"type":"Feature","properties":{"c":"171303","en":"Khnang Phnum","km":"ខ្នងភ្នំ"},"geometry":{"type":"Polygon","coordinates":[[[104.1275,13.6373],[104.1209,13.6487],[104.1013,13.6541],[104.0905,13.6621],[104.0915,13.6489],[104.1033,13.6325],[104.1021,13.6161],[104.0973,13.6049],[104.0821,13.6019],[104.0793,13.5993],[104.0755,13.5699],[104.0927,13.5435],[104.1003,13.5387],[104.1039,13.5261],[104.1107,13.5207],[104.1143,13.5077],[104.1217,13.4975],[104.1225,13.4889],[104.1299,13.4839],[104.1319,13.4861],[104.1351,13.4829],[104.1467,13.4795],[104.1653,13.4791],[104.1711,13.4821],[104.1799,13.4781],[104.1953,13.4951],[104.2099,13.5041],[104.2135,13.5259],[104.2177,13.5325],[104.2267,13.5393],[104.2301,13.5463],[104.2303,13.5571],[104.2345,13.5709],[104.2331,13.5821],[104.2271,13.5889],[104.1975,13.5957],[104.1633,13.6165],[104.1529,13.6195],[104.1451,13.6289],[104.1275,13.6373]]]}},{"type":"Feature","properties":{"c":"171304","en":"Svay Leu","km":"ស្វាយលើ"},"geometry":{"type":"Polygon","coordinates":[[[104.4263,13.6323],[104.4169,13.6357],[104.3999,13.6355],[104.3723,13.6213],[104.3119,13.6111],[104.3031,13.6077],[104.2959,13.5937],[104.2861,13.5905],[104.2791,13.5845],[104.2347,13.5765],[104.2301,13.5463],[104.2267,13.5393],[104.2177,13.5325],[104.2135,13.5259],[104.2113,13.5071],[104.2187,13.5027],[104.2521,13.5003],[104.2919,13.4875],[104.3161,13.4863],[104.3459,13.4807],[104.4023,13.4823],[104.4057,13.4971],[104.4245,13.5137],[104.4301,13.5289],[104.4451,13.5339],[104.4569,13.5523],[104.4177,13.5553],[104.4093,13.5577],[104.4077,13.5613],[104.4111,13.5681],[104.4065,13.5765],[104.4025,13.5957],[104.4091,13.6069],[104.4233,13.6131],[104.4263,13.6323]]]}},{"type":"Feature","properties":{"c":"171305","en":"Ta Siem","km":"តាសៀម"},"geometry":{"type":"Polygon","coordinates":[[[104.4263,13.6323],[104.4345,13.6485],[104.4403,13.6539],[104.4397,13.6697],[104.4287,13.6791],[104.4281,13.6879],[104.4321,13.7001],[104.4285,13.7111],[104.4283,13.7209],[104.4205,13.7353],[104.4129,13.7405],[104.4083,13.7513],[104.4149,13.7655],[104.4129,13.7689],[104.3975,13.7767],[104.3461,13.7639],[104.3115,13.7517],[104.2887,13.7375],[104.2527,13.7101],[104.2269,13.6951],[104.2077,13.6735],[104.1435,13.6471],[104.1275,13.6373],[104.1451,13.6289],[104.1529,13.6195],[104.1633,13.6165],[104.1975,13.5957],[104.2271,13.5889],[104.2305,13.5865],[104.2347,13.5765],[104.2791,13.5845],[104.2861,13.5905],[104.2959,13.5937],[104.3031,13.6077],[104.3119,13.6111],[104.3723,13.6213],[104.3999,13.6355],[104.4169,13.6357],[104.4263,13.6323]]]}}]}