{"type":"FeatureCollection","features":[{"type":"Feature","properties":{"c":"171402","en":"Lvea Krang","km":"ល្វាក្រាំង"},"geometry":{"type":"Polygon","coordinates":[[[103.9545,13.9669],[103.8883,13.9655],[103.8843,13.9477],[103.8781,13.8923],[103.8641,13.8531],[103.8519,13.8271],[103.9149,13.7773],[103.9267,13.8273],[103.9339,13.8755],[103.9487,13.9235],[103.9545,13.9669]]]}},{"type":"Feature","properties":{"c":"171401","en":"Prasat","km":"ប្រាសាទ"},"geometry":{"type":"Polygon","coordinates":[[[103.8519,13.8271],[103.7781,13.8829],[103.7461,13.8891],[103.7293,13.8993],[103.7271,13.8449],[103.7347,13.8487],[103.7417,13.8275],[103.7485,13.8303],[103.7523,13.8293],[103.8001,13.8101],[103.8407,13.7897],[103.8535,13.7463],[103.8647,13.7429],[103.8847,13.7279],[103.8811,13.7211],[103.8573,13.7113],[103.8501,13.7017],[103.8739,13.6941],[103.8857,13.6873],[103.9063,13.6957],[103.9115,13.6957],[103.9189,13.6923],[103.9281,13.6833],[103.9283,13.7469],[103.9251,13.7633],[103.9149,13.7773],[103.8519,13.8271]]]}},{"type":"Feature","properties":{"c":"171403","en":"Srae Nouy","km":"ស្រែណូយ"},"geometry":{"type":"Polygon","coordinates":[[[104.1115,13.9549],[104.1129,13.9667],[103.9545,13.9669],[103.9487,13.9235],[103.9339,13.8755],[103.9267,13.8273],[103.9149,13.7773],[103.9271,13.7571],[103.9289,13.6927],[103.9273,13.6803],[103.9917,13.7017],[104.0139,13.7125],[104.0253,13.7085],[104.0309,13.7137],[104.0393,13.7357],[104.0425,13.7387],[104.0467,13.7399],[104.0509,13.7379],[104.0491,13.7223],[104.0499,13.7187],[104.0531,13.7181],[104.0605,13.7513],[104.0689,13.7633],[104.0821,13.7735],[104.1157,13.7891],[104.1119,13.7959],[104.1035,13.8357],[104.1031,13.8393],[104.1077,13.8455],[104.1075,13.8579],[104.0993,13.8705],[104.0971,13.8899],[104.0999,13.8983],[104.1111,13.9125],[104.1115,13.9549]]]}},{"type":"Feature","properties":{"c":"171404","en":"Svay Sa","km":"ស្វាយ ស"},"geometry":{"type":"Polygon","coordinates":[[[103.8535,13.7463],[103.8407,13.7897],[103.8001,13.8101],[103.7485,13.8303],[103.7417,13.8275],[103.7365,13.8031],[103.7315,13.7943],[103.7251,13.7953],[103.7101,13.7889],[103.7055,13.7827],[103.6893,13.7763],[103.6805,13.7691],[103.6917,13.7649],[103.7027,13.7639],[103.7063,13.7581],[103.8121,13.7581],[103.8395,13.7519],[103.8535,13.7463]]]}},{"type":"Feature","properties":{"c":"171405","en":"Varin","km":"វ៉ារិន"},"geometry":{"type":"Polygon","coordinates":[[[103.8883,13.9655],[103.6887,13.9649],[103.6819,13.9603],[103.6899,13.9549],[103.7073,13.9267],[103.7293,13.8993],[103.7461,13.8891],[103.7781,13.8829],[103.8519,13.8271],[103.8641,13.8531],[103.8781,13.8923],[103.8843,13.9477],[103.8883,13.9655]]]}}]}