{"type":"FeatureCollection","features":[{"type":"Feature","properties":{"c":"180103","en":"Bei","km":"សង្កាត់៣"},"geometry":{"type":"MultiPolygon","coordinates":[[[[103.4255,10.6107],[103.4097,10.6105],[103.4151,10.6149],[103.4291,10.6121],[103.4255,10.6107]]],[[[103.4851,10.6319],[103.4877,10.6285],[103.4831,10.6233],[103.4797,10.6231],[103.4729,10.6277],[103.4747,10.6331],[103.4775,10.6299],[103.4851,10.6319]]],[[[103.5227,10.6407],[103.5221,10.6337],[103.5147,10.6263],[103.5123,10.6195],[103.5143,10.6153],[103.5127,10.6103],[103.5063,10.6099],[103.5037,10.6073],[103.4907,10.6209],[103.4907,10.6241],[103.4985,10.6337],[103.5007,10.6461],[103.5127,10.6479],[103.5165,10.6505],[103.5199,10.6587],[103.5315,10.6533],[103.5303,10.6489],[103.5293,10.6449],[103.5227,10.6407]]]]}},{"type":"Feature","properties":{"c":"180104","en":"Buon","km":"សង្កាត់៤"},"geometry":{"type":"Polygon","coordinates":[[[103.5807,10.5963],[103.5593,10.6115],[103.5525,10.6253],[103.5393,10.6313],[103.5347,10.6315],[103.5269,10.6219],[103.5217,10.6205],[103.5137,10.6225],[103.5123,10.6195],[103.5143,10.6153],[103.5127,10.6103],[103.5171,10.6059],[103.5207,10.6069],[103.5297,10.6005],[103.5611,10.5581],[103.5617,10.5713],[103.5683,10.5749],[103.5697,10.5793],[103.5649,10.5917],[103.5673,10.5947],[103.5807,10.5963]]]}},{"type":"Feature","properties":{"c":"180105","en":"Kaoh Rung","km":"សង្កាត់កោះរ៉ុង"},"geometry":{"type":"MultiPolygon","coordinates":[[[[103.3191,10.6123],[103.3223,10.6113],[103.3231,10.6071],[103.3039,10.6045],[103.3019,10.6009],[103.3039,10.5969],[103.3105,10.5923],[103.3053,10.5871],[103.3051,10.5833],[103.3109,10.5769],[103.3219,10.5719],[103.3257,10.5733],[103.3313,10.5885],[103.3345,10.5875],[103.3357,10.5801],[103.3393,10.5753],[103.3267,10.5629],[103.3243,10.5435],[103.3193,10.5427],[103.3113,10.5453],[103.3121,10.5539],[103.3023,10.5679],[103.2953,10.5667],[103.2947,10.5773],[103.2841,10.5861],[103.2795,10.6061],[103.2793,10.6101],[103.2839,10.6163],[103.2929,10.6227],[103.2979,10.6177],[103.3025,10.6171],[103.3125,10.6247],[103.3169,10.6221],[103.3157,10.6183],[103.3191,10.6123]]],[[[103.2965,10.6281],[103.2983,10.6345],[103.3027,10.6359],[103.3045,10.6323],[103.3025,10.6285],[103.2993,10.6267],[103.2965,10.6281]]],[[[103.2585,10.7413],[103.2533,10.7353],[103.2571,10.7265],[103.2607,10.7263],[103.2617,10.7221],[103.2661,10.7185],[103.2715,10.7239],[103.2757,10.7223],[103.2829,10.7255],[103.2869,10.7241],[103.2957,10.7105],[103.2913,10.7051],[103.2933,10.7023],[103.3023,10.7011],[103.3091,10.7115],[103.3133,10.7105],[103.3153,10.6995],[103.3109,10.6907],[103.2963,10.6789],[103.2927,10.6827],[103.2807,10.6791],[103.2769,10.6703],[103.2737,10.6689],[103.2721,10.6589],[103.2683,10.6529],[103.2649,10.6519],[103.2599,10.6559],[103.2561,10.6835],[103.2499,10.6987],[103.2447,10.7051],[103.2337,10.7099],[103.2299,10.7091],[103.2269,10.7029],[103.2235,10.7021],[103.2105,10.7057],[103.2017,10.7169],[103.2039,10.7213],[103.2009,10.7271],[103.2023,10.7347],[103.1937,10.7387],[103.1879,10.7329],[103.1825,10.7365],[103.1909,10.7539],[103.1907,10.7663],[103.1949,10.7711],[103.2023,10.7705],[103.2091,10.7661],[103.2203,10.7655],[103.2287,10.7717],[103.2309,10.7797],[103.2453,10.7773],[103.2555,10.7729],[103.2553,10.7697],[103.2497,10.7667],[103.2569,10.7517],[103.2585,10.7413]]]]}},{"type":"Feature","properties":{"c":"180101","en":"Lek Muoy","km":"សង្កាត់លេខ១"},"geometry":{"type":"Polygon","coordinates":[[[103.5773,10.6563],[103.5677,10.6697],[103.5669,10.6933],[103.5445,10.6953],[103.5399,10.6823],[103.5341,10.6815],[103.5255,10.6691],[103.5211,10.6671],[103.5199,10.6587],[103.5315,10.6533],[103.5293,10.6449],[103.5227,10.6407],[103.5235,10.6369],[103.5525,10.6253],[103.5593,10.6115],[103.5649,10.6059],[103.5903,10.5923],[103.5923,10.5987],[103.5865,10.6105],[103.5867,10.6337],[103.5773,10.6563]]]}},{"type":"Feature","properties":{"c":"180102","en":"Pir","km":"សង្កាត់២"},"geometry":{"type":"Polygon","coordinates":[[[103.5347,10.6315],[103.5235,10.6369],[103.5137,10.6225],[103.5217,10.6205],[103.5269,10.6219],[103.5347,10.6315]]]}}]}