{"type":"FeatureCollection","features":[{"type":"Feature","properties":{"c":"180201","en":"Andoung Thma","km":"អណ្ដូងថ្ម"},"geometry":{"type":"Polygon","coordinates":[[[103.8613,10.6645],[103.8503,10.6625],[103.7717,10.6869],[103.7479,10.6917],[103.7327,10.6913],[103.7323,10.6869],[103.7295,10.6855],[103.7211,10.6881],[103.7175,10.6871],[103.7117,10.6811],[103.6827,10.6659],[103.7575,10.6655],[103.7625,10.6641],[103.7645,10.6555],[103.7693,10.6537],[103.8321,10.6421],[103.8427,10.6461],[103.8531,10.6453],[103.8537,10.6533],[103.8613,10.6569],[103.8613,10.6645]]]}},{"type":"Feature","properties":{"c":"180203","en":"Bet Trang","km":"បិតត្រាង"},"geometry":{"type":"Polygon","coordinates":[[[103.6433,10.6511],[103.6315,10.6577],[103.6215,10.6681],[103.6091,10.6741],[103.5955,10.6667],[103.5833,10.6661],[103.5809,10.6635],[103.5773,10.6563],[103.5857,10.6387],[103.5865,10.6105],[103.5923,10.5987],[103.5921,10.5945],[103.5903,10.5923],[103.5807,10.5963],[103.5673,10.5947],[103.5649,10.5917],[103.5697,10.5793],[103.5683,10.5749],[103.5617,10.5713],[103.5615,10.5531],[103.5647,10.5401],[103.5725,10.5439],[103.5963,10.5691],[103.6209,10.5793],[103.6297,10.5799],[103.6407,10.5901],[103.6407,10.6019],[103.6467,10.6153],[103.6461,10.6289],[103.6411,10.6335],[103.6391,10.6413],[103.6433,10.6511]]]}},{"type":"Feature","properties":{"c":"180202","en":"Boeng Ta Prum","km":"បឹងតាព្រហ្ម"},"geometry":{"type":"Polygon","coordinates":[[[103.8345,10.5919],[103.8293,10.5859],[103.7925,10.5933],[103.7899,10.5963],[103.7869,10.5917],[103.7829,10.5929],[103.7509,10.5575],[103.7405,10.5549],[103.7341,10.5425],[103.7551,10.5315],[103.7585,10.5319],[103.7777,10.5679],[103.7805,10.5629],[103.7819,10.5667],[103.8087,10.5657],[103.8053,10.5537],[103.8065,10.5509],[103.8145,10.5527],[103.8151,10.5485],[103.8399,10.5851],[103.8345,10.5919]]]}},{"type":"Feature","properties":{"c":"180204","en":"Cheung Kou","km":"ជើងគោ"},"geometry":{"type":"Polygon","coordinates":[[[103.8579,10.7285],[103.8587,10.7335],[103.8501,10.7331],[103.8469,10.7435],[103.8331,10.7431],[103.8273,10.7513],[103.8287,10.7541],[103.8335,10.7547],[103.8353,10.7591],[103.8263,10.7671],[103.8297,10.7751],[103.8283,10.7779],[103.8185,10.7783],[103.8167,10.7813],[103.8205,10.7907],[103.8151,10.7995],[103.8145,10.8037],[103.8181,10.8071],[103.8187,10.8145],[103.8159,10.8173],[103.8169,10.8211],[103.8243,10.8227],[103.8225,10.8391],[103.8319,10.8377],[103.8607,10.8567],[103.8635,10.8657],[103.8609,10.8775],[103.8667,10.8867],[103.8659,10.8923],[103.8815,10.9029],[103.8869,10.9143],[103.8919,10.9395],[103.8205,10.9037],[103.8153,10.9027],[103.8073,10.9053],[103.7871,10.9159],[103.7731,10.8755],[103.7657,10.8343],[103.7581,10.8201],[103.7227,10.7789],[103.6889,10.7445],[103.6737,10.7441],[103.6797,10.7281],[103.6919,10.7201],[103.7231,10.7409],[103.7305,10.7395],[103.7653,10.7205],[103.7783,10.7235],[103.8003,10.7229],[103.8077,10.7307],[103.8579,10.7285]]]}},{"type":"Feature","properties":{"c":"180205","en":"Ou Chrov","km":"អូរជ្រៅ"},"geometry":{"type":"Polygon","coordinates":[[[103.8151,10.5485],[103.8145,10.5527],[103.8065,10.5509],[103.8053,10.5537],[103.8087,10.5657],[103.7819,10.5667],[103.7805,10.5629],[103.7777,10.5679],[103.7585,10.5319],[103.7679,10.5307],[103.7763,10.5361],[103.7833,10.5355],[103.7823,10.5315],[103.7851,10.5275],[103.7967,10.5195],[103.8041,10.5243],[103.8151,10.5485]]]}},{"type":"Feature","properties":{"c":"180206","en":"Ou Oknha Heng","km":"អូរឧកញ៉ាហេង"},"geometry":{"type":"Polygon","coordinates":[[[103.8345,10.5919],[103.8323,10.5959],[103.8277,10.5977],[103.8125,10.5987],[103.8101,10.6007],[103.8103,10.6051],[103.7963,10.6139],[103.7715,10.6171],[103.7627,10.6215],[103.6903,10.6201],[103.6951,10.6159],[103.6967,10.6087],[103.6953,10.5803],[103.6917,10.5733],[103.7015,10.5657],[103.7157,10.5487],[103.7193,10.5553],[103.7223,10.5553],[103.7295,10.5527],[103.7303,10.5433],[103.7341,10.5425],[103.7405,10.5549],[103.7509,10.5575],[103.7829,10.5929],[103.7869,10.5917],[103.7899,10.5963],[103.7925,10.5933],[103.8293,10.5859],[103.8345,10.5919]]]}},{"type":"Feature","properties":{"c":"180207","en":"Prey Nob","km":"ព្រៃនប់"},"geometry":{"type":"Polygon","coordinates":[[[103.8497,10.5971],[103.8167,10.6257],[103.7819,10.6395],[103.6979,10.6395],[103.6959,10.6307],[103.6887,10.6225],[103.6903,10.6201],[103.7627,10.6215],[103.7761,10.6161],[103.7931,10.6149],[103.8103,10.6051],[103.8101,10.6007],[103.8125,10.5987],[103.8323,10.5959],[103.8399,10.5851],[103.8497,10.5971]]]}},{"type":"Feature","properties":{"c":"180208","en":"Ream","km":"រាម"},"geometry":{"type":"MultiPolygon","coordinates":[[[[103.8155,10.4205],[103.8051,10.4161],[103.8083,10.4051],[103.8051,10.4039],[103.7941,10.4163],[103.7871,10.4149],[103.7827,10.4221],[103.7873,10.4273],[103.7855,10.4347],[103.7873,10.4377],[103.7915,10.4383],[103.8027,10.4315],[103.8223,10.4267],[103.8155,10.4205]]],[[[103.7787,10.4475],[103.7707,10.4425],[103.7595,10.4501],[103.7479,10.4647],[103.7329,10.4749],[103.7331,10.4797],[103.7433,10.4777],[103.7477,10.4851],[103.7447,10.5093],[103.7411,10.5161],[103.7421,10.5193],[103.7677,10.5183],[103.7883,10.5095],[103.7961,10.4999],[103.7955,10.4779],[103.7967,10.4567],[103.7801,10.4513],[103.7787,10.4475]]],[[[103.6215,10.4893],[103.6227,10.4851],[103.6213,10.4821],[103.6199,10.4857],[103.6215,10.4893]]],[[[103.6051,10.4929],[103.6079,10.4849],[103.6003,10.4811],[103.5993,10.4755],[103.5941,10.4801],[103.5865,10.4795],[103.5817,10.4817],[103.5813,10.4849],[103.5869,10.4873],[103.5879,10.4903],[103.5781,10.5027],[103.5805,10.5087],[103.5839,10.5095],[103.5871,10.5065],[103.5993,10.5051],[103.5999,10.4969],[103.6051,10.4929]]],[[[103.5597,10.5013],[103.5667,10.4929],[103.5649,10.4887],[103.5601,10.4879],[103.5525,10.4973],[103.5597,10.5013]]],[[[103.5459,10.5305],[103.5471,10.5261],[103.5445,10.5237],[103.5421,10.5213],[103.5409,10.5251],[103.5459,10.5305]]],[[[103.6959,10.6307],[103.6887,10.6225],[103.6951,10.6159],[103.6967,10.6087],[103.6953,10.5803],[103.6917,10.5733],[103.7015,10.5657],[103.7171,10.5445],[103.7355,10.5295],[103.7371,10.5225],[103.7357,10.5093],[103.7305,10.5003],[103.7253,10.4979],[103.7043,10.5079],[103.6765,10.5091],[103.6727,10.5015],[103.6627,10.5029],[103.6463,10.4987],[103.6423,10.4953],[103.6431,10.4911],[103.6323,10.4889],[103.6259,10.4963],[103.6169,10.4985],[103.6085,10.5041],[103.6107,10.5253],[103.6141,10.5321],[103.6131,10.5371],[103.6021,10.5535],[103.5901,10.5623],[103.5963,10.5691],[103.6209,10.5793],[103.6297,10.5799],[103.6407,10.5901],[103.6407,10.6019],[103.6467,10.6153],[103.6461,10.6289],[103.6411,10.6335],[103.6391,10.6413],[103.6433,10.6511],[103.6539,10.6535],[103.6827,10.6659],[103.6831,10.6569],[103.6939,10.6475],[103.6979,10.6395],[103.6959,10.6307]]]]}},{"type":"Feature","properties":{"c":"180209","en":"Sameakki","km":"សាមគ្គី"},"geometry":{"type":"Polygon","coordinates":[[[103.9243,10.7483],[103.9223,10.7691],[103.9331,10.7779],[103.9359,10.7885],[103.9333,10.8017],[103.9455,10.8217],[103.9377,10.8363],[103.9261,10.8461],[103.9229,10.8517],[103.9241,10.8591],[103.9317,10.8641],[103.9193,10.8739],[103.9189,10.8785],[103.9243,10.8957],[103.9269,10.8993],[103.9315,10.8995],[103.9333,10.9029],[103.9321,10.9161],[103.9343,10.9277],[103.9335,10.9405],[103.9207,10.9467],[103.9161,10.9551],[103.9145,10.9507],[103.8919,10.9395],[103.8869,10.9143],[103.8815,10.9029],[103.8659,10.8923],[103.8667,10.8867],[103.8609,10.8775],[103.8635,10.8657],[103.8607,10.8567],[103.8319,10.8377],[103.8225,10.8391],[103.8243,10.8227],[103.8169,10.8211],[103.8181,10.8071],[103.8145,10.8037],[103.8175,10.7935],[103.8205,10.7907],[103.8167,10.7813],[103.8185,10.7783],[103.8283,10.7779],[103.8297,10.7751],[103.8263,10.7671],[103.8353,10.7591],[103.8335,10.7547],[103.8287,10.7541],[103.8273,10.7513],[103.8331,10.7431],[103.8469,10.7435],[103.8501,10.7331],[103.8587,10.7335],[103.8535,10.7205],[103.8689,10.7121],[103.8765,10.7131],[103.8785,10.7171],[103.8895,10.7213],[103.8911,10.7249],[103.8987,10.7277],[103.8999,10.7313],[103.9243,10.7483]]]}},{"type":"Feature","properties":{"c":"180210","en":"Samrong","km":"សំរុង"},"geometry":{"type":"Polygon","coordinates":[[[103.8003,10.7229],[103.7783,10.7235],[103.7653,10.7205],[103.7305,10.7395],[103.7231,10.7409],[103.6919,10.7201],[103.7065,10.7097],[103.7181,10.7061],[103.7327,10.6913],[103.7479,10.6917],[103.7717,10.6869],[103.8503,10.6625],[103.8613,10.6645],[103.8651,10.6747],[103.8631,10.6833],[103.8677,10.6891],[103.8661,10.6939],[103.8581,10.6967],[103.8551,10.7051],[103.8661,10.7097],[103.8535,10.7107],[103.8165,10.6967],[103.8121,10.7023],[103.8099,10.7165],[103.8041,10.7223],[103.8003,10.7229]]]}},{"type":"Feature","properties":{"c":"180211","en":"Tuek L'ak","km":"ទឹកល្អក់"},"geometry":{"type":"Polygon","coordinates":[[[103.9441,10.7151],[103.9243,10.7483],[103.8999,10.7313],[103.8987,10.7277],[103.8911,10.7249],[103.8895,10.7213],[103.8785,10.7171],[103.8765,10.7131],[103.8689,10.7121],[103.8551,10.7051],[103.8581,10.6967],[103.8661,10.6939],[103.8677,10.6891],[103.8631,10.6833],[103.8651,10.6747],[103.8613,10.6645],[103.8691,10.6659],[103.8969,10.6941],[103.9079,10.6947],[103.9101,10.6977],[103.9441,10.7151]]]}},{"type":"Feature","properties":{"c":"180212","en":"Tuek Thla","km":"ទឹកថ្លា"},"geometry":{"type":"Polygon","coordinates":[[[103.9635,10.6855],[103.9621,10.6983],[103.9573,10.7077],[103.9441,10.7151],[103.9101,10.6977],[103.9079,10.6947],[103.8969,10.6941],[103.8691,10.6659],[103.8613,10.6645],[103.8613,10.6569],[103.8713,10.6537],[103.8829,10.6593],[103.9025,10.6513],[103.9043,10.6479],[103.9027,10.6389],[103.9203,10.6083],[103.9305,10.6155],[103.9299,10.6191],[103.9327,10.6217],[103.9357,10.6191],[103.9393,10.6203],[103.9417,10.6167],[103.9465,10.6225],[103.9531,10.6251],[103.9561,10.6393],[103.9669,10.6673],[103.9635,10.6855]]]}},{"type":"Feature","properties":{"c":"180213","en":"Tuol Totueng","km":"ទួលទទឹង"},"geometry":{"type":"Polygon","coordinates":[[[103.8531,10.6453],[103.8427,10.6461],[103.8283,10.6423],[103.7693,10.6537],[103.7645,10.6555],[103.7625,10.6641],[103.7575,10.6655],[103.6827,10.6659],[103.6819,10.6613],[103.6831,10.6569],[103.6939,10.6475],[103.6979,10.6395],[103.7819,10.6395],[103.8167,10.6257],[103.8497,10.5971],[103.8661,10.6185],[103.8687,10.6263],[103.8645,10.6331],[103.8601,10.6313],[103.8531,10.6453]]]}},{"type":"Feature","properties":{"c":"180214","en":"Veal Renh","km":"វាលរេញ"},"geometry":{"type":"Polygon","coordinates":[[[103.8579,10.7285],[103.8077,10.7307],[103.8003,10.7229],[103.8041,10.7223],[103.8099,10.7165],[103.8121,10.7023],[103.8165,10.6967],[103.8535,10.7107],[103.8661,10.7097],[103.8689,10.7121],[103.8659,10.7149],[103.8535,10.7205],[103.8579,10.7285]]]}}]}