{"type":"FeatureCollection","features":[{"type":"Feature","properties":{"c":"180304","en":"Kaev Phos","km":"កែវផុស"},"geometry":{"type":"Polygon","coordinates":[[[103.8119,10.9045],[103.8109,10.9215],[103.7971,10.9395],[103.7673,10.9315],[103.7623,10.9241],[103.7535,10.9207],[103.7513,10.9175],[103.7529,10.9143],[103.7463,10.9119],[103.7451,10.9073],[103.7371,10.9019],[103.7367,10.8989],[103.7307,10.9047],[103.7275,10.9025],[103.7275,10.8973],[103.7245,10.8955],[103.7185,10.8967],[103.7123,10.9035],[103.7129,10.9083],[103.7057,10.9063],[103.7123,10.8713],[103.7109,10.8439],[103.7019,10.8279],[103.6979,10.8239],[103.6851,10.8187],[103.6791,10.8103],[103.6733,10.8065],[103.6705,10.7987],[103.6707,10.7781],[103.6653,10.7691],[103.6583,10.7689],[103.6577,10.7647],[103.6623,10.7551],[103.6621,10.7441],[103.6889,10.7445],[103.7227,10.7789],[103.7581,10.8201],[103.7657,10.8343],[103.7731,10.8755],[103.7871,10.9159],[103.8119,10.9045]]]}},{"type":"Feature","properties":{"c":"180301","en":"Kampenh","km":"កំពេញ"},"geometry":{"type":"MultiPolygon","coordinates":[[[[103.5577,10.7217],[103.5585,10.7245],[103.5613,10.7237],[103.5577,10.7217]]],[[[103.6155,10.7319],[103.6123,10.7235],[103.6025,10.7259],[103.5951,10.7305],[103.5675,10.7269],[103.5793,10.7419],[103.5831,10.7427],[103.5919,10.7365],[103.6083,10.7361],[103.6149,10.7387],[103.6185,10.7467],[103.6243,10.7361],[103.6155,10.7319]]]]}},{"type":"Feature","properties":{"c":"180302","en":"Ou Treh","km":"អូរត្រេះ"},"geometry":{"type":"Polygon","coordinates":[[[103.6827,10.6659],[103.6677,10.6761],[103.6533,10.6823],[103.6515,10.6851],[103.6531,10.6919],[103.6479,10.6977],[103.6475,10.7073],[103.6395,10.7125],[103.6373,10.7239],[103.6243,10.7361],[103.6155,10.7319],[103.6123,10.7235],[103.6025,10.7259],[103.5951,10.7305],[103.5675,10.7269],[103.5577,10.7217],[103.5439,10.7205],[103.5445,10.6953],[103.5669,10.6933],[103.5677,10.6697],[103.5773,10.6563],[103.5833,10.6661],[103.5955,10.6667],[103.6091,10.6741],[103.6215,10.6681],[103.6315,10.6577],[103.6433,10.6511],[103.6539,10.6535],[103.6827,10.6659]]]}},{"type":"Feature","properties":{"c":"180303","en":"Tumnob Rolok","km":"ទំនប់រលក"},"geometry":{"type":"Polygon","coordinates":[[[103.6621,10.7441],[103.6471,10.7443],[103.6363,10.7387],[103.6223,10.7473],[103.6185,10.7467],[103.6273,10.7317],[103.6373,10.7239],[103.6395,10.7125],[103.6475,10.7073],[103.6479,10.6977],[103.6531,10.6919],[103.6515,10.6851],[103.6533,10.6823],[103.6677,10.6761],[103.6827,10.6659],[103.7117,10.6811],[103.7175,10.6871],[103.7323,10.6869],[103.7327,10.6913],[103.7181,10.7061],[103.7039,10.7111],[103.6797,10.7281],[103.6737,10.7441],[103.6621,10.7441]]]}}]}