{"type":"FeatureCollection","features":[{"type":"Feature","properties":{"c":"180401","en":"Chamkar Luong","km":"ចំការហ្លួង"},"geometry":{"type":"Polygon","coordinates":[[[103.8701,11.0905],[103.8653,11.0969],[103.8669,11.1087],[103.8641,11.1225],[103.8609,11.1207],[103.8547,11.1069],[103.8403,11.0971],[103.8411,11.0853],[103.8449,11.0875],[103.8461,11.0831],[103.8425,11.0807],[103.8483,11.0789],[103.8465,11.0727],[103.8351,11.0725],[103.8225,11.0571],[103.8055,11.0487],[103.7963,11.0471],[103.7917,11.0407],[103.7859,11.0235],[103.7875,11.0069],[103.7929,10.9873],[103.9105,10.9861],[103.9027,10.9987],[103.9045,11.0027],[103.9015,11.0051],[103.9021,11.0093],[103.8953,11.0127],[103.8921,11.0181],[103.8923,11.0249],[103.8967,11.0293],[103.8915,11.0347],[103.8939,11.0435],[103.8885,11.0531],[103.8899,11.0559],[103.8951,11.0529],[103.8949,11.0565],[103.8819,11.0725],[103.8747,11.0669],[103.8759,11.0631],[103.8719,11.0613],[103.8691,11.0649],[103.8739,11.0709],[103.8755,11.0775],[103.8701,11.0905]]]}},{"type":"Feature","properties":{"c":"180402","en":"Kampong Seila","km":"កំពង់សីលា"},"geometry":{"type":"Polygon","coordinates":[[[104.0013,11.0205],[103.9447,11.1303],[103.9609,11.2415],[103.9565,11.2533],[103.9609,11.2781],[103.9481,11.2933],[103.9291,11.3049],[103.9209,11.3211],[103.9025,11.3011],[103.9011,11.2845],[103.8945,11.2777],[103.8867,11.2753],[103.8845,11.2727],[103.8871,11.2663],[103.8727,11.2535],[103.8725,11.2407],[103.8603,11.2261],[103.8517,11.2221],[103.8689,11.2039],[103.8745,11.1821],[103.8813,11.1723],[103.8813,11.1673],[103.8867,11.1583],[103.8823,11.1531],[103.8799,11.1547],[103.8719,11.1491],[103.8719,11.1359],[103.8639,11.1313],[103.8669,11.1087],[103.8653,11.0969],[103.8755,11.0775],[103.8739,11.0709],[103.8691,11.0649],[103.8719,11.0613],[103.8759,11.0631],[103.8747,11.0669],[103.8819,11.0725],[103.8949,11.0565],[103.8951,11.0529],[103.8899,11.0559],[103.8885,11.0531],[103.8939,11.0435],[103.8915,11.0347],[103.8967,11.0293],[103.8923,11.0249],[103.8921,11.0181],[103.8953,11.0127],[103.9021,11.0093],[103.9015,11.0051],[103.9045,11.0027],[103.9027,10.9987],[103.9105,10.9861],[103.9089,10.9773],[103.9105,10.9731],[103.9073,10.9715],[103.9161,10.9551],[103.9327,10.9637],[103.9383,10.9711],[103.9719,10.9933],[103.9941,11.0177],[104.0013,11.0205]]]}},{"type":"Feature","properties":{"c":"180403","en":"Ou Bak Roteh","km":"អូរបាក់រទេះ"},"geometry":{"type":"Polygon","coordinates":[[[104.0447,11.4149],[104.0445,11.4279],[104.0419,11.4359],[103.9871,11.3993],[103.9723,11.3849],[103.9209,11.3211],[103.9291,11.3049],[103.9481,11.2933],[103.9609,11.2781],[103.9565,11.2577],[103.9609,11.2415],[103.9447,11.1303],[104.0013,11.0205],[104.0181,11.0197],[104.0221,11.0095],[104.0461,11.0135],[104.0719,11.0287],[104.0749,11.0417],[104.0599,11.0581],[104.0607,11.0619],[104.0737,11.0681],[104.0773,11.0757],[104.0695,11.1079],[104.0709,11.1469],[104.0557,11.1677],[104.0373,11.1799],[104.0433,11.1881],[104.0393,11.2081],[104.0217,11.2051],[104.0211,11.2093],[104.0255,11.2165],[104.0271,11.2297],[104.0349,11.2465],[104.0409,11.2523],[104.0515,11.2715],[104.0477,11.2823],[104.0431,11.3071],[104.0445,11.3141],[104.0403,11.3287],[104.0485,11.3515],[104.0577,11.3513],[104.0601,11.3537],[104.0611,11.3699],[104.0545,11.3759],[104.0511,11.3833],[104.0533,11.4005],[104.0447,11.4149]]]}},{"type":"Feature","properties":{"c":"180404","en":"Stueng Chhay","km":"ស្ទឹងឆាយ"},"geometry":{"type":"Polygon","coordinates":[[[103.9105,10.9861],[103.7929,10.9873],[103.7909,10.9541],[103.7971,10.9395],[103.8109,10.9215],[103.8119,10.9045],[103.8205,10.9037],[103.9145,10.9507],[103.9161,10.9551],[103.9073,10.9715],[103.9105,10.9731],[103.9089,10.9773],[103.9105,10.9861]]]}}]}