{"type":"FeatureCollection","features":[{"type":"Feature","properties":{"c":"190101","en":"Kamphun","km":"កំភុន"},"geometry":{"type":"Polygon","coordinates":[[[106.1339,13.5715],[106.1055,13.5701],[106.0853,13.5627],[106.0721,13.5541],[106.0603,13.5341],[106.0641,13.5093],[106.0773,13.4719],[106.0831,13.4641],[106.0995,13.4503],[106.1209,13.4091],[106.1235,13.3999],[106.1217,13.3673],[106.1309,13.3659],[106.1329,13.3693],[106.1515,13.3651],[106.1645,13.3695],[106.1641,13.3737],[106.1683,13.3819],[106.1789,13.3913],[106.1885,13.4069],[106.1993,13.4183],[106.1881,13.4297],[106.1709,13.4833],[106.1603,13.4967],[106.1443,13.5109],[106.1343,13.5279],[106.1333,13.5417],[106.1291,13.5553],[106.1339,13.5715]]]}},{"type":"Feature","properties":{"c":"190102","en":"Kbal Romeas","km":"ក្បាលរមាស"},"geometry":{"type":"Polygon","coordinates":[[[106.5299,13.5997],[106.5193,13.6081],[106.4753,13.6135],[106.4471,13.6015],[106.4427,13.5889],[106.3257,13.5125],[106.2885,13.4825],[106.2611,13.4673],[106.2257,13.4353],[106.1993,13.4183],[106.1885,13.4069],[106.1789,13.3913],[106.1683,13.3819],[106.1641,13.3737],[106.1645,13.3695],[106.1805,13.3665],[106.1879,13.3675],[106.2029,13.3605],[106.2079,13.3625],[106.2213,13.3609],[106.2389,13.3697],[106.2395,13.3833],[106.2455,13.3935],[106.2537,13.3921],[106.2665,13.4055],[106.2819,13.4019],[106.2893,13.4031],[106.2973,13.4001],[106.2993,13.4041],[106.3063,13.4071],[106.3213,13.4007],[106.3501,13.4001],[106.3773,13.4045],[106.4043,13.4147],[106.4199,13.4171],[106.4623,13.3927],[106.4905,13.3803],[106.5121,13.3553],[106.5243,13.3493],[106.5339,13.3481],[106.5581,13.3505],[106.5733,13.3347],[106.5895,13.3279],[106.6009,13.3191],[106.6045,13.3197],[106.6105,13.3261],[106.6089,13.3411],[106.6249,13.3465],[106.6273,13.3591],[106.6251,13.3663],[106.6269,13.3711],[106.6209,13.3761],[106.6221,13.3879],[106.6143,13.3903],[106.6053,13.4015],[106.6049,13.4059],[106.6137,13.4181],[106.6125,13.4273],[106.6007,13.4385],[106.5965,13.4539],[106.5749,13.4943],[106.5745,13.5121],[106.5703,13.5187],[106.5603,13.5299],[106.5525,13.5449],[106.5415,13.5519],[106.5317,13.5531],[106.5299,13.5997]]]}},{"type":"Feature","properties":{"c":"190103","en":"Phluk","km":"ភ្លុក"},"geometry":{"type":"Polygon","coordinates":[[[106.3257,13.5125],[106.3029,13.5193],[106.2975,13.5313],[106.3007,13.5359],[106.3001,13.5399],[106.2911,13.5405],[106.2845,13.5461],[106.2715,13.5501],[106.2823,13.5655],[106.2819,13.5793],[106.2787,13.5863],[106.2833,13.5977],[106.2953,13.6133],[106.3093,13.6227],[106.3145,13.6297],[106.3177,13.6439],[106.3177,13.6599],[106.3263,13.6867],[106.3299,13.7133],[106.3389,13.7413],[106.3125,13.7275],[106.3009,13.7175],[106.2857,13.7009],[106.2561,13.6597],[106.2207,13.6249],[106.1923,13.6067],[106.1503,13.5913],[106.1381,13.5785],[106.1291,13.5593],[106.1343,13.5279],[106.1373,13.5211],[106.1443,13.5109],[106.1603,13.4967],[106.1709,13.4833],[106.1881,13.4297],[106.1993,13.4183],[106.2257,13.4353],[106.2611,13.4673],[106.2885,13.4825],[106.3257,13.5125]]]}},{"type":"Feature","properties":{"c":"190104","en":"Samkhuoy","km":"សាមឃួយ"},"geometry":{"type":"Polygon","coordinates":[[[106.3721,13.8375],[106.3369,13.8391],[106.2983,13.7723],[106.2753,13.7273],[106.1877,13.6437],[106.1547,13.6191],[106.1315,13.6069],[106.0863,13.5851],[106.0721,13.5835],[106.0685,13.5861],[106.0519,13.5729],[106.0309,13.5663],[106.0241,13.5609],[106.0257,13.5483],[106.0367,13.5319],[106.0429,13.5013],[106.0495,13.4883],[106.0933,13.4437],[106.0979,13.4417],[106.1043,13.4285],[106.1113,13.4003],[106.1145,13.3973],[106.1227,13.3955],[106.1209,13.4091],[106.0995,13.4503],[106.0831,13.4641],[106.0773,13.4719],[106.0679,13.4975],[106.0631,13.5129],[106.0603,13.5341],[106.0657,13.5445],[106.0755,13.5569],[106.0973,13.5677],[106.1203,13.5719],[106.1339,13.5715],[106.1503,13.5913],[106.1923,13.6067],[106.2207,13.6249],[106.2561,13.6597],[106.2857,13.7009],[106.3009,13.7175],[106.3125,13.7275],[106.3389,13.7413],[106.3443,13.7515],[106.3621,13.8127],[106.3721,13.8375]]]}},{"type":"Feature","properties":{"c":"190105","en":"Sdau","km":"ស្ដៅ"},"geometry":{"type":"Polygon","coordinates":[[[106.3369,13.8391],[106.1759,13.8405],[106.1799,13.8335],[106.1969,13.8265],[106.2065,13.8155],[106.2067,13.8121],[106.1915,13.7861],[106.1587,13.7435],[106.1193,13.6581],[106.1053,13.6463],[106.0951,13.6249],[106.0779,13.6047],[106.0685,13.5861],[106.0721,13.5835],[106.0819,13.5839],[106.1053,13.5937],[106.1547,13.6191],[106.1905,13.6461],[106.2753,13.7273],[106.2983,13.7723],[106.3369,13.8391]]]}},{"type":"Feature","properties":{"c":"190106","en":"Srae Kor","km":"ស្រែគរ"},"geometry":{"type":"Polygon","coordinates":[[[106.4471,13.6015],[106.4401,13.6691],[106.4295,13.6915],[106.4291,13.6981],[106.4197,13.7151],[106.4183,13.7301],[106.4203,13.7457],[106.4273,13.7687],[106.4469,13.8039],[106.4499,13.8217],[106.4495,13.8383],[106.3721,13.8375],[106.3621,13.8127],[106.3443,13.7515],[106.3313,13.7185],[106.3263,13.6867],[106.3177,13.6599],[106.3177,13.6439],[106.3145,13.6297],[106.3093,13.6227],[106.2953,13.6133],[106.2833,13.5977],[106.2787,13.5863],[106.2819,13.5793],[106.2823,13.5655],[106.2715,13.5501],[106.2845,13.5461],[106.2911,13.5405],[106.3001,13.5399],[106.3007,13.5359],[106.2975,13.5313],[106.3029,13.5193],[106.3257,13.5125],[106.4427,13.5889],[106.4471,13.6015]]]}},{"type":"Feature","properties":{"c":"190107","en":"Ta Lat","km":"តាឡាត"},"geometry":{"type":"Polygon","coordinates":[[[106.6373,13.8887],[106.6357,13.8919],[106.5855,13.8741],[106.5113,13.8473],[106.4953,13.8381],[106.4495,13.8383],[106.4499,13.8217],[106.4469,13.8039],[106.4273,13.7687],[106.4203,13.7457],[106.4183,13.7301],[106.4197,13.7151],[106.4291,13.6981],[106.4295,13.6915],[106.4401,13.6691],[106.4471,13.6015],[106.4753,13.6135],[106.5193,13.6081],[106.5299,13.5997],[106.5309,13.6703],[106.5547,13.6735],[106.5699,13.6821],[106.5863,13.6831],[106.5893,13.6869],[106.6035,13.6929],[106.6065,13.6969],[106.6177,13.7031],[106.6319,13.7215],[106.6365,13.7417],[106.6457,13.7491],[106.6573,13.7647],[106.6633,13.7793],[106.6535,13.8103],[106.6567,13.8205],[106.6639,13.8299],[106.6581,13.8381],[106.6521,13.8385],[106.6481,13.8547],[106.6341,13.8627],[106.6315,13.8713],[106.6373,13.8887]]]}}]}