{"type":"FeatureCollection","features":[{"type":"Feature","properties":{"c":"190201","en":"Kaoh Preah","km":"កោះព្រះ"},"geometry":{"type":"Polygon","coordinates":[[[105.9619,13.3113],[105.9563,13.3287],[105.9465,13.3475],[105.9431,13.3505],[105.9271,13.3445],[105.9291,13.2871],[105.9575,13.2575],[105.9649,13.2525],[105.9675,13.2707],[105.9619,13.3113]]]}},{"type":"Feature","properties":{"c":"190202","en":"Kaoh Sampeay","km":"កោះសំពាយ"},"geometry":{"type":"Polygon","coordinates":[[[106.0295,13.4273],[106.0103,13.4425],[106.0005,13.4559],[105.9927,13.4585],[105.9727,13.4505],[105.9393,13.4457],[105.9369,13.4259],[105.9291,13.4107],[105.9261,13.3987],[105.9327,13.3755],[105.9351,13.3727],[105.9417,13.3799],[105.9457,13.3809],[105.9515,13.3751],[105.9607,13.3779],[105.9915,13.3979],[106.0339,13.4203],[106.0295,13.4273]]]}},{"type":"Feature","properties":{"c":"190203","en":"Kaoh Sralay","km":"កោះស្រឡាយ"},"geometry":{"type":"Polygon","coordinates":[[[105.9393,13.4457],[105.9271,13.4777],[105.9265,13.5015],[105.9299,13.5153],[105.9151,13.5015],[105.8973,13.4773],[105.8861,13.4303],[105.8677,13.4101],[105.8615,13.3929],[105.8629,13.3825],[105.8707,13.3707],[105.9141,13.3525],[105.9271,13.3445],[105.9431,13.3505],[105.9337,13.3651],[105.9351,13.3727],[105.9261,13.3987],[105.9291,13.4107],[105.9369,13.4259],[105.9393,13.4457]]]}},{"type":"Feature","properties":{"c":"190204","en":"Ou Mreah","km":"អូរម្រះ"},"geometry":{"type":"Polygon","coordinates":[[[106.0777,13.3313],[106.0689,13.3443],[106.0521,13.3311],[106.0369,13.3241],[106.0225,13.3209],[105.9723,13.3189],[105.9619,13.3113],[105.9675,13.2707],[105.9649,13.2525],[105.9343,13.2805],[105.9335,13.2663],[105.9389,13.2547],[105.9675,13.2317],[105.9829,13.2273],[106.0007,13.2159],[106.0057,13.2151],[106.0225,13.2259],[106.0257,13.2337],[106.0239,13.2509],[106.0255,13.2591],[106.0337,13.2727],[106.0473,13.2859],[106.0489,13.2943],[106.0583,13.2979],[106.0593,13.3065],[106.0619,13.3103],[106.0701,13.3145],[106.0777,13.3313]]]}},{"type":"Feature","properties":{"c":"190205","en":"Ou Ruessei Kandal","km":"អូរឫស្សីកណ្ដាល"},"geometry":{"type":"Polygon","coordinates":[[[106.1227,13.3955],[106.1145,13.3973],[106.1113,13.4003],[106.0971,13.3993],[106.0831,13.3967],[106.0655,13.3889],[106.0591,13.3945],[106.0643,13.3537],[106.0777,13.3313],[106.0851,13.3357],[106.0863,13.3391],[106.0825,13.3513],[106.1093,13.3657],[106.1217,13.3673],[106.1227,13.3955]]]}},{"type":"Feature","properties":{"c":"190206","en":"Siem Bouk","km":"សៀមបូក"},"geometry":{"type":"Polygon","coordinates":[[[105.6579,13.4559],[105.6339,13.4743],[105.6251,13.4763],[105.5977,13.4571],[105.5657,13.4501],[105.5461,13.4485],[105.5417,13.4445],[105.5459,13.4385],[105.5447,13.4249],[105.5515,13.4081],[105.5513,13.3905],[105.5459,13.3695],[105.5501,13.3467],[105.5471,13.3379],[105.5503,13.3269],[105.5489,13.3171],[105.5509,13.3089],[105.5491,13.2785],[105.5687,13.2699],[105.5869,13.2507],[105.5893,13.2301],[105.6085,13.2291],[105.6177,13.2211],[105.6419,13.2147],[105.6625,13.2057],[105.6951,13.2065],[105.7351,13.1851],[105.7425,13.1833],[105.7517,13.1761],[105.7541,13.1693],[105.7891,13.1455],[105.7953,13.1363],[105.8011,13.1323],[105.8109,13.1279],[105.8353,13.1233],[105.8529,13.1149],[105.8635,13.1141],[105.8679,13.1177],[105.8757,13.1169],[105.8963,13.1285],[105.9053,13.1369],[105.9129,13.1361],[105.9277,13.1411],[105.9321,13.1459],[105.9453,13.1521],[105.9439,13.1595],[105.9575,13.1795],[105.9653,13.1963],[105.9645,13.2185],[105.9675,13.2317],[105.9413,13.2517],[105.9335,13.2663],[105.9343,13.2805],[105.9283,13.2899],[105.9271,13.3445],[105.9019,13.3573],[105.8991,13.3547],[105.8865,13.3559],[105.8801,13.3529],[105.8713,13.3413],[105.8643,13.3377],[105.8605,13.3325],[105.8499,13.3267],[105.8401,13.3247],[105.8241,13.3309],[105.8131,13.3479],[105.8049,13.3507],[105.7971,13.3625],[105.7869,13.3671],[105.7777,13.3783],[105.7567,13.3867],[105.7509,13.3923],[105.7471,13.3907],[105.7399,13.3947],[105.7359,13.3931],[105.7243,13.4031],[105.7221,13.4099],[105.7129,13.4127],[105.7077,13.4197],[105.6933,13.4219],[105.6909,13.4245],[105.6713,13.4293],[105.6707,13.4339],[105.6589,13.4473],[105.6601,13.4507],[105.6573,13.4529],[105.6579,13.4559]]]}},{"type":"Feature","properties":{"c":"190207","en":"Srae Krasang","km":"ស្រែក្រសាំង"},"geometry":{"type":"Polygon","coordinates":[[[106.0591,13.3945],[106.0339,13.4203],[105.9915,13.3979],[105.9607,13.3779],[105.9515,13.3751],[105.9457,13.3809],[105.9417,13.3799],[105.9351,13.3727],[105.9337,13.3651],[105.9515,13.3393],[105.9619,13.3113],[105.9723,13.3189],[106.0275,13.3217],[106.0521,13.3311],[106.0689,13.3443],[106.0619,13.3637],[106.0591,13.3945]]]}}]}