{"type":"FeatureCollection","features":[{"type":"Feature","properties":{"c":"190301","en":"Preaek Meas","km":"ព្រែកមាស"},"geometry":{"type":"Polygon","coordinates":[[[106.1825,14.3507],[106.1727,14.3503],[106.1595,14.3543],[106.1515,14.3685],[106.1441,14.3719],[106.1203,14.3587],[106.1061,14.3677],[106.1031,14.3745],[106.1007,14.3709],[106.0903,14.3711],[106.0829,14.3635],[106.0847,14.3479],[106.0825,14.3399],[106.0797,14.3381],[106.0663,14.3517],[106.0603,14.3493],[106.0583,14.3449],[106.0503,14.3481],[106.0429,14.3439],[106.0285,14.3455],[106.0083,14.3669],[106.0013,14.3713],[105.9953,14.3491],[106.0007,14.3431],[105.9971,14.3351],[105.9969,14.3249],[106.0025,14.3177],[106.0031,14.3127],[106.0073,14.3109],[106.0195,14.3145],[106.0257,14.3075],[106.0235,14.3055],[106.0235,14.2993],[106.0349,14.2705],[106.0273,14.2627],[106.0275,14.2459],[106.0305,14.2435],[106.0365,14.2271],[106.0491,14.2151],[106.0523,14.2023],[106.0553,14.2003],[106.0753,14.1927],[106.1047,14.1885],[106.1109,14.1849],[106.1131,14.1733],[106.1115,14.1457],[106.1205,14.1223],[106.1219,14.1093],[106.1373,14.0995],[106.1439,14.0893],[106.1499,14.0851],[106.1887,14.0623],[106.2005,14.0745],[106.2461,14.0745],[106.3345,14.0727],[106.3349,14.0649],[106.3417,14.0645],[106.3429,14.0613],[106.3463,14.0601],[106.3489,14.0767],[106.3527,14.0831],[106.3511,14.0943],[106.3559,14.1053],[106.3573,14.1169],[106.3533,14.1229],[106.3537,14.1351],[106.3513,14.1377],[106.3409,14.1391],[106.3391,14.1683],[106.3331,14.1727],[106.3309,14.1813],[106.3139,14.1859],[106.3129,14.1905],[106.1825,14.3507]]]}},{"type":"Feature","properties":{"c":"190303","en":"Santepheap","km":"សន្ដិភាព"},"geometry":{"type":"Polygon","coordinates":[[[106.7551,14.3869],[106.7541,14.3905],[106.7571,14.3993],[106.7501,14.4085],[106.7489,14.4161],[106.7437,14.4219],[106.7427,14.4281],[106.7301,14.4349],[106.7257,14.4347],[106.7199,14.4235],[106.7169,14.4223],[106.7069,14.4243],[106.7047,14.4285],[106.6901,14.4291],[106.6829,14.4337],[106.6789,14.4329],[106.6753,14.4361],[106.6637,14.4393],[106.6605,14.4437],[106.6621,14.4477],[106.6589,14.4493],[106.6405,14.4485],[106.6309,14.4457],[106.6285,14.4561],[106.6213,14.4587],[106.6157,14.4679],[106.6137,14.4795],[106.6159,14.4829],[106.6127,14.4971],[106.6035,14.4957],[106.6003,14.5067],[106.5895,14.5083],[106.5715,14.5003],[106.5651,14.5009],[106.5625,14.5043],[106.5631,14.5109],[106.5663,14.5125],[106.5709,14.5241],[106.5615,14.5389],[106.5623,14.5475],[106.5589,14.5499],[106.5577,14.5655],[106.5495,14.5739],[106.5457,14.5911],[106.5429,14.5933],[106.5233,14.5929],[106.5043,14.5853],[106.4971,14.5757],[106.4613,14.5535],[106.4583,14.5471],[106.4595,14.5419],[106.4777,14.5215],[106.4795,14.5179],[106.4759,14.5129],[106.4667,14.5139],[106.4401,14.5253],[106.4329,14.5203],[106.4305,14.5163],[106.4313,14.5057],[106.4409,14.4895],[106.4359,14.4821],[106.4223,14.4731],[106.4219,14.4627],[106.4121,14.4521],[106.3951,14.4501],[106.3707,14.4543],[106.3425,14.4461],[106.3297,14.4399],[106.3303,14.4333],[106.3385,14.4171],[106.3259,14.3947],[106.3259,14.3859],[106.3187,14.3797],[106.3179,14.3599],[106.3391,14.3309],[106.3391,14.3097],[106.3333,14.3055],[106.3237,14.3085],[106.3161,14.3199],[106.3071,14.3227],[106.2977,14.3177],[106.2911,14.3077],[106.2961,14.2977],[106.3239,14.2809],[106.3485,14.2747],[106.3601,14.2685],[106.3685,14.2549],[106.3495,14.2451],[106.3439,14.2353],[106.3445,14.2279],[106.3789,14.2045],[106.4091,14.1953],[106.4215,14.1791],[106.4261,14.1641],[106.4265,14.1503],[106.4389,14.1473],[106.4417,14.1503],[106.4505,14.1527],[106.4661,14.1437],[106.4785,14.1401],[106.5065,14.1219],[106.5329,14.1003],[106.5435,14.0907],[106.5509,14.0801],[106.5627,14.0745],[106.5871,14.0687],[106.5969,14.0605],[106.6087,14.0609],[106.6213,14.0567],[106.6275,14.0577],[106.7127,14.0081],[106.7315,14.0193],[106.7493,14.0211],[106.7583,14.0281],[106.7845,14.0649],[106.7893,14.0777],[106.7799,14.1097],[106.7597,14.1597],[106.7533,14.1675],[106.7515,14.1737],[106.7531,14.2103],[106.7595,14.2359],[106.7547,14.2435],[106.7505,14.2739],[106.7471,14.3469],[106.7477,14.3623],[106.7551,14.3869]]]}},{"type":"Feature","properties":{"c":"190302","en":"Sekong","km":"សេកុង"},"geometry":{"type":"Polygon","coordinates":[[[106.7127,14.0081],[106.6275,14.0577],[106.6213,14.0567],[106.6087,14.0609],[106.5969,14.0605],[106.5871,14.0687],[106.5573,14.0765],[106.5509,14.0801],[106.5435,14.0907],[106.5065,14.1219],[106.4785,14.1401],[106.4661,14.1437],[106.4505,14.1527],[106.4417,14.1503],[106.4389,14.1473],[106.4265,14.1503],[106.4261,14.1445],[106.4201,14.1361],[106.3979,14.1263],[106.3537,14.1351],[106.3533,14.1229],[106.3573,14.1169],[106.3569,14.1091],[106.3511,14.0943],[106.3527,14.0831],[106.3479,14.0723],[106.3463,14.0601],[106.3485,14.0571],[106.3441,14.0547],[106.3477,14.0407],[106.3433,14.0335],[106.3487,14.0279],[106.3433,14.0183],[106.3295,14.0075],[106.4953,13.8381],[106.5113,13.8473],[106.6357,13.8919],[106.6283,13.8989],[106.6251,13.9065],[106.6261,13.9347],[106.6183,13.9447],[106.6125,13.9761],[106.6177,13.9879],[106.6165,13.9923],[106.6301,13.9941],[106.6551,13.9867],[106.6689,13.9967],[106.6731,13.9953],[106.6885,13.9985],[106.6957,13.9951],[106.6993,13.9963],[106.7127,14.0081]]]}},{"type":"Feature","properties":{"c":"190304","en":"Srae Sambour","km":"ស្រែសំបូរ"},"geometry":{"type":"Polygon","coordinates":[[[106.3463,14.0601],[106.3429,14.0613],[106.3417,14.0645],[106.3349,14.0649],[106.3345,14.0727],[106.2005,14.0745],[106.1859,14.0591],[106.1785,14.0451],[106.1753,14.0267],[106.1695,14.0213],[106.1467,14.0147],[106.1397,14.0169],[106.1349,14.0147],[106.1279,14.0057],[106.1285,14.0019],[106.1233,13.9993],[106.1197,13.9937],[106.1061,13.9929],[106.1021,13.9901],[106.1007,13.9781],[106.1065,13.9695],[106.1023,13.9639],[106.1067,13.9443],[106.1043,13.9355],[106.1061,13.9183],[106.1257,13.9199],[106.1293,13.9149],[106.1487,13.9031],[106.1513,13.8967],[106.1505,13.8893],[106.1649,13.8657],[106.1673,13.8523],[106.1753,13.8465],[106.1759,13.8405],[106.4953,13.8381],[106.3295,14.0075],[106.3433,14.0183],[106.3487,14.0279],[106.3433,14.0335],[106.3477,14.0407],[106.3441,14.0547],[106.3485,14.0571],[106.3463,14.0601]]]}},{"type":"Feature","properties":{"c":"190305","en":"Tma Kaev","km":"ថ្មកែវ"},"geometry":{"type":"Polygon","coordinates":[[[106.3297,14.4399],[106.3153,14.4415],[106.3089,14.4513],[106.2999,14.4521],[106.2953,14.4569],[106.2939,14.4677],[106.2879,14.4723],[106.2797,14.4715],[106.2735,14.4779],[106.2687,14.4779],[106.2659,14.4745],[106.2591,14.4863],[106.2519,14.4859],[106.2483,14.4707],[106.2423,14.4647],[106.2453,14.4533],[106.2493,14.4505],[106.2523,14.4435],[106.2507,14.4397],[106.2443,14.4359],[106.2443,14.4321],[106.2379,14.4279],[106.2371,14.3985],[106.2315,14.3939],[106.2251,14.3819],[106.2251,14.3741],[106.2151,14.3655],[106.2047,14.3717],[106.1893,14.3533],[106.1825,14.3507],[106.3129,14.1905],[106.3139,14.1859],[106.3309,14.1813],[106.3331,14.1727],[106.3391,14.1683],[106.3409,14.1391],[106.3979,14.1263],[106.4201,14.1361],[106.4261,14.1445],[106.4261,14.1641],[106.4215,14.1791],[106.4091,14.1953],[106.3789,14.2045],[106.3445,14.2279],[106.3439,14.2353],[106.3495,14.2451],[106.3685,14.2549],[106.3601,14.2685],[106.3485,14.2747],[106.3277,14.2789],[106.2961,14.2977],[106.2919,14.3035],[106.2929,14.3125],[106.3005,14.3201],[106.3071,14.3227],[106.3161,14.3199],[106.3237,14.3085],[106.3333,14.3055],[106.3391,14.3097],[106.3391,14.3309],[106.3179,14.3599],[106.3187,14.3797],[106.3259,14.3859],[106.3259,14.3947],[106.3385,14.4171],[106.3303,14.4333],[106.3297,14.4399]]]}}]}