{"type":"FeatureCollection","features":[{"type":"Feature","properties":{"c":"190403","en":"Preah Bat","km":"សង្កាត់ព្រះបាទ"},"geometry":{"type":"Polygon","coordinates":[[[105.9575,13.5349],[105.9549,13.5403],[105.9411,13.5325],[105.9321,13.5199],[105.9271,13.5057],[105.9271,13.4777],[105.9393,13.4457],[105.9727,13.4505],[105.9927,13.4585],[106.0005,13.4559],[106.0103,13.4425],[106.0295,13.4273],[106.0311,13.4487],[106.0275,13.4551],[106.0081,13.4725],[106.0005,13.4761],[105.9855,13.4781],[105.9669,13.4931],[105.9577,13.5091],[105.9575,13.5349]]]}},{"type":"Feature","properties":{"c":"190404","en":"Sameakki","km":"សង្កាត់សាមគ្គី"},"geometry":{"type":"Polygon","coordinates":[[[106.1061,13.9183],[106.1063,13.9107],[106.1025,13.9101],[106.0611,13.9183],[106.0419,13.9191],[106.0173,13.9271],[106.0403,13.8943],[106.0429,13.8851],[106.0381,13.8643],[106.0205,13.8397],[106.0149,13.8027],[106.0157,13.7863],[106.0229,13.7623],[106.0463,13.7295],[106.0443,13.7199],[106.0317,13.7075],[106.0287,13.7007],[106.0287,13.6967],[106.0349,13.6861],[106.0371,13.6489],[106.0343,13.6419],[106.0311,13.6419],[106.0295,13.6465],[106.0261,13.6479],[105.9991,13.5959],[105.9781,13.5747],[105.9719,13.5623],[105.9563,13.5441],[105.9549,13.5403],[105.9575,13.5349],[105.9805,13.5357],[105.9973,13.5399],[106.0243,13.5541],[106.0241,13.5609],[106.0265,13.5637],[106.0519,13.5729],[106.0685,13.5861],[106.0779,13.6047],[106.0951,13.6249],[106.1053,13.6463],[106.1193,13.6581],[106.1587,13.7435],[106.1915,13.7861],[106.2067,13.8121],[106.2065,13.8155],[106.1969,13.8265],[106.1799,13.8335],[106.1753,13.8465],[106.1673,13.8523],[106.1649,13.8657],[106.1505,13.8893],[106.1513,13.8967],[106.1487,13.9031],[106.1293,13.9149],[106.1257,13.9199],[106.1061,13.9183]]]}},{"type":"Feature","properties":{"c":"190402","en":"Srah Ruessei","km":"សង្កាត់ស្រះឫស្សី"},"geometry":{"type":"Polygon","coordinates":[[[106.0933,13.4437],[106.0495,13.4883],[106.0429,13.5013],[106.0367,13.5319],[106.0281,13.5439],[106.0243,13.5541],[105.9973,13.5399],[105.9805,13.5357],[105.9805,13.5247],[105.9839,13.5245],[105.9849,13.5031],[106.0011,13.4983],[106.0359,13.4763],[106.0741,13.4425],[106.0933,13.4437]]]}},{"type":"Feature","properties":{"c":"190401","en":"Stueng Traeng","km":"សង្កាត់ស្ទឹងត្រែង"},"geometry":{"type":"Polygon","coordinates":[[[105.9805,13.5357],[105.9575,13.5349],[105.9587,13.5057],[105.9625,13.5029],[105.9691,13.4907],[105.9827,13.4797],[106.0053,13.4741],[106.0305,13.4519],[106.0295,13.4273],[106.0339,13.4203],[106.0655,13.3889],[106.0891,13.3983],[106.1113,13.4003],[106.1043,13.4285],[106.0979,13.4417],[106.0933,13.4437],[106.0741,13.4425],[106.0359,13.4763],[106.0011,13.4983],[105.9849,13.5031],[105.9839,13.5245],[105.9805,13.5247],[105.9805,13.5357]]]}}]}