{"type":"FeatureCollection","features":[{"type":"Feature","properties":{"c":"190505","en":"Anlong Chrey","km":"អន្លង់ជ្រៃ"},"geometry":{"type":"Polygon","coordinates":[[[105.7115,13.8673],[105.7001,13.8653],[105.6973,13.8625],[105.6917,13.8665],[105.6803,13.8633],[105.6743,13.8711],[105.6655,13.8747],[105.6537,13.8695],[105.6363,13.8685],[105.6293,13.8645],[105.6271,13.8577],[105.6233,13.8569],[105.6051,13.8711],[105.6015,13.8785],[105.5797,13.8869],[105.5633,13.8727],[105.5583,13.8715],[105.5527,13.8649],[105.5453,13.8641],[105.5281,13.8511],[105.5205,13.8299],[105.5217,13.8195],[105.5249,13.8165],[105.5281,13.8063],[105.5251,13.8023],[105.5289,13.7909],[105.5225,13.7789],[105.5249,13.7651],[105.5311,13.7601],[105.5337,13.7491],[105.5489,13.7393],[105.5527,13.7251],[105.5649,13.7085],[105.5705,13.6899],[105.5703,13.6795],[105.5753,13.6693],[105.5769,13.6527],[105.5705,13.6359],[105.5729,13.6119],[105.5789,13.6107],[105.6099,13.6165],[105.6341,13.6169],[105.6637,13.6161],[105.6891,13.6123],[105.7055,13.6009],[105.7169,13.5807],[105.7293,13.5647],[105.7383,13.5713],[105.7465,13.5721],[105.7637,13.5787],[105.7745,13.5877],[105.7747,13.6011],[105.7709,13.6203],[105.7669,13.6285],[105.7517,13.6473],[105.7461,13.6617],[105.7463,13.6701],[105.7539,13.6843],[105.7819,13.7077],[105.7859,13.7171],[105.7865,13.7301],[105.7761,13.7459],[105.7513,13.7633],[105.7321,13.7667],[105.6871,13.7815],[105.6865,13.7847],[105.7075,13.8219],[105.7097,13.8415],[105.7137,13.8491],[105.7105,13.8597],[105.7115,13.8673]]]}},{"type":"Feature","properties":{"c":"190501","en":"Anlong Phe","km":"អន្លង់ភេ"},"geometry":{"type":"Polygon","coordinates":[[[105.7293,13.5647],[105.7169,13.5807],[105.7055,13.6009],[105.6891,13.6123],[105.6637,13.6161],[105.6341,13.6169],[105.6099,13.6165],[105.5789,13.6107],[105.5729,13.6119],[105.5627,13.5407],[105.5655,13.5195],[105.5655,13.4881],[105.5549,13.4781],[105.5435,13.4623],[105.5375,13.4481],[105.5385,13.4453],[105.5417,13.4445],[105.5461,13.4485],[105.5657,13.4501],[105.5977,13.4571],[105.6251,13.4763],[105.6339,13.4743],[105.6579,13.4559],[105.6741,13.4875],[105.6883,13.5015],[105.7293,13.5647]]]}},{"type":"Feature","properties":{"c":"190502","en":"Chamkar Leu","km":"ចំការលើ"},"geometry":{"type":"Polygon","coordinates":[[[105.7465,13.5721],[105.7383,13.5713],[105.7293,13.5647],[105.6883,13.5015],[105.6741,13.4875],[105.6579,13.4559],[105.6573,13.4529],[105.6601,13.4507],[105.6589,13.4473],[105.6615,13.4451],[105.7239,13.4571],[105.7567,13.4539],[105.7785,13.4487],[105.7941,13.4491],[105.8025,13.4517],[105.8137,13.4659],[105.8173,13.4661],[105.8177,13.5271],[105.7909,13.5511],[105.7607,13.5635],[105.7465,13.5721]]]}},{"type":"Feature","properties":{"c":"190503","en":"Kang Cham","km":"កាំងចាម"},"geometry":{"type":"Polygon","coordinates":[[[105.8909,13.4505],[105.8875,13.4501],[105.8817,13.4565],[105.8853,13.4591],[105.8791,13.4659],[105.8781,13.4723],[105.8697,13.4833],[105.8671,13.4777],[105.8461,13.4703],[105.8443,13.4661],[105.8265,13.4629],[105.8137,13.4659],[105.8025,13.4517],[105.7941,13.4491],[105.7785,13.4487],[105.7567,13.4539],[105.7239,13.4571],[105.6615,13.4451],[105.6707,13.4339],[105.6713,13.4293],[105.6909,13.4245],[105.6933,13.4219],[105.7077,13.4197],[105.7129,13.4127],[105.7221,13.4099],[105.7243,13.4031],[105.7359,13.3931],[105.7399,13.3947],[105.7471,13.3907],[105.7509,13.3923],[105.7567,13.3867],[105.7777,13.3783],[105.7869,13.3671],[105.7971,13.3625],[105.8049,13.3507],[105.8131,13.3479],[105.8241,13.3309],[105.8401,13.3247],[105.8579,13.3307],[105.8643,13.3377],[105.8713,13.3413],[105.8833,13.3549],[105.8991,13.3547],[105.9019,13.3573],[105.8707,13.3707],[105.8647,13.3785],[105.8619,13.3869],[105.8639,13.4033],[105.8861,13.4303],[105.8909,13.4505]]]}},{"type":"Feature","properties":{"c":"190504","en":"Kaoh Snaeng","km":"កោះស្នែង"},"geometry":{"type":"Polygon","coordinates":[[[105.9673,13.7477],[105.9591,13.7527],[105.9535,13.7811],[105.9427,13.7877],[105.9397,13.7867],[105.9229,13.7607],[105.9217,13.6861],[105.9239,13.6827],[105.9349,13.6785],[105.9409,13.6701],[105.9473,13.6673],[105.9569,13.6487],[105.9707,13.6309],[105.9833,13.6271],[106.0027,13.6289],[106.0095,13.6217],[106.0099,13.6137],[106.0149,13.6295],[106.0261,13.6479],[106.0295,13.6465],[106.0311,13.6419],[106.0343,13.6419],[106.0371,13.6489],[106.0349,13.6861],[106.0287,13.6967],[106.0287,13.7007],[106.0317,13.7075],[106.0417,13.7165],[106.0465,13.7247],[105.9991,13.7311],[105.9753,13.7409],[105.9673,13.7477]]]}},{"type":"Feature","properties":{"c":"190506","en":"Ou Rai","km":"អូររ៉ៃ"},"geometry":{"type":"Polygon","coordinates":[[[105.8601,13.5619],[105.8281,13.5837],[105.8203,13.5915],[105.8061,13.5979],[105.7709,13.6203],[105.7747,13.6011],[105.7745,13.5877],[105.7637,13.5787],[105.7465,13.5721],[105.7607,13.5635],[105.7909,13.5511],[105.8177,13.5271],[105.8173,13.4661],[105.8265,13.4629],[105.8443,13.4661],[105.8461,13.4703],[105.8671,13.4777],[105.8697,13.4833],[105.8781,13.4723],[105.8791,13.4659],[105.8853,13.4591],[105.8817,13.4565],[105.8875,13.4501],[105.8909,13.4505],[105.8937,13.4671],[105.8991,13.4805],[105.9151,13.5015],[105.9299,13.5153],[105.9357,13.5263],[105.9159,13.5423],[105.9011,13.5497],[105.8883,13.5509],[105.8601,13.5619]]]}},{"type":"Feature","properties":{"c":"190507","en":"Ou Svay","km":"អូរស្វាយ"},"geometry":{"type":"Polygon","coordinates":[[[106.0173,13.9271],[105.9963,13.9307],[105.9911,13.9275],[105.9943,13.9077],[105.9937,13.9025],[105.9859,13.8889],[105.9879,13.8665],[105.9765,13.8375],[105.9647,13.8179],[105.9623,13.8083],[105.9689,13.7839],[105.9743,13.7755],[105.9741,13.7719],[105.9667,13.7635],[105.9663,13.7539],[105.9673,13.7477],[105.9721,13.7431],[105.9991,13.7311],[106.0465,13.7247],[106.0441,13.7333],[106.0229,13.7623],[106.0157,13.7863],[106.0149,13.8027],[106.0205,13.8397],[106.0381,13.8643],[106.0429,13.8851],[106.0403,13.8943],[106.0173,13.9271]]]}},{"type":"Feature","properties":{"c":"190508","en":"Preah Rumkel","km":"ព្រះរំកិល"},"geometry":{"type":"Polygon","coordinates":[[[105.9903,13.9245],[105.9733,13.9257],[105.9591,13.9329],[105.9465,13.9343],[105.9137,13.9299],[105.9001,13.9369],[105.8803,13.9245],[105.8695,13.9217],[105.7589,13.9231],[105.7239,13.9199],[105.7123,13.9171],[105.7015,13.9087],[105.7007,13.9043],[105.7047,13.8979],[105.7037,13.8899],[105.7069,13.8857],[105.7133,13.8837],[105.7149,13.8803],[105.7105,13.8641],[105.7137,13.8491],[105.7201,13.8495],[105.7231,13.8465],[105.7265,13.8489],[105.7281,13.8457],[105.7353,13.8447],[105.7369,13.8503],[105.7505,13.8537],[105.7631,13.8509],[105.7685,13.8575],[105.7819,13.8609],[105.7823,13.8541],[105.7939,13.8505],[105.7939,13.8431],[105.7979,13.8401],[105.7939,13.8297],[105.7933,13.8081],[105.7957,13.8063],[105.8085,13.8027],[105.8149,13.8085],[105.8189,13.8059],[105.8375,13.8055],[105.8429,13.8009],[105.8469,13.8023],[105.8537,13.7991],[105.8575,13.8011],[105.8675,13.8197],[105.8843,13.8183],[105.8873,13.8143],[105.8877,13.8087],[105.8979,13.8031],[105.9063,13.8027],[105.9123,13.8061],[105.9191,13.7979],[105.9229,13.8003],[105.9373,13.7827],[105.9427,13.7877],[105.9515,13.7837],[105.9551,13.7771],[105.9591,13.7527],[105.9673,13.7477],[105.9667,13.7635],[105.9741,13.7719],[105.9743,13.7755],[105.9689,13.7839],[105.9623,13.8083],[105.9647,13.8179],[105.9765,13.8375],[105.9879,13.8665],[105.9859,13.8889],[105.9937,13.9025],[105.9943,13.9077],[105.9935,13.9179],[105.9903,13.9245]]]}},{"type":"Feature","properties":{"c":"190509","en":"Sam Ang","km":"សំអាង"},"geometry":{"type":"Polygon","coordinates":[[[105.9373,13.7827],[105.9229,13.8003],[105.9191,13.7979],[105.9123,13.8061],[105.9063,13.8027],[105.8979,13.8031],[105.8877,13.8087],[105.8873,13.8143],[105.8843,13.8183],[105.8735,13.8205],[105.8675,13.8197],[105.8575,13.8011],[105.8537,13.7991],[105.8469,13.8023],[105.8429,13.8009],[105.8375,13.8055],[105.8189,13.8059],[105.8149,13.8085],[105.8085,13.8027],[105.7957,13.8063],[105.7933,13.8081],[105.7939,13.8297],[105.7979,13.8401],[105.7939,13.8431],[105.7939,13.8505],[105.7823,13.8541],[105.7819,13.8609],[105.7685,13.8575],[105.7631,13.8509],[105.7505,13.8537],[105.7369,13.8503],[105.7353,13.8447],[105.7281,13.8457],[105.7265,13.8489],[105.7231,13.8465],[105.7201,13.8495],[105.7137,13.8491],[105.7097,13.8415],[105.7075,13.8219],[105.6865,13.7847],[105.6907,13.7791],[105.7209,13.7717],[105.7321,13.7667],[105.7513,13.7633],[105.7657,13.7549],[105.7845,13.7349],[105.7865,13.7205],[105.7819,13.7077],[105.7539,13.6843],[105.7463,13.6701],[105.7461,13.6617],[105.7517,13.6473],[105.7685,13.6247],[105.7925,13.6375],[105.8107,13.6387],[105.8349,13.6585],[105.8521,13.6665],[105.8695,13.6689],[105.8825,13.6613],[105.9113,13.6609],[105.9141,13.6633],[105.9239,13.6827],[105.9217,13.6861],[105.9229,13.7607],[105.9373,13.7827]]]}},{"type":"Feature","properties":{"c":"190510","en":"Srae Ruessei","km":"ស្រែឫស្សី"},"geometry":{"type":"Polygon","coordinates":[[[105.9647,13.6391],[105.9569,13.6487],[105.9473,13.6673],[105.9409,13.6701],[105.9349,13.6785],[105.9239,13.6827],[105.9187,13.6691],[105.9113,13.6609],[105.8825,13.6613],[105.8695,13.6689],[105.8521,13.6665],[105.8349,13.6585],[105.8107,13.6387],[105.7925,13.6375],[105.7685,13.6247],[105.7747,13.6173],[105.8203,13.5915],[105.8281,13.5837],[105.8601,13.5619],[105.8689,13.5659],[105.9019,13.5969],[105.9257,13.5977],[105.9405,13.6089],[105.9647,13.6391]]]}},{"type":"Feature","properties":{"c":"190511","en":"Thala Barivat","km":"ថាឡាបរិវ៉ាត់"},"geometry":{"type":"Polygon","coordinates":[[[106.0099,13.6137],[106.0095,13.6217],[106.0027,13.6289],[105.9913,13.6267],[105.9749,13.6291],[105.9707,13.6309],[105.9647,13.6391],[105.9405,13.6089],[105.9257,13.5977],[105.9019,13.5969],[105.8689,13.5659],[105.8601,13.5619],[105.8883,13.5509],[105.9011,13.5497],[105.9159,13.5423],[105.9357,13.5263],[105.9411,13.5325],[105.9549,13.5403],[105.9719,13.5623],[105.9781,13.5747],[105.9959,13.5919],[106.0099,13.6137]]]}}]}