{"type":"FeatureCollection","features":[{"type":"Feature","properties":{"c":"200103","en":"Chantrea","km":"ចន្ទ្រា"},"geometry":{"type":"Polygon","coordinates":[[[106.1139,10.9003],[106.0951,10.9031],[106.0859,10.8949],[106.0767,10.8907],[106.0697,10.8923],[106.0661,10.8961],[106.0637,10.8783],[106.0441,10.8443],[106.0363,10.8347],[106.0735,10.8109],[106.0949,10.8081],[106.1135,10.8097],[106.1139,10.9003]]]}},{"type":"Feature","properties":{"c":"200104","en":"Chres","km":"ច្រេស"},"geometry":{"type":"Polygon","coordinates":[[[106.0935,10.9697],[106.0909,10.9731],[106.0743,10.9727],[106.0545,10.9613],[106.0501,10.9609],[106.0441,10.9567],[106.0425,10.9461],[106.0369,10.9407],[106.0353,10.9353],[106.0361,10.9261],[106.0435,10.9149],[106.0643,10.9001],[106.0733,10.8905],[106.0859,10.8949],[106.0951,10.9031],[106.1139,10.9003],[106.1199,10.9007],[106.1221,10.9047],[106.1143,10.9097],[106.1069,10.9287],[106.1065,10.9377],[106.0919,10.9541],[106.0935,10.9697]]]}},{"type":"Feature","properties":{"c":"200105","en":"Me Sar Thngak","km":"មេ សរថ្ងក"},"geometry":{"type":"Polygon","coordinates":[[[106.1543,10.9851],[106.1485,10.9891],[106.1377,10.9905],[106.1263,10.9863],[106.1201,10.9927],[106.1107,10.9941],[106.1031,11.0005],[106.0957,11.0129],[106.0919,10.9541],[106.1065,10.9377],[106.1109,10.9445],[106.1181,10.9477],[106.1215,10.9567],[106.1251,10.9593],[106.1359,10.9603],[106.1447,10.9573],[106.1435,10.9765],[106.1549,10.9819],[106.1543,10.9851]]]}},{"type":"Feature","properties":{"c":"200108","en":"Prey Kokir","km":"ព្រៃគគីរ"},"geometry":{"type":"Polygon","coordinates":[[[106.0957,11.0129],[106.0835,11.0297],[106.0789,11.0481],[106.0605,11.0439],[106.0597,11.0317],[106.0389,11.0071],[106.0327,11.0027],[106.0361,10.9999],[106.0465,10.9639],[106.0501,10.9609],[106.0545,10.9613],[106.0743,10.9727],[106.0909,10.9731],[106.0935,10.9697],[106.0957,11.0129]]]}},{"type":"Feature","properties":{"c":"200109","en":"Samraong","km":"សំរោង"},"geometry":{"type":"Polygon","coordinates":[[[106.1447,10.9573],[106.1359,10.9603],[106.1251,10.9593],[106.1215,10.9567],[106.1181,10.9477],[106.1109,10.9445],[106.1065,10.9377],[106.1069,10.9287],[106.1115,10.9199],[106.1119,10.9139],[106.1221,10.9047],[106.1199,10.9007],[106.1285,10.8999],[106.1449,10.9059],[106.1387,10.9177],[106.1501,10.9381],[106.1507,10.9423],[106.1453,10.9505],[106.1447,10.9573]]]}},{"type":"Feature","properties":{"c":"200110","en":"Tuol Sdei","km":"ទួលស្ដី"},"geometry":{"type":"Polygon","coordinates":[[[106.1135,10.8097],[106.1649,10.8117],[106.1895,10.7907],[106.1881,10.8389],[106.1653,10.8833],[106.1449,10.9059],[106.1285,10.8999],[106.1139,10.9003],[106.1127,10.8967],[106.1135,10.8097]]]}}]}