{"type":"FeatureCollection","features":[{"type":"Feature","properties":{"c":"200201","en":"Banteay Krang","km":"បន្ទាយក្រាំង"},"geometry":{"type":"Polygon","coordinates":[[[105.8707,10.9601],[105.8577,10.9667],[105.8533,10.9567],[105.8575,10.9435],[105.8511,10.9377],[105.8501,10.9289],[105.8459,10.9291],[105.8643,10.8995],[105.8507,10.8689],[105.8619,10.8735],[105.8679,10.8719],[105.8775,10.8753],[105.8811,10.8787],[105.8837,10.8951],[105.8871,10.8969],[105.8899,10.9035],[105.8771,10.9345],[105.8783,10.9499],[105.8707,10.9601]]]}},{"type":"Feature","properties":{"c":"200203","en":"Khsaetr","km":"ខ្សែត្រ"},"geometry":{"type":"Polygon","coordinates":[[[106.0031,10.9027],[106.0001,10.9227],[106.0011,10.9351],[105.9971,10.9453],[105.9885,10.9567],[105.9811,10.9825],[105.9595,10.9783],[105.9577,10.9755],[105.9415,10.9743],[105.9347,10.9679],[105.9167,10.9773],[105.9203,10.9627],[105.9417,10.9363],[105.9481,10.9139],[105.9975,10.8699],[106.0001,10.8757],[105.9975,10.8825],[106.0001,10.8909],[105.9989,10.8985],[106.0029,10.8997],[106.0031,10.9027]]]}},{"type":"Feature","properties":{"c":"200202","en":"Nhor","km":"ញរ"},"geometry":{"type":"Polygon","coordinates":[[[105.9167,10.9773],[105.9107,10.9837],[105.9081,10.9819],[105.9087,10.9449],[105.9135,10.9443],[105.9143,10.9371],[105.9139,10.8957],[105.9153,10.8931],[105.9521,10.8927],[105.9521,10.8971],[105.9443,10.9125],[105.9467,10.9225],[105.9439,10.9313],[105.9397,10.9403],[105.9203,10.9627],[105.9167,10.9773]]]}},{"type":"Feature","properties":{"c":"200204","en":"Preah Ponlea","km":"ព្រះពន្លា"},"geometry":{"type":"Polygon","coordinates":[[[105.9089,10.9867],[105.9003,11.0133],[105.8933,11.0269],[105.8899,11.0485],[105.8859,11.0475],[105.8721,11.0351],[105.8693,11.0265],[105.8523,11.0269],[105.8493,11.0237],[105.8441,11.0071],[105.8495,10.9985],[105.8427,10.9919],[105.8547,10.9879],[105.8679,10.9933],[105.8911,10.9911],[105.9089,10.9867]]]}},{"type":"Feature","properties":{"c":"200205","en":"Prey Thum","km":"ព្រៃធំ"},"geometry":{"type":"Polygon","coordinates":[[[105.9089,10.9867],[105.8911,10.9911],[105.8679,10.9933],[105.8579,10.9881],[105.8427,10.9919],[105.8365,10.9899],[105.8537,10.9739],[105.8577,10.9667],[105.8707,10.9601],[105.9079,10.9613],[105.9081,10.9819],[105.9107,10.9837],[105.9089,10.9867]]]}},{"type":"Feature","properties":{"c":"200206","en":"Reach Montir","km":"រាជមន្ទីរ"},"geometry":{"type":"Polygon","coordinates":[[[105.9153,10.8931],[105.9143,10.9371],[105.9135,10.9443],[105.9087,10.9449],[105.9079,10.9613],[105.8707,10.9601],[105.8783,10.9499],[105.8771,10.9345],[105.8899,10.9035],[105.8871,10.8969],[105.8837,10.8951],[105.8827,10.8839],[105.9001,10.8897],[105.9111,10.8875],[105.9153,10.8931]]]}},{"type":"Feature","properties":{"c":"200207","en":"Samlei","km":"សំឡី"},"geometry":{"type":"Polygon","coordinates":[[[106.0501,10.9609],[106.0465,10.9639],[106.0361,10.9999],[106.0327,11.0027],[106.0197,11.0017],[106.0215,10.9949],[105.9973,10.9937],[105.9965,10.9899],[105.9821,10.9867],[105.9819,10.9773],[105.9885,10.9567],[105.9971,10.9453],[106.0011,10.9351],[106.0001,10.9227],[106.0031,10.9027],[106.0257,10.9019],[106.0265,10.8987],[106.0327,10.8987],[106.0325,10.9257],[106.0361,10.9261],[106.0353,10.9353],[106.0369,10.9407],[106.0425,10.9461],[106.0421,10.9531],[106.0501,10.9609]]]}},{"type":"Feature","properties":{"c":"200208","en":"Samyaong","km":"សំយ៉ោង"},"geometry":{"type":"Polygon","coordinates":[[[105.8365,10.9899],[105.8235,10.9831],[105.8189,10.9833],[105.8063,10.9983],[105.8029,10.9985],[105.7975,10.9937],[105.8077,10.9729],[105.8397,10.9349],[105.8459,10.9291],[105.8501,10.9289],[105.8511,10.9377],[105.8575,10.9435],[105.8533,10.9567],[105.8577,10.9667],[105.8537,10.9739],[105.8365,10.9899]]]}},{"type":"Feature","properties":{"c":"200209","en":"Svay Ta Yean","km":"ស្វាយតាយាន"},"geometry":{"type":"Polygon","coordinates":[[[106.0327,11.0027],[106.0245,11.0139],[106.0253,11.0167],[106.0083,11.0249],[105.9989,11.0255],[105.9807,11.0315],[105.9647,11.0437],[105.9389,11.0369],[105.9391,11.0151],[105.9501,10.9963],[105.9507,10.9753],[105.9773,10.9809],[105.9811,10.9825],[105.9821,10.9867],[105.9965,10.9899],[105.9973,10.9937],[106.0215,10.9949],[106.0197,11.0017],[106.0327,11.0027]]]}},{"type":"Feature","properties":{"c":"200211","en":"Thmei","km":"ថ្មី"},"geometry":{"type":"Polygon","coordinates":[[[105.9521,10.8927],[105.9153,10.8931],[105.9111,10.8875],[105.9081,10.8873],[105.9001,10.8897],[105.8827,10.8839],[105.8775,10.8753],[105.8679,10.8719],[105.8619,10.8735],[105.8507,10.8689],[105.8491,10.8653],[105.8565,10.8599],[105.8991,10.8441],[105.9321,10.8393],[105.9361,10.8407],[105.9367,10.8453],[105.9317,10.8503],[105.9305,10.8639],[105.9549,10.8825],[105.9549,10.8865],[105.9515,10.8891],[105.9521,10.8927]]]}},{"type":"Feature","properties":{"c":"200212","en":"Tnaot","km":"ត្នោត"},"geometry":{"type":"Polygon","coordinates":[[[106.0661,10.8961],[106.0643,10.9001],[106.0435,10.9149],[106.0361,10.9261],[106.0325,10.9257],[106.0327,10.8987],[106.0265,10.8987],[106.0257,10.9019],[106.0031,10.9027],[106.0029,10.8997],[105.9989,10.8985],[106.0001,10.8909],[105.9975,10.8825],[106.0001,10.8757],[105.9975,10.8699],[106.0085,10.8565],[106.0363,10.8347],[106.0441,10.8443],[106.0637,10.8783],[106.0661,10.8961]]]}}]}