{"type":"FeatureCollection","features":[{"type":"Feature","properties":{"c":"200301","en":"Bos Mon","km":"បុសមន"},"geometry":{"type":"Polygon","coordinates":[[[105.9081,11.2517],[105.8777,11.2531],[105.8709,11.2611],[105.8661,11.2515],[105.8417,11.2503],[105.8387,11.2471],[105.8385,11.2427],[105.8495,11.2149],[105.8575,11.2107],[105.8629,11.2169],[105.9281,11.2173],[105.9117,11.2395],[105.9081,11.2517]]]}},{"type":"Feature","properties":{"c":"200304","en":"Chrung Popel","km":"ជ្រុងពពេល"},"geometry":{"type":"Polygon","coordinates":[[[105.8417,11.2503],[105.8429,11.2753],[105.8381,11.2701],[105.8265,11.2687],[105.8225,11.2651],[105.8133,11.2631],[105.8029,11.2551],[105.7931,11.2539],[105.7865,11.2567],[105.7841,11.2321],[105.7881,11.2241],[105.7931,11.2233],[105.7951,11.2199],[105.8301,11.2243],[105.8419,11.2341],[105.8385,11.2427],[105.8387,11.2471],[105.8417,11.2503]]]}},{"type":"Feature","properties":{"c":"200305","en":"Kampong Ampil","km":"កំពង់អំពិល"},"geometry":{"type":"Polygon","coordinates":[[[105.8443,11.2909],[105.8371,11.2985],[105.8293,11.2959],[105.8129,11.2981],[105.8071,11.2911],[105.7857,11.2857],[105.7719,11.2667],[105.7867,11.2525],[105.7865,11.2567],[105.7931,11.2539],[105.8029,11.2551],[105.8133,11.2631],[105.8225,11.2651],[105.8265,11.2687],[105.8381,11.2701],[105.8429,11.2753],[105.8443,11.2909]]]}},{"type":"Feature","properties":{"c":"200303","en":"Kampong Chak","km":"កំពង់ចក"},"geometry":{"type":"Polygon","coordinates":[[[105.8595,11.1571],[105.8619,11.1873],[105.8601,11.1983],[105.8511,11.1991],[105.8485,11.1903],[105.8449,11.1887],[105.8053,11.1863],[105.8067,11.1493],[105.8227,11.1567],[105.8405,11.1545],[105.8595,11.1571]]]}},{"type":"Feature","properties":{"c":"200306","en":"Meun Chey","km":"ម៉ឺនជ័យ"},"geometry":{"type":"Polygon","coordinates":[[[105.7867,11.2525],[105.7571,11.2509],[105.7349,11.2455],[105.7347,11.2269],[105.7311,11.2163],[105.7431,11.2009],[105.7599,11.2029],[105.7745,11.2135],[105.7773,11.2171],[105.7775,11.2275],[105.7853,11.2353],[105.7867,11.2525]]]}},{"type":"Feature","properties":{"c":"200307","en":"Pong Tuek","km":"ពងទឹក"},"geometry":{"type":"Polygon","coordinates":[[[105.9281,11.2173],[105.8629,11.2169],[105.8575,11.2107],[105.8495,11.2149],[105.8511,11.1991],[105.8601,11.1983],[105.8619,11.1923],[105.8595,11.1571],[105.8759,11.1587],[105.9003,11.1701],[105.9079,11.1797],[105.9145,11.1937],[105.9337,11.2123],[105.9281,11.2173]]]}},{"type":"Feature","properties":{"c":"200308","en":"Sangkae","km":"សង្កែ"},"geometry":{"type":"Polygon","coordinates":[[[105.8495,11.2149],[105.8419,11.2341],[105.8301,11.2243],[105.7951,11.2199],[105.7853,11.2083],[105.7857,11.2047],[105.7943,11.1887],[105.8053,11.1863],[105.8449,11.1887],[105.8485,11.1903],[105.8511,11.1991],[105.8495,11.2149]]]}},{"type":"Feature","properties":{"c":"200309","en":"Svay Chek","km":"ស្វាយចេក"},"geometry":{"type":"Polygon","coordinates":[[[105.7841,11.2321],[105.7809,11.2323],[105.7775,11.2275],[105.7773,11.2171],[105.7641,11.2047],[105.7431,11.2009],[105.7697,11.1657],[105.7861,11.1499],[105.7947,11.1363],[105.7989,11.1421],[105.8055,11.1453],[105.8067,11.1493],[105.8053,11.1863],[105.7943,11.1887],[105.7871,11.2015],[105.7853,11.2083],[105.7951,11.2199],[105.7931,11.2233],[105.7881,11.2241],[105.7841,11.2321]]]}},{"type":"Feature","properties":{"c":"200302","en":"Thmea","km":"ធ្មា"},"geometry":{"type":"Polygon","coordinates":[[[105.7821,11.2825],[105.7627,11.2797],[105.7503,11.2835],[105.7437,11.2795],[105.7169,11.2729],[105.7203,11.2645],[105.7301,11.2583],[105.7295,11.2505],[105.7349,11.2455],[105.7571,11.2509],[105.7867,11.2525],[105.7719,11.2667],[105.7821,11.2825]]]}},{"type":"Feature","properties":{"c":"200310","en":"Thna Thnong","km":"ថ្នាធ្នង់"},"geometry":{"type":"Polygon","coordinates":[[[105.8603,11.2945],[105.8565,11.2957],[105.8443,11.2909],[105.8419,11.2799],[105.8417,11.2503],[105.8633,11.2505],[105.8661,11.2515],[105.8709,11.2611],[105.8777,11.2531],[105.9081,11.2517],[105.9123,11.2667],[105.9085,11.2747],[105.9079,11.2867],[105.9041,11.2847],[105.8941,11.2901],[105.8775,11.2881],[105.8677,11.2827],[105.8653,11.2851],[105.8649,11.2917],[105.8603,11.2945]]]}}]}