{"type":"FeatureCollection","features":[{"type":"Feature","properties":{"c":"200401","en":"Ampil","km":"អំពិល"},"geometry":{"type":"Polygon","coordinates":[[[105.8275,11.4893],[105.8071,11.4877],[105.7969,11.4937],[105.7711,11.4897],[105.7603,11.4733],[105.7575,11.4741],[105.7501,11.4657],[105.7653,11.4649],[105.7705,11.4509],[105.7825,11.4435],[105.7843,11.4403],[105.7825,11.4239],[105.7845,11.4211],[105.7939,11.4161],[105.8005,11.4251],[105.8161,11.4191],[105.8239,11.4197],[105.8283,11.4223],[105.8315,11.4297],[105.8395,11.4321],[105.8393,11.4569],[105.8313,11.4599],[105.8539,11.4745],[105.8419,11.4795],[105.8311,11.4809],[105.8275,11.4893]]]}},{"type":"Feature","properties":{"c":"200402","en":"Andoung Pou","km":"អណ្ដូងពោធិ៍"},"geometry":{"type":"Polygon","coordinates":[[[105.8303,11.4069],[105.8153,11.4071],[105.8041,11.3917],[105.7999,11.3797],[105.8011,11.3657],[105.7987,11.3583],[105.7813,11.3557],[105.7721,11.3575],[105.7827,11.3363],[105.8317,11.3371],[105.8337,11.3395],[105.8325,11.3539],[105.8249,11.3603],[105.8267,11.3729],[105.8229,11.3887],[105.8241,11.3973],[105.8303,11.4069]]]}},{"type":"Feature","properties":{"c":"200403","en":"Andoung Trabaek","km":"អណ្ដូងត្របែក"},"geometry":{"type":"Polygon","coordinates":[[[105.7745,11.5199],[105.7791,11.5231],[105.7799,11.5427],[105.7731,11.5537],[105.7755,11.5597],[105.7677,11.5653],[105.8055,11.5985],[105.7967,11.5971],[105.7835,11.5879],[105.7675,11.5885],[105.7573,11.5863],[105.7473,11.5881],[105.7437,11.5855],[105.7431,11.5779],[105.7297,11.5765],[105.7039,11.5689],[105.6935,11.5653],[105.6893,11.5599],[105.7007,11.5531],[105.7145,11.5367],[105.7261,11.5361],[105.7497,11.5271],[105.7733,11.5225],[105.7745,11.5199]]]}},{"type":"Feature","properties":{"c":"200404","en":"Angk Prasrae","km":"អង្គប្រស្រែ"},"geometry":{"type":"Polygon","coordinates":[[[105.8317,11.3371],[105.7827,11.3363],[105.7809,11.3267],[105.7855,11.3137],[105.7837,11.3053],[105.7917,11.2979],[105.7919,11.2937],[105.7991,11.2891],[105.8071,11.2911],[105.8129,11.2981],[105.8293,11.2959],[105.8371,11.2985],[105.8443,11.2909],[105.8565,11.2957],[105.8603,11.2945],[105.8549,11.3061],[105.8469,11.3107],[105.8319,11.3275],[105.8317,11.3371]]]}},{"type":"Feature","properties":{"c":"200405","en":"Chantrei","km":"ចន្ដ្រី"},"geometry":{"type":"Polygon","coordinates":[[[105.7323,11.2771],[105.7317,11.3287],[105.7135,11.3261],[105.7095,11.3235],[105.7101,11.3075],[105.7187,11.2989],[105.7163,11.2947],[105.6871,11.2935],[105.6607,11.2975],[105.6697,11.2743],[105.6679,11.2647],[105.6965,11.2669],[105.7067,11.2719],[105.7121,11.2713],[105.7323,11.2771]]]}},{"type":"Feature","properties":{"c":"200406","en":"Chrey Thum","km":"ជ្រៃធំ"},"geometry":{"type":"Polygon","coordinates":[[[105.7501,11.4657],[105.7447,11.4571],[105.7299,11.4667],[105.7145,11.4549],[105.7099,11.4489],[105.7091,11.4367],[105.6915,11.4237],[105.6689,11.3847],[105.6971,11.3985],[105.7123,11.3859],[105.7231,11.3879],[105.7271,11.3935],[105.7299,11.4053],[105.7435,11.4073],[105.7559,11.4053],[105.7565,11.4165],[105.7639,11.4255],[105.7825,11.4239],[105.7843,11.4403],[105.7825,11.4435],[105.7705,11.4509],[105.7653,11.4649],[105.7501,11.4657]]]}},{"type":"Feature","properties":{"c":"200407","en":"Doung","km":"ដូង"},"geometry":{"type":"Polygon","coordinates":[[[105.8705,11.4051],[105.8685,11.4011],[105.8303,11.4069],[105.8241,11.3973],[105.8229,11.3887],[105.8267,11.3729],[105.8249,11.3603],[105.8325,11.3539],[105.8333,11.3493],[105.8319,11.3275],[105.8469,11.3107],[105.8549,11.3061],[105.8603,11.2945],[105.8649,11.2917],[105.8717,11.3023],[105.8685,11.3183],[105.8781,11.3325],[105.8781,11.3473],[105.8849,11.3647],[105.8809,11.3695],[105.8721,11.3733],[105.8715,11.3797],[105.8785,11.3903],[105.8741,11.4049],[105.8705,11.4051]]]}},{"type":"Feature","properties":{"c":"200408","en":"Kampong Trach","km":"កំពង់ត្រាច"},"geometry":{"type":"Polygon","coordinates":[[[105.8705,11.4051],[105.8605,11.4157],[105.8561,11.4163],[105.8477,11.4281],[105.8395,11.4321],[105.8315,11.4297],[105.8283,11.4223],[105.8239,11.4197],[105.8161,11.4191],[105.8005,11.4251],[105.7939,11.4161],[105.7825,11.4239],[105.7639,11.4255],[105.7565,11.4165],[105.7559,11.4053],[105.7463,11.4067],[105.7471,11.3887],[105.7491,11.3789],[105.7591,11.3781],[105.7721,11.3575],[105.7813,11.3557],[105.7987,11.3583],[105.8011,11.3657],[105.7999,11.3797],[105.8041,11.3917],[105.8153,11.4071],[105.8685,11.4011],[105.8705,11.4051]]]}},{"type":"Feature","properties":{"c":"200409","en":"Kokir","km":"គគីរ"},"geometry":{"type":"Polygon","coordinates":[[[105.8819,11.4831],[105.8783,11.4853],[105.8733,11.4989],[105.8287,11.4967],[105.8303,11.4929],[105.8275,11.4893],[105.8311,11.4809],[105.8419,11.4795],[105.8539,11.4745],[105.8313,11.4599],[105.8393,11.4569],[105.8395,11.4321],[105.8477,11.4281],[105.8561,11.4163],[105.8605,11.4157],[105.8705,11.4051],[105.8741,11.4049],[105.8853,11.4119],[105.8917,11.4253],[105.9017,11.4301],[105.9035,11.4383],[105.9035,11.4453],[105.9003,11.4513],[105.8879,11.4509],[105.8817,11.4549],[105.8789,11.4607],[105.8755,11.4615],[105.8783,11.4775],[105.8819,11.4831]]]}},{"type":"Feature","properties":{"c":"200410","en":"Krasang","km":"ក្រសាំង"},"geometry":{"type":"Polygon","coordinates":[[[105.7007,11.5531],[105.6893,11.5599],[105.6901,11.5463],[105.6773,11.5339],[105.6795,11.5293],[105.6785,11.5241],[105.6857,11.5081],[105.6971,11.5027],[105.7063,11.4925],[105.7195,11.4919],[105.7177,11.4981],[105.7201,11.5015],[105.7191,11.5047],[105.7235,11.5091],[105.7459,11.5141],[105.7489,11.5129],[105.7745,11.5199],[105.7733,11.5225],[105.7497,11.5271],[105.7261,11.5361],[105.7145,11.5367],[105.7007,11.5531]]]}},{"type":"Feature","properties":{"c":"200412","en":"Mream","km":"ម្រាម"},"geometry":{"type":"Polygon","coordinates":[[[105.7123,11.3859],[105.6971,11.3985],[105.6689,11.3847],[105.6629,11.3789],[105.6529,11.3779],[105.6543,11.3433],[105.6523,11.3209],[105.6607,11.2975],[105.6871,11.2935],[105.7163,11.2947],[105.7187,11.2989],[105.7101,11.3075],[105.7095,11.3235],[105.7019,11.3373],[105.6971,11.3611],[105.7031,11.3817],[105.7123,11.3859]]]}},{"type":"Feature","properties":{"c":"200411","en":"Mukh Da","km":"មុខដា"},"geometry":{"type":"Polygon","coordinates":[[[105.7463,11.4067],[105.7299,11.4053],[105.7271,11.3935],[105.7231,11.3879],[105.7075,11.3845],[105.7031,11.3817],[105.7001,11.3755],[105.6975,11.3663],[105.6977,11.3533],[105.7019,11.3373],[105.7095,11.3235],[105.7135,11.3261],[105.7317,11.3287],[105.7337,11.3331],[105.7323,11.3533],[105.7339,11.3667],[105.7471,11.3887],[105.7463,11.4067]]]}},{"type":"Feature","properties":{"c":"200414","en":"Sambatt Mean Chey","km":"សម្បត្ដិមានជ័យ"},"geometry":{"type":"Polygon","coordinates":[[[105.7145,11.4549],[105.7117,11.4719],[105.6857,11.4729],[105.6753,11.4667],[105.6701,11.4663],[105.6677,11.4511],[105.6595,11.4385],[105.6565,11.4273],[105.6519,11.4007],[105.6529,11.3779],[105.6663,11.3813],[105.6915,11.4237],[105.7091,11.4367],[105.7099,11.4489],[105.7145,11.4549]]]}},{"type":"Feature","properties":{"c":"200413","en":"Sambuor","km":"សំបួរ"},"geometry":{"type":"Polygon","coordinates":[[[105.7195,11.4919],[105.7063,11.4925],[105.6971,11.5027],[105.6857,11.5081],[105.6823,11.5057],[105.6797,11.4987],[105.6667,11.4891],[105.6649,11.4773],[105.6675,11.4697],[105.6701,11.4663],[105.6753,11.4667],[105.6857,11.4729],[105.7117,11.4719],[105.7145,11.4549],[105.7299,11.4667],[105.7447,11.4571],[105.7501,11.4657],[105.7467,11.4671],[105.7521,11.4737],[105.7323,11.4919],[105.7195,11.4919]]]}},{"type":"Feature","properties":{"c":"200415","en":"Trapeang Sdau","km":"ត្រពាំងស្ដៅ"},"geometry":{"type":"Polygon","coordinates":[[[105.7721,11.3575],[105.7617,11.3757],[105.7557,11.3793],[105.7491,11.3789],[105.7471,11.3887],[105.7353,11.3713],[105.7325,11.3573],[105.7337,11.3331],[105.7305,11.3217],[105.7337,11.2803],[105.7323,11.2771],[105.7437,11.2795],[105.7503,11.2835],[105.7627,11.2797],[105.7821,11.2825],[105.7857,11.2857],[105.7991,11.2891],[105.7919,11.2937],[105.7917,11.2979],[105.7837,11.3053],[105.7855,11.3137],[105.7809,11.3267],[105.7827,11.3363],[105.7721,11.3575]]]}},{"type":"Feature","properties":{"c":"200416","en":"Tras","km":"ត្រស់"},"geometry":{"type":"Polygon","coordinates":[[[105.8337,11.5651],[105.8267,11.5655],[105.8223,11.5705],[105.8199,11.5685],[105.8159,11.5753],[105.8171,11.5817],[105.8117,11.5891],[105.8095,11.5995],[105.8055,11.5985],[105.7677,11.5653],[105.7755,11.5597],[105.7731,11.5537],[105.7799,11.5427],[105.7791,11.5231],[105.7745,11.5199],[105.7489,11.5129],[105.7459,11.5141],[105.7235,11.5091],[105.7191,11.5047],[105.7201,11.5015],[105.7177,11.4981],[105.7195,11.4919],[105.7323,11.4919],[105.7385,11.4849],[105.7473,11.4801],[105.7521,11.4737],[105.7467,11.4671],[105.7501,11.4657],[105.7575,11.4741],[105.7603,11.4733],[105.7711,11.4897],[105.7969,11.4937],[105.8071,11.4877],[105.8231,11.4877],[105.8303,11.4929],[105.8287,11.4967],[105.8733,11.4989],[105.8783,11.4853],[105.8819,11.4831],[105.8847,11.4853],[105.8843,11.4929],[105.8803,11.4995],[105.8799,11.5081],[105.8829,11.5123],[105.8857,11.5321],[105.8831,11.5343],[105.8841,11.5371],[105.8807,11.5441],[105.8615,11.5659],[105.8461,11.5617],[105.8441,11.5639],[105.8337,11.5651]]]}}]}