{"type":"FeatureCollection","features":[{"type":"Feature","properties":{"c":"200501","en":"Angk Ta Sou","km":"អង្គតាសូ"},"geometry":{"type":"Polygon","coordinates":[[[105.7197,11.2175],[105.7147,11.2211],[105.7067,11.2207],[105.7001,11.2235],[105.6899,11.2363],[105.6845,11.2359],[105.6807,11.2283],[105.6841,11.2217],[105.6951,11.2139],[105.6955,11.2099],[105.6917,11.2039],[105.6925,11.1961],[105.6985,11.1883],[105.6981,11.1843],[105.7029,11.1823],[105.7071,11.1815],[105.7163,11.1859],[105.7185,11.2009],[105.7165,11.2057],[105.7197,11.2175]]]}},{"type":"Feature","properties":{"c":"200502","en":"Basak","km":"បាសាក់"},"geometry":{"type":"Polygon","coordinates":[[[105.8523,11.0269],[105.8541,11.0375],[105.8495,11.0487],[105.8435,11.0543],[105.8351,11.0579],[105.8309,11.0593],[105.8279,11.0539],[105.7855,11.0553],[105.7825,11.0521],[105.7821,11.0243],[105.7911,11.0025],[105.7975,10.9937],[105.8029,10.9985],[105.8105,10.9955],[105.8153,10.9855],[105.8189,10.9833],[105.8235,10.9831],[105.8427,10.9919],[105.8495,10.9985],[105.8443,11.0103],[105.8523,11.0269]]]}},{"type":"Feature","properties":{"c":"200503","en":"Chambak","km":"ចំបក់"},"geometry":{"type":"Polygon","coordinates":[[[105.7195,11.0733],[105.6967,11.0755],[105.6935,11.0741],[105.6917,11.0799],[105.6879,11.0819],[105.6799,11.0839],[105.6721,11.0829],[105.6713,11.0525],[105.6683,11.0439],[105.6825,11.0269],[105.6847,10.9965],[105.6965,11.0031],[105.7117,11.0171],[105.7263,11.0247],[105.7139,11.0347],[105.7123,11.0433],[105.7183,11.0505],[105.7195,11.0733]]]}},{"type":"Feature","properties":{"c":"200507","en":"Chheu Teal","km":"ឈើទាល"},"geometry":{"type":"Polygon","coordinates":[[[105.6689,11.1313],[105.6573,11.1365],[105.6475,11.1285],[105.6465,11.1365],[105.6371,11.1375],[105.6347,11.1311],[105.6285,11.1287],[105.6353,11.1213],[105.6265,11.1103],[105.6147,11.1011],[105.6071,11.0905],[105.6065,11.0859],[105.6437,11.0839],[105.6379,11.0747],[105.6381,11.0683],[105.6709,11.0663],[105.6721,11.0829],[105.6761,11.0841],[105.6737,11.1107],[105.6689,11.1313]]]}},{"type":"Feature","properties":{"c":"200508","en":"Doun Sa","km":"ដូនស"},"geometry":{"type":"Polygon","coordinates":[[[105.7349,11.2455],[105.7295,11.2505],[105.7301,11.2583],[105.7203,11.2645],[105.7169,11.2729],[105.7067,11.2719],[105.7003,11.2679],[105.6895,11.2657],[105.6679,11.2647],[105.6713,11.2533],[105.6891,11.2407],[105.6899,11.2363],[105.7035,11.2215],[105.7147,11.2211],[105.7197,11.2175],[105.7253,11.2195],[105.7311,11.2163],[105.7347,11.2269],[105.7349,11.2455]]]}},{"type":"Feature","properties":{"c":"200504","en":"Kampong Chamlang","km":"កំពង់ចំឡង"},"geometry":{"type":"Polygon","coordinates":[[[105.7633,11.0869],[105.7461,11.0823],[105.7399,11.0843],[105.7337,11.0901],[105.7369,11.0785],[105.7355,11.0749],[105.7195,11.0733],[105.7183,11.0505],[105.7123,11.0433],[105.7139,11.0347],[105.7263,11.0247],[105.7385,11.0271],[105.7533,11.0259],[105.7745,11.0323],[105.7787,11.0317],[105.7821,11.0243],[105.7819,11.0489],[105.7855,11.0553],[105.7881,11.0701],[105.7833,11.0735],[105.7801,11.0717],[105.7633,11.0869]]]}},{"type":"Feature","properties":{"c":"200509","en":"Kouk Pring","km":"គោកព្រីង"},"geometry":{"type":"Polygon","coordinates":[[[105.7229,11.1727],[105.7179,11.1773],[105.7163,11.1859],[105.7071,11.1815],[105.6951,11.1843],[105.6831,11.1767],[105.6793,11.1781],[105.6775,11.1857],[105.6707,11.1859],[105.6651,11.1763],[105.6747,11.1683],[105.6749,11.1479],[105.6633,11.1421],[105.6649,11.1363],[105.6689,11.1313],[105.6823,11.1295],[105.6917,11.1339],[105.6925,11.1445],[105.7069,11.1457],[105.7113,11.1397],[105.7207,11.1401],[105.7271,11.1499],[105.7207,11.1633],[105.7205,11.1707],[105.7229,11.1727]]]}},{"type":"Feature","properties":{"c":"200510","en":"Kraol Kou","km":"ក្រោលគោ"},"geometry":{"type":"Polygon","coordinates":[[[105.6651,11.1763],[105.6569,11.1883],[105.6551,11.1999],[105.6077,11.1995],[105.6139,11.1693],[105.6141,11.1497],[105.6191,11.1365],[105.6285,11.1287],[105.6347,11.1311],[105.6371,11.1375],[105.6465,11.1365],[105.6475,11.1285],[105.6573,11.1365],[105.6689,11.1313],[105.6633,11.1421],[105.6749,11.1479],[105.6751,11.1647],[105.6747,11.1683],[105.6651,11.1763]]]}},{"type":"Feature","properties":{"c":"200511","en":"Kruos","km":"គ្រួស"},"geometry":{"type":"Polygon","coordinates":[[[105.6709,11.0663],[105.6477,11.0665],[105.6449,11.0551],[105.6449,11.0385],[105.6277,11.0197],[105.6249,11.0083],[105.6217,11.0051],[105.6067,11.0035],[105.5995,10.9973],[105.6105,10.9931],[105.6109,10.9851],[105.6087,10.9817],[105.6119,10.9737],[105.6635,10.9861],[105.6847,10.9965],[105.6825,11.0269],[105.6683,11.0439],[105.6713,11.0525],[105.6709,11.0663]]]}},{"type":"Feature","properties":{"c":"200512","en":"Pouthi Reach","km":"ពោធិរាជ"},"geometry":{"type":"Polygon","coordinates":[[[105.7697,11.1657],[105.7459,11.1651],[105.7357,11.1687],[105.7259,11.1691],[105.7229,11.1727],[105.7205,11.1707],[105.7207,11.1633],[105.7271,11.1499],[105.7207,11.1401],[105.7383,11.1279],[105.7421,11.1349],[105.7531,11.1397],[105.7699,11.1353],[105.7927,11.1397],[105.7861,11.1499],[105.7697,11.1657]]]}},{"type":"Feature","properties":{"c":"200513","en":"Svay Angk","km":"ស្វាយអង្គ"},"geometry":{"type":"Polygon","coordinates":[[[105.6845,11.2359],[105.6813,11.2387],[105.6729,11.2399],[105.6617,11.2169],[105.6497,11.2105],[105.6551,11.1999],[105.6569,11.1883],[105.6651,11.1763],[105.6707,11.1859],[105.6775,11.1857],[105.6793,11.1781],[105.6831,11.1767],[105.6913,11.1831],[105.6981,11.1843],[105.6985,11.1883],[105.6917,11.2005],[105.6951,11.2139],[105.6815,11.2249],[105.6807,11.2283],[105.6845,11.2359]]]}},{"type":"Feature","properties":{"c":"200514","en":"Svay Chrum","km":"ស្វាយជ្រំ"},"geometry":{"type":"Polygon","coordinates":[[[105.7207,11.1401],[105.7113,11.1397],[105.7069,11.1457],[105.6925,11.1445],[105.6917,11.1339],[105.6823,11.1295],[105.7455,11.1073],[105.7377,11.1191],[105.7383,11.1279],[105.7207,11.1401]]]}},{"type":"Feature","properties":{"c":"200515","en":"Svay Thum","km":"ស្វាយធំ"},"geometry":{"type":"Polygon","coordinates":[[[105.6477,11.0665],[105.6381,11.0683],[105.6379,11.0747],[105.6437,11.0839],[105.6065,11.0859],[105.6029,11.0827],[105.6023,11.0499],[105.5971,11.0403],[105.5953,11.0307],[105.5853,11.0227],[105.5861,11.0185],[105.5803,11.0103],[105.5807,11.0067],[105.5863,11.0007],[105.5995,10.9973],[105.6067,11.0035],[105.6217,11.0051],[105.6249,11.0083],[105.6277,11.0197],[105.6449,11.0385],[105.6449,11.0551],[105.6477,11.0665]]]}},{"type":"Feature","properties":{"c":"200516","en":"Svay Yea","km":"ស្វាយយា"},"geometry":{"type":"Polygon","coordinates":[[[105.6679,11.2647],[105.6531,11.2647],[105.6453,11.2719],[105.6373,11.2713],[105.6337,11.2661],[105.6363,11.2631],[105.6347,11.2575],[105.6245,11.2497],[105.6247,11.2377],[105.6163,11.2235],[105.6077,11.1995],[105.6551,11.1999],[105.6497,11.2105],[105.6617,11.2169],[105.6729,11.2399],[105.6813,11.2387],[105.6845,11.2359],[105.6899,11.2363],[105.6891,11.2407],[105.6713,11.2533],[105.6679,11.2647]]]}},{"type":"Feature","properties":{"c":"200505","en":"Ta Suos","km":"តាសួស"},"geometry":{"type":"Polygon","coordinates":[[[105.6781,11.1295],[105.6689,11.1313],[105.6737,11.1107],[105.6761,11.0841],[105.6917,11.0799],[105.6935,11.0741],[105.7355,11.0749],[105.7369,11.0785],[105.7337,11.0901],[105.7399,11.0843],[105.7461,11.0823],[105.7633,11.0869],[105.7615,11.1003],[105.7041,11.1233],[105.6781,11.1295]]]}},{"type":"Feature","properties":{"c":"200517","en":"Thlok","km":"ធ្លក"},"geometry":{"type":"Polygon","coordinates":[[[105.7311,11.2163],[105.7253,11.2195],[105.7197,11.2175],[105.7165,11.2057],[105.7185,11.2009],[105.7161,11.1901],[105.7179,11.1773],[105.7259,11.1691],[105.7357,11.1687],[105.7459,11.1651],[105.7697,11.1657],[105.7311,11.2163]]]}}]}