{"type":"FeatureCollection","features":[{"type":"Feature","properties":{"c":"200605","en":"Chek","km":"សង្កាត់ចេក"},"geometry":{"type":"Polygon","coordinates":[[[105.7927,11.1397],[105.7699,11.1353],[105.7531,11.1397],[105.7421,11.1349],[105.7371,11.1225],[105.7455,11.1073],[105.7615,11.1003],[105.7633,11.0869],[105.7801,11.0717],[105.7833,11.0735],[105.7795,11.0807],[105.7847,11.0903],[105.7859,11.1107],[105.7999,11.1101],[105.8005,11.1059],[105.8067,11.1053],[105.8091,11.1117],[105.7927,11.1397]]]}},{"type":"Feature","properties":{"c":"200603","en":"Koy Trabaek","km":"សង្កាត់គយត្របែក"},"geometry":{"type":"Polygon","coordinates":[[[105.8109,11.0765],[105.8037,11.0787],[105.7881,11.0701],[105.7855,11.0553],[105.8279,11.0539],[105.8309,11.0593],[105.8109,11.0765]]]}},{"type":"Feature","properties":{"c":"200604","en":"Pou Ta Hao","km":"សង្កាត់ពោធិ៍តាហោ"},"geometry":{"type":"Polygon","coordinates":[[[105.8203,11.0799],[105.8205,11.0941],[105.8173,11.0951],[105.8133,11.0903],[105.8075,11.0905],[105.8109,11.0765],[105.8195,11.0689],[105.8203,11.0799]]]}},{"type":"Feature","properties":{"c":"200602","en":"Prey Chhlak","km":"សង្កាត់ព្រៃឆ្លាក់"},"geometry":{"type":"Polygon","coordinates":[[[105.8067,11.1053],[105.8005,11.1059],[105.7999,11.1101],[105.7859,11.1107],[105.7853,11.0945],[105.8043,11.0885],[105.8075,11.0905],[105.8049,11.0981],[105.8067,11.1053]]]}},{"type":"Feature","properties":{"c":"200607","en":"Sangkhoar","km":"សង្កាត់សង្ឃរ័"},"geometry":{"type":"Polygon","coordinates":[[[105.8285,11.1561],[105.8155,11.1549],[105.8067,11.1493],[105.8055,11.1453],[105.7989,11.1421],[105.7947,11.1363],[105.8081,11.1155],[105.8091,11.1117],[105.8049,11.0981],[105.8075,11.0905],[105.8133,11.0903],[105.8173,11.0951],[105.8205,11.0941],[105.8203,11.0799],[105.8461,11.0781],[105.8417,11.1113],[105.8343,11.1279],[105.8347,11.1467],[105.8285,11.1561]]]}},{"type":"Feature","properties":{"c":"200601","en":"Svay Rieng","km":"សង្កាត់ស្វាយរៀង"},"geometry":{"type":"Polygon","coordinates":[[[105.8075,11.0905],[105.8001,11.0889],[105.7853,11.0945],[105.7835,11.0873],[105.7803,11.0843],[105.7807,11.0777],[105.7881,11.0701],[105.8037,11.0787],[105.8109,11.0765],[105.8075,11.0905]]]}},{"type":"Feature","properties":{"c":"200606","en":"Svay Toea","km":"សង្កាត់ស្វាយតឿ"},"geometry":{"type":"Polygon","coordinates":[[[105.8461,11.0781],[105.8203,11.0799],[105.8195,11.0689],[105.8309,11.0593],[105.8435,11.0543],[105.8495,11.0487],[105.8541,11.0375],[105.8523,11.0269],[105.8693,11.0265],[105.8721,11.0351],[105.8859,11.0475],[105.8933,11.0503],[105.8461,11.0781]]]}}]}