{"type":"FeatureCollection","features":[{"type":"Feature","properties":{"c":"200703","en":"Kandieng Reay","km":"កណ្ដៀងរាយ"},"geometry":{"type":"Polygon","coordinates":[[[105.9493,11.0643],[105.9531,11.0913],[105.9335,11.0865],[105.9087,11.0639],[105.8957,11.0591],[105.8933,11.0503],[105.9079,11.0427],[105.9355,11.0363],[105.9647,11.0437],[105.9587,11.0543],[105.9511,11.0565],[105.9493,11.0643]]]}},{"type":"Feature","properties":{"c":"200702","en":"Koki Saom","km":"គគីសោម"},"geometry":{"type":"Polygon","coordinates":[[[106.0111,11.1901],[105.9949,11.1919],[105.9757,11.1987],[105.9661,11.1959],[105.9611,11.1973],[105.9337,11.2123],[105.9145,11.1937],[105.9079,11.1797],[105.9131,11.1275],[105.9183,11.1209],[105.9379,11.1279],[105.9671,11.1309],[105.9727,11.1615],[105.9963,11.1769],[106.0111,11.1901]]]}},{"type":"Feature","properties":{"c":"200704","en":"Monourom","km":"មនោរម្យ"},"geometry":{"type":"Polygon","coordinates":[[[106.0859,11.1005],[106.0785,11.0985],[106.0731,11.1003],[106.0627,11.1159],[106.0535,11.1231],[106.0483,11.1215],[106.0325,11.1147],[106.0323,11.0841],[106.0577,11.0823],[106.0661,11.0905],[106.0817,11.0937],[106.0859,11.1005]]]}},{"type":"Feature","properties":{"c":"200705","en":"Popeaet","km":"ពពែត"},"geometry":{"type":"Polygon","coordinates":[[[106.0325,11.1147],[105.9963,11.1201],[105.9689,11.1169],[105.9563,11.1033],[105.9493,11.0643],[105.9799,11.0685],[106.0323,11.0841],[106.0325,11.1147]]]}},{"type":"Feature","properties":{"c":"200707","en":"Prasoutr","km":"ប្រសូត្រ"},"geometry":{"type":"Polygon","coordinates":[[[105.9389,11.0369],[105.9079,11.0427],[105.8933,11.0503],[105.8899,11.0485],[105.8933,11.0269],[105.9003,11.0133],[105.9089,10.9867],[105.9167,10.9773],[105.9347,10.9679],[105.9415,10.9743],[105.9507,10.9753],[105.9501,10.9963],[105.9391,11.0151],[105.9389,11.0369]]]}},{"type":"Feature","properties":{"c":"200706","en":"Prey Ta Ei","km":"ព្រៃតាអី"},"geometry":{"type":"Polygon","coordinates":[[[106.0535,11.1231],[106.0257,11.1387],[106.0211,11.1437],[106.0173,11.1543],[106.0139,11.1861],[106.0111,11.1901],[105.9963,11.1769],[105.9727,11.1615],[105.9671,11.1309],[105.9689,11.1169],[105.9963,11.1201],[106.0325,11.1147],[106.0535,11.1231]]]}},{"type":"Feature","properties":{"c":"200708","en":"Romeang Thkaol","km":"រមាំងថ្កោល"},"geometry":{"type":"Polygon","coordinates":[[[105.9183,11.1209],[105.9033,11.1197],[105.8721,11.1261],[105.8571,11.1363],[105.8551,11.1563],[105.8405,11.1545],[105.8285,11.1561],[105.8347,11.1467],[105.8343,11.1279],[105.8417,11.1113],[105.8461,11.0781],[105.8653,11.0669],[105.8695,11.0677],[105.8755,11.0731],[105.8771,11.0835],[105.8865,11.0959],[105.9065,11.1083],[105.9183,11.1209]]]}},{"type":"Feature","properties":{"c":"200709","en":"Sambuor","km":"សំបួរ"},"geometry":{"type":"Polygon","coordinates":[[[105.9689,11.1169],[105.9671,11.1309],[105.9261,11.1247],[105.9183,11.1209],[105.9065,11.1083],[105.8865,11.0959],[105.8771,11.0835],[105.8755,11.0731],[105.8695,11.0677],[105.8653,11.0669],[105.8933,11.0503],[105.8957,11.0591],[105.9087,11.0639],[105.9335,11.0865],[105.9531,11.0913],[105.9563,11.1033],[105.9689,11.1169]]]}},{"type":"Feature","properties":{"c":"200711","en":"Svay Rumpear","km":"ស្វាយរំពារ"},"geometry":{"type":"Polygon","coordinates":[[[105.9183,11.1209],[105.9115,11.1305],[105.9079,11.1797],[105.9003,11.1701],[105.8845,11.1617],[105.8551,11.1563],[105.8571,11.1363],[105.8721,11.1261],[105.9033,11.1197],[105.9183,11.1209]]]}}]}