{"type":"FeatureCollection","features":[{"type":"Feature","properties":{"c":"200801","en":"Bati","km":"សង្កាត់បាទី"},"geometry":{"type":"Polygon","coordinates":[[[106.1477,11.0337],[106.1371,11.0429],[106.1305,11.0421],[106.1159,11.0495],[106.1073,11.0499],[106.1043,11.0519],[106.1047,11.0563],[106.0789,11.0481],[106.0835,11.0297],[106.1003,11.0077],[106.1031,11.0005],[106.1107,10.9941],[106.1201,10.9927],[106.1263,10.9863],[106.1377,10.9905],[106.1485,10.9891],[106.1543,10.9851],[106.1561,10.9875],[106.1553,11.0105],[106.1461,11.0307],[106.1477,11.0337]]]}},{"type":"Feature","properties":{"c":"200802","en":"Bavet","km":"សង្កាត់បាវិត"},"geometry":{"type":"Polygon","coordinates":[[[106.1895,11.0325],[106.1873,11.0523],[106.1537,11.1015],[106.1449,11.1013],[106.1209,11.0883],[106.1053,11.0675],[106.1043,11.0519],[106.1209,11.0477],[106.1305,11.0421],[106.1371,11.0429],[106.1477,11.0337],[106.1545,11.0327],[106.1617,11.0265],[106.1731,11.0307],[106.1803,11.0289],[106.1895,11.0325]]]}},{"type":"Feature","properties":{"c":"200803","en":"Chrak Mtes","km":"សង្កាត់ច្រកម្ទេស"},"geometry":{"type":"Polygon","coordinates":[[[106.1071,11.0713],[106.1009,11.0745],[106.0989,11.0775],[106.1001,11.0857],[106.0891,11.1005],[106.0859,11.1005],[106.0817,11.0937],[106.0661,11.0905],[106.0577,11.0823],[106.0323,11.0841],[105.9799,11.0685],[105.9493,11.0643],[105.9491,11.0603],[105.9511,11.0565],[105.9611,11.0519],[105.9647,11.0437],[106.0103,11.0381],[106.0553,11.0427],[106.1047,11.0563],[106.1071,11.0713]]]}},{"type":"Feature","properties":{"c":"200804","en":"Prasat","km":"សង្កាត់ប្រាសាទ"},"geometry":{"type":"Polygon","coordinates":[[[106.1895,11.0325],[106.1803,11.0289],[106.1731,11.0307],[106.1617,11.0265],[106.1545,11.0327],[106.1477,11.0337],[106.1461,11.0307],[106.1553,11.0105],[106.1563,10.9907],[106.1543,10.9851],[106.1579,10.9797],[106.1903,10.9721],[106.2057,10.9765],[106.1951,10.9983],[106.1895,11.0325]]]}},{"type":"Feature","properties":{"c":"200805","en":"Prey Angkunh","km":"សង្កាត់ព្រៃអង្គុញ"},"geometry":{"type":"Polygon","coordinates":[[[106.0327,11.0027],[106.0389,11.0071],[106.0597,11.0317],[106.0605,11.0439],[106.0103,11.0381],[105.9647,11.0437],[105.9807,11.0315],[105.9989,11.0255],[106.0083,11.0249],[106.0253,11.0167],[106.0245,11.0139],[106.0327,11.0027]]]}}]}