{"type":"FeatureCollection","features":[{"type":"Feature","properties":{"c":"210101","en":"Angkor Borei","km":"អង្គរបូរី"},"geometry":{"type":"Polygon","coordinates":[[[104.9925,11.0113],[104.9687,11.0123],[104.9685,11.0417],[104.9305,11.0421],[104.9295,11.0031],[104.9229,11.0027],[104.9233,10.9649],[104.9271,10.9645],[104.9365,10.9693],[104.9389,10.9429],[104.9551,10.9221],[104.9633,10.9375],[104.9579,10.9479],[104.9539,10.9491],[104.9481,10.9457],[104.9443,10.9525],[104.9527,10.9597],[104.9511,10.9665],[104.9559,10.9791],[104.9689,10.9913],[104.9723,10.9935],[104.9841,10.9901],[104.9897,10.9917],[104.9937,10.9983],[104.9909,11.0077],[104.9925,11.0113]]]}},{"type":"Feature","properties":{"c":"210102","en":"Ba Srae","km":"បាស្រែ"},"geometry":{"type":"Polygon","coordinates":[[[105.0067,11.0777],[104.9993,11.0793],[104.9847,11.0769],[104.9739,11.0785],[104.9237,11.0771],[104.9229,11.0469],[104.9305,11.0421],[104.9685,11.0417],[104.9687,11.0123],[104.9925,11.0113],[104.9979,11.0293],[104.9931,11.0355],[104.9987,11.0493],[104.9963,11.0559],[105.0023,11.0603],[105.0067,11.0777]]]}},{"type":"Feature","properties":{"c":"210103","en":"Kouk Thlok","km":"គោកធ្លក"},"geometry":{"type":"Polygon","coordinates":[[[105.0363,10.8977],[105.0329,10.9057],[105.0335,10.9107],[105.0425,10.9281],[105.0375,10.9479],[105.0315,10.9605],[105.0321,10.9763],[104.9869,10.9759],[104.9875,10.8887],[105.0373,10.8433],[105.0497,10.8379],[105.0361,10.8669],[105.0309,10.8861],[105.0305,10.8929],[105.0363,10.8977]]]}},{"type":"Feature","properties":{"c":"210104","en":"Ponley","km":"ពន្លៃ"},"geometry":{"type":"Polygon","coordinates":[[[104.9089,11.0931],[104.9077,11.1007],[104.8961,11.1021],[104.8945,11.0971],[104.8909,11.0967],[104.8901,11.0861],[104.8865,11.0853],[104.8865,11.0823],[104.8729,11.0805],[104.8727,11.0757],[104.8501,11.0753],[104.8523,11.0721],[104.8503,11.0697],[104.8369,11.0629],[104.8325,11.0567],[104.8319,11.0479],[104.8349,11.0405],[104.8417,11.0353],[104.8439,11.0257],[104.8581,11.0181],[104.8623,11.0117],[104.8641,10.9987],[104.8795,10.9813],[104.8811,10.9727],[104.8773,10.9707],[104.8875,10.9607],[104.8863,11.0395],[104.8987,11.0397],[104.9001,11.0755],[104.9083,11.0765],[104.9089,11.0931]]]}},{"type":"Feature","properties":{"c":"210105","en":"Preaek Phtoul","km":"ព្រែកផ្ទោល"},"geometry":{"type":"Polygon","coordinates":[[[105.0321,10.9763],[105.0311,10.9887],[105.0287,10.9917],[104.9989,10.9981],[104.9937,10.9983],[104.9871,10.9903],[104.9723,10.9935],[104.9559,10.9791],[104.9511,10.9665],[104.9527,10.9597],[104.9443,10.9525],[104.9451,10.9481],[104.9481,10.9457],[104.9539,10.9491],[104.9579,10.9479],[104.9633,10.9375],[104.9551,10.9221],[104.9627,10.9153],[104.9697,10.9039],[104.9875,10.8887],[104.9869,10.9759],[105.0321,10.9763]]]}},{"type":"Feature","properties":{"c":"210106","en":"Prey Phkoam","km":"ព្រៃផ្គាំ"},"geometry":{"type":"Polygon","coordinates":[[[104.9305,11.0421],[104.9229,11.0469],[104.9237,11.0771],[104.9001,11.0755],[104.8987,11.0397],[104.8863,11.0395],[104.8875,10.9607],[104.8933,10.9547],[104.8971,10.9555],[104.9003,10.9655],[104.9069,10.9681],[104.9173,10.9683],[104.9233,10.9649],[104.9229,11.0027],[104.9295,11.0031],[104.9305,11.0421]]]}}]}