{"type":"FeatureCollection","features":[{"type":"Feature","properties":{"c":"210201","en":"Chambak","km":"ចំបក់"},"geometry":{"type":"Polygon","coordinates":[[[104.8403,11.2337],[104.8397,11.2529],[104.8179,11.2515],[104.8157,11.2493],[104.8137,11.2519],[104.8021,11.2519],[104.7965,11.2481],[104.7869,11.2491],[104.7865,11.2205],[104.7911,11.2133],[104.8065,11.2167],[104.8141,11.2099],[104.8179,11.2107],[104.8223,11.2163],[104.8275,11.2147],[104.8337,11.2061],[104.8379,11.2313],[104.8403,11.2337]]]}},{"type":"Feature","properties":{"c":"210202","en":"Champei","km":"ចំប៉ី"},"geometry":{"type":"Polygon","coordinates":[[[104.8851,11.3031],[104.8587,11.3019],[104.8587,11.2747],[104.8615,11.2633],[104.8885,11.2599],[104.9119,11.2855],[104.9131,11.2901],[104.9041,11.3017],[104.8913,11.2997],[104.8851,11.3031]]]}},{"type":"Feature","properties":{"c":"210203","en":"Doung","km":"ដូង"},"geometry":{"type":"Polygon","coordinates":[[[104.9261,11.2715],[104.9119,11.2855],[104.8885,11.2599],[104.8897,11.2467],[104.8947,11.2369],[104.8951,11.2295],[104.8999,11.2227],[104.9299,11.2223],[104.9303,11.2303],[104.9451,11.2397],[104.9359,11.2473],[104.9261,11.2715]]]}},{"type":"Feature","properties":{"c":"210204","en":"Kandoeng","km":"កណ្ដឹង"},"geometry":{"type":"Polygon","coordinates":[[[104.8587,11.3019],[104.8503,11.3039],[104.8509,11.3173],[104.8055,11.3223],[104.8049,11.3099],[104.8079,11.3071],[104.8023,11.3009],[104.7999,11.2887],[104.8013,11.2857],[104.8159,11.2897],[104.8307,11.2763],[104.8395,11.2757],[104.8413,11.2623],[104.8615,11.2633],[104.8587,11.2747],[104.8587,11.3019]]]}},{"type":"Feature","properties":{"c":"210205","en":"Komar Reachea","km":"កុមាររាជា"},"geometry":{"type":"Polygon","coordinates":[[[104.7745,11.2849],[104.7483,11.2893],[104.7433,11.2925],[104.7261,11.2775],[104.7185,11.2637],[104.7095,11.2619],[104.7023,11.2567],[104.7015,11.2413],[104.7093,11.2403],[104.7147,11.2353],[104.7289,11.2321],[104.7301,11.2483],[104.7457,11.2547],[104.7597,11.2531],[104.7687,11.2547],[104.7705,11.2749],[104.7747,11.2795],[104.7745,11.2849]]]}},{"type":"Feature","properties":{"c":"210206","en":"Krang Leav","km":"ក្រាំងលាវ"},"geometry":{"type":"Polygon","coordinates":[[[104.7687,11.2547],[104.7597,11.2531],[104.7457,11.2547],[104.7301,11.2483],[104.7289,11.2321],[104.7147,11.2353],[104.7093,11.2403],[104.7015,11.2413],[104.6963,11.2329],[104.6927,11.2069],[104.7179,11.2057],[104.7261,11.2019],[104.7329,11.1927],[104.7355,11.2045],[104.7455,11.2039],[104.7477,11.2251],[104.7505,11.2287],[104.7483,11.2433],[104.7601,11.2493],[104.7703,11.2501],[104.7687,11.2547]]]}},{"type":"Feature","properties":{"c":"210207","en":"Krang Thnong","km":"ក្រាំងធ្នង់"},"geometry":{"type":"Polygon","coordinates":[[[104.8305,11.3469],[104.8217,11.3463],[104.8049,11.3525],[104.7961,11.3393],[104.7851,11.3301],[104.7847,11.3165],[104.8011,11.3097],[104.8049,11.3099],[104.8055,11.3223],[104.8509,11.3173],[104.8503,11.3039],[104.8587,11.3019],[104.8851,11.3031],[104.8817,11.3197],[104.8723,11.3345],[104.8689,11.3369],[104.8629,11.3369],[104.8611,11.3401],[104.8637,11.3453],[104.8625,11.3491],[104.8525,11.3417],[104.8347,11.3423],[104.8305,11.3469]]]}},{"type":"Feature","properties":{"c":"210208","en":"Lumpong","km":"លំពង់"},"geometry":{"type":"Polygon","coordinates":[[[104.8049,11.3525],[104.7971,11.3537],[104.7939,11.3509],[104.7727,11.3461],[104.7589,11.3375],[104.7551,11.3369],[104.7457,11.3423],[104.7541,11.3255],[104.7473,11.3115],[104.7495,11.3027],[104.7433,11.2925],[104.7483,11.2893],[104.7745,11.2849],[104.7767,11.3191],[104.7847,11.3165],[104.7851,11.3301],[104.7961,11.3393],[104.8049,11.3525]]]}},{"type":"Feature","properties":{"c":"210209","en":"Pea Ream","km":"ពារាម"},"geometry":{"type":"Polygon","coordinates":[[[104.8885,11.2599],[104.8615,11.2633],[104.8413,11.2623],[104.8403,11.2337],[104.8631,11.2301],[104.8695,11.2271],[104.8829,11.2255],[104.8923,11.2271],[104.8953,11.2327],[104.8897,11.2467],[104.8885,11.2599]]]}},{"type":"Feature","properties":{"c":"210210","en":"Pot Sar","km":"ពត់សរ"},"geometry":{"type":"Polygon","coordinates":[[[104.9347,11.3305],[104.9253,11.3273],[104.9209,11.3295],[104.9133,11.3401],[104.9033,11.3425],[104.8947,11.3493],[104.8759,11.3481],[104.8733,11.3511],[104.8653,11.3519],[104.8625,11.3491],[104.8637,11.3453],[104.8611,11.3401],[104.8629,11.3369],[104.8689,11.3369],[104.8723,11.3345],[104.8817,11.3197],[104.8851,11.3031],[104.8913,11.2997],[104.9041,11.3017],[104.9131,11.2901],[104.9119,11.2855],[104.9261,11.2715],[104.9331,11.2809],[104.9395,11.2985],[104.9393,11.3251],[104.9347,11.3305]]]}},{"type":"Feature","properties":{"c":"210211","en":"Sour Phi","km":"សូរភី"},"geometry":{"type":"Polygon","coordinates":[[[104.7433,11.2925],[104.7087,11.3069],[104.7073,11.2837],[104.7023,11.2567],[104.7095,11.2619],[104.7185,11.2637],[104.7261,11.2775],[104.7433,11.2925]]]}},{"type":"Feature","properties":{"c":"210212","en":"Tang Doung","km":"តាំងដូង"},"geometry":{"type":"Polygon","coordinates":[[[104.7457,11.3423],[104.7325,11.3499],[104.7125,11.3245],[104.7087,11.3069],[104.7433,11.2925],[104.7495,11.3027],[104.7473,11.3115],[104.7541,11.3255],[104.7457,11.3423]]]}},{"type":"Feature","properties":{"c":"210213","en":"Tnaot","km":"ត្នោត"},"geometry":{"type":"Polygon","coordinates":[[[104.8951,11.2295],[104.8829,11.2255],[104.8403,11.2337],[104.8379,11.2313],[104.8337,11.2061],[104.8565,11.2059],[104.8675,11.2105],[104.8841,11.2109],[104.8987,11.2083],[104.9001,11.2121],[104.9079,11.2089],[104.9315,11.2125],[104.9299,11.2223],[104.8999,11.2227],[104.8951,11.2295]]]}},{"type":"Feature","properties":{"c":"210214","en":"Trapeang Krasang","km":"ត្រពាំងក្រសាំង"},"geometry":{"type":"Polygon","coordinates":[[[104.7869,11.2491],[104.7601,11.2493],[104.7483,11.2433],[104.7505,11.2287],[104.7477,11.2251],[104.7455,11.2039],[104.7595,11.2011],[104.7635,11.2081],[104.7727,11.2111],[104.7757,11.2183],[104.7815,11.2221],[104.7865,11.2205],[104.7869,11.2491]]]}},{"type":"Feature","properties":{"c":"210215","en":"Trapeang Sab","km":"ត្រពាំងសាប"},"geometry":{"type":"Polygon","coordinates":[[[104.7847,11.3165],[104.7767,11.3191],[104.7761,11.2885],[104.7747,11.2795],[104.7705,11.2749],[104.7687,11.2547],[104.7703,11.2501],[104.7965,11.2481],[104.8021,11.2519],[104.8137,11.2519],[104.8157,11.2493],[104.8179,11.2515],[104.8397,11.2529],[104.8413,11.2623],[104.8395,11.2757],[104.8307,11.2763],[104.8159,11.2897],[104.8013,11.2857],[104.7999,11.2887],[104.8023,11.3009],[104.8079,11.3071],[104.7847,11.3165]]]}}]}