{"type":"FeatureCollection","features":[{"type":"Feature","properties":{"c":"210301","en":"Borei Cholsar","km":"បូរីជលសារ"},"geometry":{"type":"Polygon","coordinates":[[[105.0497,10.8379],[105.0373,10.8433],[104.9999,10.8773],[104.9231,10.8763],[104.9229,10.8437],[104.9377,10.8455],[104.9457,10.8433],[104.9461,10.8401],[104.9505,10.8403],[104.9517,10.8211],[104.9629,10.8207],[104.9685,10.8311],[104.9871,10.8311],[105.0057,10.8133],[105.0537,10.8133],[105.0585,10.8149],[105.0583,10.8201],[105.0497,10.8379]]]}},{"type":"Feature","properties":{"c":"210302","en":"Chey Chouk","km":"ជ័យជោគ"},"geometry":{"type":"Polygon","coordinates":[[[105.0687,10.7043],[105.0693,10.7317],[105.0145,10.7317],[105.0139,10.6913],[104.9963,10.6893],[104.9947,10.6623],[105.0687,10.7043]]]}},{"type":"Feature","properties":{"c":"210303","en":"Doung Khpos","km":"ដូងខ្ពស់"},"geometry":{"type":"Polygon","coordinates":[[[104.9231,10.8673],[104.8865,10.8677],[104.8865,10.8855],[104.8535,10.8853],[104.8529,10.8403],[104.8955,10.8403],[104.8955,10.8467],[104.9089,10.8469],[104.9229,10.8437],[104.9231,10.8673]]]}},{"type":"Feature","properties":{"c":"210304","en":"Kampong Krasang","km":"កំពង់ក្រសាំង"},"geometry":{"type":"Polygon","coordinates":[[[105.0687,10.7043],[105.0971,10.7203],[105.0919,10.7565],[105.0775,10.7751],[105.0645,10.7821],[105.0621,10.7965],[105.0571,10.8019],[105.0585,10.8149],[105.0057,10.8133],[105.0147,10.8041],[105.0145,10.7317],[105.0693,10.7317],[105.0687,10.7043]]]}},{"type":"Feature","properties":{"c":"210305","en":"Kouk Pou","km":"គោកពោធិ៍"},"geometry":{"type":"Polygon","coordinates":[[[104.9875,10.8887],[104.9697,10.9039],[104.9633,10.9123],[104.8893,10.9111],[104.8831,10.8995],[104.8807,10.8863],[104.8865,10.8855],[104.8865,10.8677],[104.9231,10.8673],[104.9231,10.8763],[104.9999,10.8773],[104.9875,10.8887]]]}}]}