{"type":"FeatureCollection","features":[{"type":"Feature","properties":{"c":"210401","en":"Angk Prasat","km":"អង្គប្រាសាទ"},"geometry":{"type":"Polygon","coordinates":[[[104.8567,10.6775],[104.8369,10.7117],[104.8253,10.7585],[104.8075,10.7577],[104.8173,10.7833],[104.7711,10.7781],[104.7643,10.7745],[104.7569,10.7549],[104.7803,10.7267],[104.7953,10.7271],[104.8123,10.6777],[104.8567,10.6775]]]}},{"type":"Feature","properties":{"c":"210403","en":"Kamnab","km":"កំណប់"},"geometry":{"type":"Polygon","coordinates":[[[104.9313,10.6809],[104.9197,10.6827],[104.9169,10.6853],[104.9035,10.6785],[104.8981,10.6739],[104.8999,10.6643],[104.8981,10.6577],[104.9027,10.6479],[104.9123,10.6377],[104.9163,10.6213],[104.9353,10.6137],[104.9543,10.6369],[104.9297,10.6607],[104.9295,10.6685],[104.9325,10.6729],[104.9313,10.6809]]]}},{"type":"Feature","properties":{"c":"210404","en":"Kampeaeng","km":"កំពែង"},"geometry":{"type":"Polygon","coordinates":[[[104.7255,10.6835],[104.7227,10.6861],[104.6863,10.6801],[104.6837,10.6773],[104.6745,10.6781],[104.6737,10.6519],[104.6769,10.6361],[104.6739,10.6213],[104.7077,10.6191],[104.7135,10.6095],[104.7229,10.6109],[104.7245,10.6161],[104.7297,10.6163],[104.7325,10.6369],[104.7493,10.6623],[104.7391,10.6693],[104.7255,10.6835]]]}},{"type":"Feature","properties":{"c":"210405","en":"Kiri Chong Kaoh","km":"គីរីចុងកោះ"},"geometry":{"type":"Polygon","coordinates":[[[104.9145,10.6241],[104.9123,10.6377],[104.9091,10.6417],[104.8945,10.6291],[104.8883,10.6265],[104.8843,10.6263],[104.8817,10.6321],[104.8407,10.6321],[104.8405,10.6141],[104.8301,10.6051],[104.8379,10.5947],[104.8409,10.5941],[104.8853,10.5945],[104.8865,10.6119],[104.8961,10.6119],[104.9145,10.6241]]]}},{"type":"Feature","properties":{"c":"210406","en":"Kouk Prech","km":"គោកព្រេច"},"geometry":{"type":"Polygon","coordinates":[[[104.7613,10.7655],[104.7531,10.7639],[104.7521,10.7701],[104.7455,10.7769],[104.7387,10.7801],[104.7291,10.7803],[104.7039,10.7647],[104.6999,10.7505],[104.7021,10.7411],[104.6877,10.7213],[104.6805,10.7063],[104.6733,10.7005],[104.6711,10.6955],[104.6745,10.6781],[104.6837,10.6773],[104.6863,10.6801],[104.7227,10.6861],[104.7255,10.6835],[104.7407,10.6995],[104.7599,10.7021],[104.7785,10.7079],[104.7823,10.7147],[104.7817,10.7231],[104.7569,10.7549],[104.7613,10.7655]]]}},{"type":"Feature","properties":{"c":"210407","en":"Phnum Den","km":"ភ្នំដិន"},"geometry":{"type":"Polygon","coordinates":[[[104.9353,10.6137],[104.9297,10.6175],[104.9201,10.6189],[104.9145,10.6241],[104.8961,10.6119],[104.8865,10.6119],[104.8865,10.5867],[104.9087,10.5667],[104.9353,10.6137]]]}},{"type":"Feature","properties":{"c":"210402","en":"Preah Bat Choan Chum","km":"ព្រះបាទជាន់ជុំ"},"geometry":{"type":"Polygon","coordinates":[[[104.8981,10.6739],[104.8961,10.6775],[104.8851,10.6785],[104.8041,10.6777],[104.8057,10.6611],[104.8127,10.6485],[104.8133,10.6327],[104.8817,10.6321],[104.8843,10.6263],[104.8911,10.6273],[104.9091,10.6417],[104.8987,10.6543],[104.8999,10.6643],[104.8981,10.6739]]]}},{"type":"Feature","properties":{"c":"210408","en":"Prey Ampok","km":"ព្រៃអំពក"},"geometry":{"type":"Polygon","coordinates":[[[104.8407,10.6321],[104.8133,10.6327],[104.8127,10.6485],[104.8057,10.6611],[104.8039,10.6711],[104.7903,10.6679],[104.7787,10.6485],[104.7711,10.6445],[104.7727,10.5875],[104.8197,10.5871],[104.8355,10.5983],[104.8301,10.6051],[104.8405,10.6141],[104.8407,10.6321]]]}},{"type":"Feature","properties":{"c":"210409","en":"Prey Rumdeng","km":"ព្រៃរំដេង"},"geometry":{"type":"Polygon","coordinates":[[[104.7711,10.6445],[104.7707,10.6617],[104.7493,10.6623],[104.7325,10.6369],[104.7297,10.6163],[104.7245,10.6161],[104.7229,10.6109],[104.7135,10.6095],[104.7067,10.5925],[104.7073,10.5849],[104.7115,10.5807],[104.7129,10.5753],[104.7121,10.5509],[104.7141,10.5415],[104.7185,10.5373],[104.7145,10.5321],[104.7537,10.5179],[104.7617,10.5183],[104.7727,10.5591],[104.7711,10.6445]]]}},{"type":"Feature","properties":{"c":"210410","en":"Ream Andaeuk","km":"រាមអណ្ដើក"},"geometry":{"type":"Polygon","coordinates":[[[104.8123,10.6777],[104.7953,10.7271],[104.7803,10.7267],[104.7823,10.7147],[104.7785,10.7079],[104.7599,10.7021],[104.7407,10.6995],[104.7255,10.6835],[104.7391,10.6693],[104.7493,10.6623],[104.7707,10.6617],[104.7711,10.6445],[104.7787,10.6485],[104.7903,10.6679],[104.8039,10.6711],[104.8041,10.6777],[104.8123,10.6777]]]}},{"type":"Feature","properties":{"c":"210411","en":"Saom","km":"សោម"},"geometry":{"type":"Polygon","coordinates":[[[104.8853,10.5945],[104.8409,10.5941],[104.8355,10.5983],[104.8197,10.5871],[104.8295,10.5493],[104.8275,10.5213],[104.8691,10.5223],[104.8975,10.5479],[104.9087,10.5667],[104.8865,10.5867],[104.8853,10.5945]]]}},{"type":"Feature","properties":{"c":"210412","en":"Ta Ou","km":"តាអូរ"},"geometry":{"type":"Polygon","coordinates":[[[104.8197,10.5871],[104.7727,10.5875],[104.7727,10.5591],[104.7617,10.5183],[104.8275,10.5213],[104.8295,10.5493],[104.8197,10.5871]]]}}]}