{"type":"FeatureCollection","features":[{"type":"Feature","properties":{"c":"210501","en":"Krapum Chhuk","km":"ក្រពុំឈូក"},"geometry":{"type":"Polygon","coordinates":[[[105.0141,10.7405],[104.9599,10.7317],[104.9507,10.7411],[104.9505,10.7499],[104.9365,10.7497],[104.9363,10.7403],[104.9189,10.7407],[104.9189,10.7499],[104.9047,10.7499],[104.9047,10.7407],[104.8681,10.7343],[104.8681,10.7225],[104.8825,10.7215],[104.8849,10.7179],[104.8851,10.6785],[104.8961,10.6775],[104.8981,10.6739],[104.9133,10.6847],[104.9357,10.6805],[104.9399,10.6871],[104.9533,10.6969],[104.9687,10.7003],[104.9971,10.7223],[105.0137,10.7229],[105.0141,10.7405]]]}},{"type":"Feature","properties":{"c":"210502","en":"Pech Sar","km":"ពេជសារ"},"geometry":{"type":"Polygon","coordinates":[[[104.8681,10.7343],[104.8677,10.7681],[104.8621,10.7771],[104.8615,10.7861],[104.8173,10.7833],[104.8075,10.7577],[104.8253,10.7585],[104.8369,10.7117],[104.8567,10.6775],[104.8851,10.6785],[104.8849,10.7179],[104.8825,10.7215],[104.8681,10.7225],[104.8681,10.7343]]]}},{"type":"Feature","properties":{"c":"210503","en":"Prey Khla","km":"ព្រៃខ្លា"},"geometry":{"type":"Polygon","coordinates":[[[105.0139,10.7769],[104.9515,10.7769],[104.9417,10.7727],[104.9261,10.7781],[104.9183,10.7761],[104.9135,10.7861],[104.8615,10.7861],[104.8621,10.7771],[104.8677,10.7681],[104.8681,10.7343],[104.9047,10.7407],[104.9047,10.7499],[104.9189,10.7499],[104.9189,10.7407],[104.9363,10.7403],[104.9365,10.7497],[104.9505,10.7499],[104.9507,10.7411],[104.9599,10.7317],[105.0141,10.7405],[105.0139,10.7769]]]}},{"type":"Feature","properties":{"c":"210504","en":"Prey Yuthka","km":"ព្រៃយុថ្កា"},"geometry":{"type":"Polygon","coordinates":[[[104.9947,10.6623],[104.9963,10.6893],[105.0139,10.6913],[105.0137,10.7229],[104.9971,10.7223],[104.9687,10.7003],[104.9533,10.6969],[104.9399,10.6871],[104.9357,10.6805],[104.9313,10.6809],[104.9325,10.6729],[104.9295,10.6685],[104.9297,10.6607],[104.9543,10.6369],[104.9947,10.6623]]]}},{"type":"Feature","properties":{"c":"210505","en":"Romenh","km":"រមេញ"},"geometry":{"type":"Polygon","coordinates":[[[104.9229,10.8437],[104.9089,10.8469],[104.9105,10.7987],[104.9047,10.7987],[104.9045,10.7861],[104.9135,10.7861],[104.9183,10.7761],[104.9261,10.7781],[104.9417,10.7727],[104.9515,10.7769],[105.0139,10.7769],[105.0147,10.8041],[104.9871,10.8311],[104.9685,10.8311],[104.9629,10.8207],[104.9517,10.8211],[104.9505,10.8403],[104.9461,10.8401],[104.9457,10.8433],[104.9377,10.8455],[104.9229,10.8437]]]}},{"type":"Feature","properties":{"c":"210506","en":"Thlea Prachum","km":"ធ្លាប្រជុំ"},"geometry":{"type":"Polygon","coordinates":[[[104.9045,10.7861],[104.9047,10.7987],[104.9105,10.7987],[104.9089,10.8469],[104.8955,10.8467],[104.8955,10.8403],[104.8591,10.8401],[104.8589,10.8223],[104.8637,10.8215],[104.8643,10.8181],[104.8625,10.8009],[104.8499,10.8001],[104.8499,10.7859],[104.9045,10.7861]]]}}]}