{"type":"FeatureCollection","features":[{"type":"Feature","properties":{"c":"210601","en":"Angkanh","km":"អង្កាញ់"},"geometry":{"type":"Polygon","coordinates":[[[104.9879,11.0779],[104.9719,11.0883],[104.9743,11.0913],[104.9711,11.0923],[104.9089,11.0931],[104.9083,11.0765],[104.9879,11.0779]]]}},{"type":"Feature","properties":{"c":"210602","en":"Ban Kam","km":"បានកាម"},"geometry":{"type":"Polygon","coordinates":[[[104.9843,11.1417],[104.9811,11.1401],[104.9529,11.1445],[104.9425,11.1435],[104.9265,11.1477],[104.9253,11.1437],[104.9159,11.1417],[104.9139,11.1293],[104.9631,11.1293],[104.9781,11.1257],[104.9787,11.1179],[104.9849,11.1119],[105.0175,11.1117],[105.0185,11.1161],[105.0121,11.1161],[105.0121,11.1217],[104.9945,11.1227],[104.9927,11.1317],[104.9849,11.1325],[104.9843,11.1417]]]}},{"type":"Feature","properties":{"c":"210603","en":"Champa","km":"ចំប៉ា"},"geometry":{"type":"Polygon","coordinates":[[[104.9245,11.1649],[104.8831,11.1649],[104.8837,11.1579],[104.8805,11.1551],[104.8807,11.1483],[104.8855,11.1467],[104.8875,11.1331],[104.8909,11.1293],[104.9139,11.1293],[104.9159,11.1417],[104.9253,11.1437],[104.9265,11.1477],[104.9245,11.1649]]]}},{"type":"Feature","properties":{"c":"210604","en":"Char","km":"ចារ"},"geometry":{"type":"Polygon","coordinates":[[[104.9627,11.2323],[104.9451,11.2397],[104.9303,11.2303],[104.9315,11.2125],[104.9079,11.2089],[104.9001,11.2121],[104.9001,11.1813],[104.9039,11.1799],[104.9031,11.1653],[104.9119,11.1659],[104.9139,11.1727],[104.9189,11.1739],[104.9195,11.1847],[104.9301,11.1911],[104.9307,11.1959],[104.9629,11.1985],[104.9643,11.2097],[104.9833,11.2095],[104.9805,11.2205],[104.9627,11.2323]]]}},{"type":"Feature","properties":{"c":"210605","en":"Kampeaeng","km":"កំពែង"},"geometry":{"type":"Polygon","coordinates":[[[104.8941,11.1281],[104.8909,11.1293],[104.8871,11.1237],[104.8761,11.1225],[104.8585,11.1153],[104.8495,11.1203],[104.8423,11.1045],[104.8391,11.0889],[104.8401,11.0835],[104.8491,11.0789],[104.8501,11.0753],[104.8727,11.0757],[104.8729,11.0805],[104.8865,11.0823],[104.8865,11.0853],[104.8901,11.0861],[104.8909,11.0967],[104.8945,11.0971],[104.8961,11.1021],[104.9011,11.1027],[104.9023,11.1073],[104.8977,11.1075],[104.8941,11.1281]]]}},{"type":"Feature","properties":{"c":"210606","en":"Kampong Reab","km":"កំពង់រាប"},"geometry":{"type":"Polygon","coordinates":[[[105.0263,11.1619],[105.0215,11.1635],[105.0135,11.1621],[105.0189,11.1691],[105.0193,11.1735],[104.9923,11.1729],[104.9945,11.1635],[104.9929,11.1603],[104.9863,11.1597],[104.9849,11.1569],[104.9849,11.1325],[104.9927,11.1317],[104.9945,11.1227],[105.0121,11.1217],[105.0121,11.1161],[105.0185,11.1161],[105.0161,11.1243],[105.0191,11.1267],[105.0167,11.1353],[105.0201,11.1559],[105.0257,11.1589],[105.0263,11.1619]]]}},{"type":"Feature","properties":{"c":"210607","en":"Kdanh","km":"ក្ដាញ់"},"geometry":{"type":"Polygon","coordinates":[[[104.8987,11.2083],[104.8841,11.2109],[104.8733,11.2095],[104.8733,11.2027],[104.8765,11.2021],[104.8771,11.1847],[104.8841,11.1831],[104.8831,11.1649],[104.9031,11.1653],[104.9039,11.1799],[104.9001,11.1813],[104.9011,11.2015],[104.8987,11.2083]]]}},{"type":"Feature","properties":{"c":"210608","en":"Pou Rumchak","km":"ពោធិ៍រំចាក"},"geometry":{"type":"Polygon","coordinates":[[[105.0175,11.1117],[104.9849,11.1119],[104.9787,11.1179],[104.9781,11.1257],[104.9631,11.1293],[104.8941,11.1281],[104.8977,11.1075],[104.9103,11.1101],[104.9817,11.1089],[105.0085,11.0817],[105.0125,11.0957],[105.0167,11.0983],[105.0191,11.1049],[105.0175,11.1117]]]}},{"type":"Feature","properties":{"c":"210609","en":"Prey Kabbas","km":"ព្រៃកប្បាស"},"geometry":{"type":"Polygon","coordinates":[[[105.0085,11.0817],[104.9817,11.1089],[104.9103,11.1101],[104.9023,11.1073],[104.9011,11.1027],[104.9077,11.1007],[104.9089,11.0931],[104.9711,11.0923],[104.9743,11.0913],[104.9719,11.0883],[104.9879,11.0779],[105.0025,11.0793],[105.0067,11.0777],[105.0085,11.0817]]]}},{"type":"Feature","properties":{"c":"210610","en":"Prey Lvea","km":"ព្រៃល្វា"},"geometry":{"type":"Polygon","coordinates":[[[104.9863,11.1741],[104.9587,11.1731],[104.9579,11.1697],[104.9473,11.1697],[104.9459,11.1659],[104.9245,11.1649],[104.9245,11.1523],[104.9265,11.1477],[104.9425,11.1435],[104.9529,11.1445],[104.9811,11.1401],[104.9843,11.1417],[104.9863,11.1597],[104.9929,11.1603],[104.9945,11.1635],[104.9923,11.1729],[104.9863,11.1741]]]}},{"type":"Feature","properties":{"c":"210611","en":"Prey Phdau","km":"ព្រៃផ្ដៅ"},"geometry":{"type":"Polygon","coordinates":[[[104.8831,11.1649],[104.8463,11.1735],[104.8499,11.1671],[104.8517,11.1485],[104.8471,11.1385],[104.8501,11.1297],[104.8495,11.1203],[104.8553,11.1159],[104.8627,11.1161],[104.8761,11.1225],[104.8871,11.1237],[104.8909,11.1293],[104.8875,11.1331],[104.8855,11.1467],[104.8807,11.1483],[104.8805,11.1551],[104.8837,11.1579],[104.8831,11.1649]]]}},{"type":"Feature","properties":{"c":"210612","en":"Snao","km":"ស្នោ"},"geometry":{"type":"Polygon","coordinates":[[[104.9833,11.2095],[104.9643,11.2097],[104.9629,11.1985],[104.9307,11.1959],[104.9301,11.1911],[104.9195,11.1847],[104.9189,11.1739],[104.9139,11.1727],[104.9119,11.1659],[104.9403,11.1649],[104.9459,11.1659],[104.9473,11.1697],[104.9579,11.1697],[104.9587,11.1731],[104.9863,11.1741],[104.9803,11.1831],[104.9853,11.2031],[104.9833,11.2095]]]}},{"type":"Feature","properties":{"c":"210613","en":"Tang Yab","km":"តាំងយ៉ាប"},"geometry":{"type":"Polygon","coordinates":[[[104.8733,11.2095],[104.8675,11.2105],[104.8565,11.2059],[104.8337,11.2061],[104.8339,11.2025],[104.8373,11.2015],[104.8367,11.1889],[104.8413,11.1867],[104.8463,11.1735],[104.8831,11.1649],[104.8841,11.1831],[104.8771,11.1847],[104.8765,11.2021],[104.8733,11.2027],[104.8733,11.2095]]]}}]}