{"type":"FeatureCollection","features":[{"type":"Feature","properties":{"c":"210701","en":"Boeng Tranh Khang Cheung","km":"បឹងត្រាញ់ខាងជើង"},"geometry":{"type":"Polygon","coordinates":[[[104.7219,11.1445],[104.6977,11.1447],[104.6855,11.1425],[104.6879,11.1235],[104.7035,11.1211],[104.7213,11.1101],[104.7381,11.1057],[104.7431,11.1009],[104.7577,11.0947],[104.7537,11.1019],[104.7563,11.1115],[104.7513,11.1201],[104.7403,11.1271],[104.7391,11.1319],[104.7311,11.1343],[104.7287,11.1419],[104.7219,11.1445]]]}},{"type":"Feature","properties":{"c":"210702","en":"Boeng Tranh Khang Tboung","km":"បឹងត្រាញ់ខាងត្បូង"},"geometry":{"type":"Polygon","coordinates":[[[104.7563,11.1115],[104.7537,11.1019],[104.7577,11.0947],[104.7547,11.0945],[104.7381,11.1057],[104.7213,11.1101],[104.7035,11.1211],[104.6879,11.1235],[104.6863,11.0875],[104.7065,11.0793],[104.7315,11.0837],[104.7429,11.0785],[104.7429,11.0741],[104.7467,11.0721],[104.7589,11.0735],[104.7611,11.0885],[104.7743,11.1099],[104.7563,11.1115]]]}},{"type":"Feature","properties":{"c":"210703","en":"Cheung Kuon","km":"ជើងគួន"},"geometry":{"type":"Polygon","coordinates":[[[104.8495,11.1203],[104.8501,11.1297],[104.8471,11.1385],[104.8517,11.1485],[104.8499,11.1545],[104.8365,11.1529],[104.8309,11.1487],[104.8243,11.1489],[104.8183,11.1443],[104.8073,11.1425],[104.8067,11.1239],[104.8097,11.1229],[104.8085,11.1055],[104.8163,11.1033],[104.8423,11.1045],[104.8495,11.1203]]]}},{"type":"Feature","properties":{"c":"210704","en":"Chumreah Pen","km":"ជំរះពេន"},"geometry":{"type":"Polygon","coordinates":[[[104.7455,11.2039],[104.7355,11.2045],[104.7341,11.2017],[104.7303,11.1691],[104.7233,11.1547],[104.7219,11.1445],[104.7287,11.1419],[104.7311,11.1343],[104.7391,11.1319],[104.7403,11.1271],[104.7469,11.1245],[104.7527,11.1165],[104.7557,11.1171],[104.7567,11.1291],[104.7543,11.1309],[104.7545,11.1343],[104.7595,11.1505],[104.7839,11.1565],[104.7857,11.1603],[104.7691,11.1763],[104.7651,11.1769],[104.7645,11.1811],[104.7713,11.1821],[104.7725,11.1857],[104.7681,11.1921],[104.7487,11.1951],[104.7539,11.1989],[104.7513,11.2027],[104.7455,11.2039]]]}},{"type":"Feature","properties":{"c":"210705","en":"Khvav","km":"ខ្វាវ"},"geometry":{"type":"Polygon","coordinates":[[[104.7329,11.1927],[104.7261,11.2019],[104.7179,11.2057],[104.6927,11.2069],[104.6901,11.1837],[104.6853,11.1661],[104.6855,11.1425],[104.6977,11.1447],[104.7219,11.1445],[104.7233,11.1547],[104.7303,11.1691],[104.7329,11.1927]]]}},{"type":"Feature","properties":{"c":"210706","en":"Lumchang","km":"លំចង់"},"geometry":{"type":"Polygon","coordinates":[[[104.7589,11.0735],[104.7467,11.0721],[104.7429,11.0741],[104.7429,11.0785],[104.7391,11.0799],[104.7331,11.0627],[104.7315,11.0477],[104.7377,11.0469],[104.7419,11.0413],[104.7491,11.0397],[104.7893,11.0391],[104.8019,11.0437],[104.8029,11.0647],[104.8001,11.0627],[104.7947,11.0693],[104.7847,11.0667],[104.7669,11.0735],[104.7589,11.0735]]]}},{"type":"Feature","properties":{"c":"210707","en":"Rovieng","km":"រវៀង"},"geometry":{"type":"Polygon","coordinates":[[[104.7865,11.2205],[104.7815,11.2221],[104.7757,11.2183],[104.7727,11.2111],[104.7635,11.2081],[104.7595,11.2011],[104.7513,11.2027],[104.7539,11.1989],[104.7487,11.1951],[104.7681,11.1921],[104.7725,11.1857],[104.7713,11.1821],[104.7645,11.1811],[104.7651,11.1769],[104.7691,11.1763],[104.7857,11.1603],[104.7997,11.1679],[104.8045,11.1779],[104.8253,11.1771],[104.8287,11.1829],[104.8275,11.1877],[104.8367,11.1889],[104.8373,11.2015],[104.8339,11.2025],[104.8327,11.2095],[104.8275,11.2147],[104.8223,11.2163],[104.8179,11.2107],[104.8141,11.2099],[104.8065,11.2167],[104.7911,11.2133],[104.7865,11.2205]]]}},{"type":"Feature","properties":{"c":"210708","en":"Samraong","km":"សំរោង"},"geometry":{"type":"Polygon","coordinates":[[[104.8103,11.1443],[104.8041,11.1491],[104.8001,11.1463],[104.7887,11.1609],[104.7857,11.1603],[104.7839,11.1565],[104.7595,11.1505],[104.7543,11.1309],[104.8067,11.1239],[104.8073,11.1425],[104.8103,11.1443]]]}},{"type":"Feature","properties":{"c":"210710","en":"Sla","km":"ស្លា"},"geometry":{"type":"Polygon","coordinates":[[[104.8463,11.1735],[104.8413,11.1867],[104.8323,11.1889],[104.8275,11.1877],[104.8287,11.1829],[104.8253,11.1771],[104.8045,11.1779],[104.7997,11.1679],[104.7907,11.1647],[104.7887,11.1609],[104.8001,11.1463],[104.8041,11.1491],[104.8103,11.1443],[104.8183,11.1443],[104.8243,11.1489],[104.8309,11.1487],[104.8365,11.1529],[104.8499,11.1545],[104.8499,11.1671],[104.8463,11.1735]]]}},{"type":"Feature","properties":{"c":"210709","en":"Soengh","km":"សឹង្ហ"},"geometry":{"type":"Polygon","coordinates":[[[104.8067,11.1239],[104.7911,11.1247],[104.7659,11.1307],[104.7567,11.1291],[104.7557,11.1171],[104.7527,11.1165],[104.7539,11.1133],[104.7595,11.1107],[104.7743,11.1099],[104.7611,11.0885],[104.7589,11.0735],[104.7705,11.0725],[104.7799,11.0673],[104.7947,11.0693],[104.7981,11.0665],[104.8059,11.0853],[104.8081,11.0999],[104.8097,11.1229],[104.8067,11.1239]]]}},{"type":"Feature","properties":{"c":"210711","en":"Trea","km":"ទ្រា"},"geometry":{"type":"Polygon","coordinates":[[[104.8423,11.1045],[104.8163,11.1033],[104.8085,11.1055],[104.8059,11.0853],[104.7981,11.0665],[104.8001,11.0627],[104.8029,11.0647],[104.8037,11.0609],[104.8019,11.0437],[104.8349,11.0405],[104.8319,11.0479],[104.8345,11.0605],[104.8523,11.0721],[104.8491,11.0789],[104.8401,11.0835],[104.8391,11.0889],[104.8423,11.1045]]]}}]}