{"type":"FeatureCollection","features":[{"type":"Feature","properties":{"c":"210801","en":"Baray","km":"សង្កាត់បារាយណ៍"},"geometry":{"type":"Polygon","coordinates":[[[104.8349,11.0405],[104.8019,11.0437],[104.7893,11.0391],[104.7759,11.0393],[104.7761,11.0067],[104.7821,11.0005],[104.7833,10.9959],[104.7861,10.9935],[104.8181,10.9935],[104.8267,10.9907],[104.8297,10.9937],[104.8469,10.9927],[104.8665,10.9951],[104.8623,11.0117],[104.8581,11.0181],[104.8439,11.0257],[104.8417,11.0353],[104.8349,11.0405]]]}},{"type":"Feature","properties":{"c":"210802","en":"Roka Knong","km":"សង្កាត់រកាក្នុង"},"geometry":{"type":"Polygon","coordinates":[[[104.7759,11.0393],[104.7551,11.0397],[104.7497,10.9813],[104.7583,10.9923],[104.7633,10.9899],[104.7631,10.9841],[104.7847,10.9841],[104.7879,10.9753],[104.7949,10.9773],[104.7975,10.9849],[104.7833,10.9959],[104.7821,11.0005],[104.7761,11.0067],[104.7759,11.0393]]]}},{"type":"Feature","properties":{"c":"210803","en":"Roka Krau","km":"សង្កាត់រកាក្រៅ"},"geometry":{"type":"Polygon","coordinates":[[[104.8099,10.9931],[104.7861,10.9935],[104.7975,10.9849],[104.7949,10.9773],[104.7879,10.9753],[104.7847,10.9841],[104.7631,10.9841],[104.7633,10.9899],[104.7583,10.9923],[104.7497,10.9813],[104.7427,10.9609],[104.7581,10.9593],[104.7593,10.9559],[104.7767,10.9537],[104.7777,10.9301],[104.7973,10.9287],[104.8023,10.9303],[104.8083,10.9367],[104.8093,10.9483],[104.8131,10.9581],[104.8129,10.9721],[104.8089,10.9845],[104.8099,10.9931]]]}}]}