{"type":"FeatureCollection","features":[{"type":"Feature","properties":{"c":"210901","en":"Angk Ta Saom","km":"អង្គតាសោម"},"geometry":{"type":"Polygon","coordinates":[[[104.6811,10.9903],[104.6777,10.9987],[104.6825,11.0099],[104.6827,11.0175],[104.6809,11.0213],[104.6757,11.0225],[104.6737,11.0191],[104.6461,11.0163],[104.6421,11.0039],[104.6293,10.9985],[104.6271,10.9951],[104.6275,10.9881],[104.6339,10.9789],[104.6355,10.9637],[104.6477,10.9537],[104.6661,10.9515],[104.6677,10.9639],[104.6753,10.9693],[104.6759,10.9831],[104.6797,10.9853],[104.6811,10.9903]]]}},{"type":"Feature","properties":{"c":"210902","en":"Cheang Tong","km":"ជាងទង"},"geometry":{"type":"Polygon","coordinates":[[[104.6295,11.0799],[104.6225,11.0843],[104.5967,11.0879],[104.5755,11.0973],[104.5745,11.0887],[104.5909,11.0675],[104.5899,11.0347],[104.5971,11.0331],[104.5981,11.0263],[104.6099,11.0291],[104.6119,11.0327],[104.6213,11.0383],[104.6269,11.0369],[104.6391,11.0419],[104.6373,11.0663],[104.6399,11.0677],[104.6393,11.0793],[104.6295,11.0799]]]}},{"type":"Feature","properties":{"c":"210903","en":"Kus","km":"គុស"},"geometry":{"type":"Polygon","coordinates":[[[104.6339,10.9789],[104.6109,10.9795],[104.6117,10.9715],[104.6091,10.9701],[104.5987,10.9751],[104.5887,10.9749],[104.5817,10.9715],[104.5751,10.9751],[104.5397,10.9753],[104.5409,10.9365],[104.6009,10.9383],[104.6095,10.9339],[104.6115,10.9291],[104.6199,10.9295],[104.6571,10.9489],[104.6661,10.9515],[104.6429,10.9559],[104.6355,10.9637],[104.6339,10.9789]]]}},{"type":"Feature","properties":{"c":"210904","en":"Leay Bour","km":"លាយបូរ"},"geometry":{"type":"Polygon","coordinates":[[[104.7315,11.0477],[104.7201,11.0385],[104.7091,11.0473],[104.7043,11.0547],[104.6935,11.0307],[104.6843,11.0283],[104.6755,11.0299],[104.6757,11.0225],[104.6809,11.0213],[104.6829,11.0141],[104.6777,10.9987],[104.6811,10.9903],[104.6853,10.9893],[104.6937,10.9759],[104.7259,10.9607],[104.7427,10.9609],[104.7493,10.9783],[104.7551,11.0397],[104.7419,11.0413],[104.7377,11.0469],[104.7315,11.0477]]]}},{"type":"Feature","properties":{"c":"210905","en":"Nhaeng Nhang","km":"ញ៉ែងញ៉ង"},"geometry":{"type":"Polygon","coordinates":[[[104.6743,10.8999],[104.6741,10.9495],[104.6661,10.9515],[104.6571,10.9489],[104.6199,10.9295],[104.6115,10.9291],[104.6165,10.9209],[104.6183,10.9023],[104.6245,10.9015],[104.6309,10.9045],[104.6547,10.9071],[104.6743,10.8999]]]}},{"type":"Feature","properties":{"c":"210908","en":"Otdam Soriya","km":"ឧត្ដមសុរិយា"},"geometry":{"type":"Polygon","coordinates":[[[104.7137,11.0805],[104.7027,11.0801],[104.6965,11.0847],[104.6863,11.0875],[104.6791,11.0641],[104.6755,11.0299],[104.6843,11.0283],[104.6935,11.0307],[104.7043,11.0547],[104.7091,11.0473],[104.7201,11.0385],[104.7315,11.0477],[104.7331,11.0627],[104.7391,11.0799],[104.7315,11.0837],[104.7137,11.0805]]]}},{"type":"Feature","properties":{"c":"210906","en":"Ou Saray","km":"អូរសារាយ"},"geometry":{"type":"Polygon","coordinates":[[[104.5215,11.1199],[104.5125,11.1313],[104.4901,11.1241],[104.4889,11.0925],[104.4737,11.0797],[104.4609,11.0773],[104.4551,11.0689],[104.4551,11.0579],[104.4611,11.0637],[104.4685,11.0569],[104.4877,11.0709],[104.4869,11.0597],[104.4995,11.0583],[104.5137,11.0385],[104.5537,11.0467],[104.5477,11.0481],[104.5481,11.0645],[104.5521,11.0625],[104.5501,11.1037],[104.5379,11.1075],[104.5215,11.1199]]]}},{"type":"Feature","properties":{"c":"210909","en":"Popel","km":"ពពេល"},"geometry":{"type":"Polygon","coordinates":[[[104.6863,11.0875],[104.6783,11.0915],[104.6683,11.0861],[104.6539,11.0831],[104.6445,11.0847],[104.6413,11.0827],[104.6393,11.0793],[104.6399,11.0677],[104.6373,11.0663],[104.6391,11.0419],[104.6761,11.0393],[104.6799,11.0681],[104.6863,11.0875]]]}},{"type":"Feature","properties":{"c":"210910","en":"Samraong","km":"សំរោង"},"geometry":{"type":"Polygon","coordinates":[[[104.6109,10.9795],[104.6081,11.0021],[104.6029,11.0013],[104.6029,11.0111],[104.5767,11.0091],[104.5757,11.0009],[104.5705,10.9997],[104.5613,11.0013],[104.5527,10.9979],[104.5341,10.9983],[104.5397,10.9753],[104.5751,10.9751],[104.5817,10.9715],[104.5887,10.9749],[104.5987,10.9751],[104.6091,10.9701],[104.6117,10.9715],[104.6109,10.9795]]]}},{"type":"Feature","properties":{"c":"210911","en":"Srae Ronoung","km":"ស្រែរនោង"},"geometry":{"type":"Polygon","coordinates":[[[104.7259,10.9607],[104.6937,10.9759],[104.6853,10.9893],[104.6811,10.9903],[104.6797,10.9853],[104.6759,10.9831],[104.6753,10.9693],[104.6677,10.9639],[104.6667,10.9599],[104.6661,10.9515],[104.6741,10.9495],[104.6743,10.8999],[104.6953,10.9063],[104.7019,10.9113],[104.7085,10.9285],[104.7129,10.9307],[104.7127,10.9431],[104.7241,10.9481],[104.7259,10.9607]]]}},{"type":"Feature","properties":{"c":"210912","en":"Ta Phem","km":"តាភេម"},"geometry":{"type":"Polygon","coordinates":[[[104.6761,11.0393],[104.6349,11.0413],[104.6269,11.0369],[104.6213,11.0383],[104.6119,11.0327],[104.6099,11.0291],[104.5981,11.0263],[104.5971,11.0209],[104.6029,11.0209],[104.6029,11.0013],[104.6081,11.0021],[104.6109,10.9795],[104.6339,10.9789],[104.6275,10.9881],[104.6271,10.9951],[104.6293,10.9985],[104.6421,11.0039],[104.6461,11.0163],[104.6737,11.0191],[104.6757,11.0225],[104.6761,11.0393]]]}},{"type":"Feature","properties":{"c":"210913","en":"Tram Kak","km":"ត្រាំកក់"},"geometry":{"type":"Polygon","coordinates":[[[104.6115,10.9291],[104.6095,10.9339],[104.6009,10.9383],[104.5409,10.9365],[104.5411,10.9303],[104.5215,10.8939],[104.5359,10.8871],[104.5853,10.8863],[104.6183,10.9023],[104.6165,10.9209],[104.6115,10.9291]]]}},{"type":"Feature","properties":{"c":"210907","en":"Trapeang Kranhoung","km":"ត្រពាំងក្រញូង"},"geometry":{"type":"Polygon","coordinates":[[[104.4429,11.1329],[104.4285,11.1285],[104.4105,11.1369],[104.4111,11.0779],[104.4175,11.0815],[104.4289,11.0817],[104.4413,11.0739],[104.4551,11.0689],[104.4631,11.0791],[104.4737,11.0797],[104.4889,11.0925],[104.4901,11.1241],[104.4673,11.1261],[104.4617,11.1241],[104.4429,11.1329]]]}},{"type":"Feature","properties":{"c":"210914","en":"Trapeang Thum Khang Cheung","km":"ត្រពាំងធំខាងជើង"},"geometry":{"type":"Polygon","coordinates":[[[104.5755,11.0973],[104.5501,11.1037],[104.5521,11.0625],[104.5481,11.0645],[104.5477,11.0481],[104.5537,11.0467],[104.5137,11.0385],[104.5159,11.0349],[104.5767,11.0435],[104.5899,11.0347],[104.5909,11.0675],[104.5745,11.0887],[104.5755,11.0973]]]}},{"type":"Feature","properties":{"c":"210915","en":"Trapeang Thum Khang Tboung","km":"ត្រពាំងធំខាងត្បូង"},"geometry":{"type":"Polygon","coordinates":[[[104.5899,11.0347],[104.5767,11.0435],[104.5159,11.0349],[104.5233,11.0237],[104.5341,10.9983],[104.5527,10.9979],[104.5613,11.0013],[104.5757,11.0009],[104.5767,11.0091],[104.6029,11.0111],[104.6029,11.0209],[104.5971,11.0209],[104.5971,11.0331],[104.5899,11.0347]]]}}]}