{"type":"FeatureCollection","features":[{"type":"Feature","properties":{"c":"211006","en":"Angk Kaev","km":"អង្គកែវ"},"geometry":{"type":"Polygon","coordinates":[[[104.7369,10.8689],[104.7221,10.8679],[104.7221,10.8733],[104.7185,10.8743],[104.7057,10.8713],[104.6919,10.8729],[104.7067,10.8351],[104.7045,10.8321],[104.7053,10.8203],[104.7079,10.8223],[104.7547,10.8221],[104.7559,10.8159],[104.7635,10.8123],[104.7641,10.8219],[104.7585,10.8221],[104.7585,10.8367],[104.7673,10.8399],[104.7673,10.8451],[104.7555,10.8453],[104.7555,10.8535],[104.7519,10.8539],[104.7511,10.8569],[104.7527,10.8675],[104.7369,10.8689]]]}},{"type":"Feature","properties":{"c":"211002","en":"Angk Khnor","km":"អង្គខ្នុរ"},"geometry":{"type":"Polygon","coordinates":[[[104.8529,10.8403],[104.8533,10.8823],[104.8165,10.8691],[104.8063,10.8687],[104.8013,10.8641],[104.7959,10.8527],[104.7975,10.8503],[104.8131,10.8455],[104.8215,10.8473],[104.8445,10.8443],[104.8447,10.8401],[104.8529,10.8403]]]}},{"type":"Feature","properties":{"c":"211001","en":"Angkanh","km":"អង្កាញ់"},"geometry":{"type":"Polygon","coordinates":[[[104.8807,10.8863],[104.8833,10.8955],[104.8031,10.8951],[104.8039,10.8667],[104.8499,10.8803],[104.8533,10.8823],[104.8535,10.8853],[104.8807,10.8863]]]}},{"type":"Feature","properties":{"c":"211003","en":"Chi Khma","km":"ជីខ្មា"},"geometry":{"type":"Polygon","coordinates":[[[104.8189,10.8389],[104.8127,10.8403],[104.8075,10.8357],[104.7833,10.8289],[104.7797,10.8043],[104.7859,10.8059],[104.7855,10.7787],[104.8101,10.7823],[104.8079,10.7999],[104.8137,10.8003],[104.8065,10.8117],[104.8091,10.8135],[104.8077,10.8261],[104.8087,10.8305],[104.8165,10.8343],[104.8189,10.8389]]]}},{"type":"Feature","properties":{"c":"211004","en":"Khvav","km":"ខ្វាវ"},"geometry":{"type":"Polygon","coordinates":[[[104.7481,10.9035],[104.7413,10.9047],[104.7385,10.9081],[104.7373,10.9183],[104.7289,10.9251],[104.7129,10.9307],[104.7085,10.9285],[104.6989,10.9079],[104.6743,10.8999],[104.6743,10.8941],[104.6779,10.8937],[104.6919,10.8729],[104.7057,10.8713],[104.7185,10.8743],[104.7221,10.8733],[104.7221,10.8679],[104.7317,10.8673],[104.7369,10.8689],[104.7425,10.8813],[104.7591,10.8833],[104.7633,10.8905],[104.7481,10.9035]]]}},{"type":"Feature","properties":{"c":"211005","en":"Prambei Mum","km":"ប្រាំបីមុំ"},"geometry":{"type":"Polygon","coordinates":[[[104.8013,10.8641],[104.7865,10.8679],[104.7851,10.8623],[104.7769,10.8625],[104.7765,10.8583],[104.7723,10.8583],[104.7719,10.8543],[104.7555,10.8535],[104.7555,10.8453],[104.7673,10.8451],[104.7673,10.8399],[104.7585,10.8367],[104.7585,10.8221],[104.7641,10.8219],[104.7635,10.8123],[104.7797,10.8043],[104.7833,10.8289],[104.8075,10.8357],[104.8127,10.8403],[104.8221,10.8403],[104.8225,10.8441],[104.8253,10.8455],[104.8215,10.8473],[104.8131,10.8455],[104.7975,10.8503],[104.7959,10.8527],[104.8013,10.8641]]]}},{"type":"Feature","properties":{"c":"211007","en":"Prey Sloek","km":"ព្រៃស្លឹក"},"geometry":{"type":"Polygon","coordinates":[[[104.7985,10.9257],[104.8023,10.9303],[104.7973,10.9287],[104.7777,10.9301],[104.7709,10.9259],[104.7617,10.9075],[104.7481,10.9035],[104.7633,10.8905],[104.7591,10.8833],[104.7425,10.8813],[104.7383,10.8739],[104.7369,10.8689],[104.7527,10.8675],[104.7519,10.8539],[104.7719,10.8543],[104.7723,10.8583],[104.7765,10.8583],[104.7769,10.8625],[104.7851,10.8623],[104.7865,10.8679],[104.8013,10.8641],[104.8039,10.8667],[104.8031,10.8951],[104.7943,10.9029],[104.7925,10.9151],[104.7985,10.9257]]]}},{"type":"Feature","properties":{"c":"211008","en":"Roneam","km":"រនាម"},"geometry":{"type":"Polygon","coordinates":[[[104.7777,10.9301],[104.7767,10.9537],[104.7593,10.9559],[104.7581,10.9593],[104.7259,10.9607],[104.7241,10.9481],[104.7127,10.9431],[104.7129,10.9307],[104.7289,10.9251],[104.7373,10.9183],[104.7385,10.9081],[104.7413,10.9047],[104.7543,10.9039],[104.7617,10.9075],[104.7709,10.9259],[104.7777,10.9301]]]}},{"type":"Feature","properties":{"c":"211009","en":"Sambuor","km":"សំបួរ"},"geometry":{"type":"Polygon","coordinates":[[[104.8875,10.9607],[104.8773,10.9707],[104.8811,10.9727],[104.8813,10.9765],[104.8777,10.9847],[104.8665,10.9951],[104.8469,10.9927],[104.8459,10.9311],[104.8497,10.9307],[104.8499,10.9217],[104.9101,10.9231],[104.9065,10.9297],[104.9485,10.9305],[104.9379,10.9457],[104.9365,10.9693],[104.9271,10.9645],[104.9173,10.9683],[104.9069,10.9681],[104.9003,10.9655],[104.8971,10.9555],[104.8933,10.9547],[104.8875,10.9607]]]}},{"type":"Feature","properties":{"c":"211010","en":"Sanlung","km":"សន្លុង"},"geometry":{"type":"Polygon","coordinates":[[[104.7635,10.8123],[104.7559,10.8159],[104.7547,10.8221],[104.7079,10.8223],[104.7053,10.8203],[104.7061,10.8065],[104.7223,10.7883],[104.7231,10.7843],[104.7291,10.7803],[104.7387,10.7801],[104.7455,10.7769],[104.7521,10.7701],[104.7531,10.7639],[104.7613,10.7655],[104.7643,10.7745],[104.7679,10.7773],[104.7855,10.7787],[104.7859,10.8059],[104.7797,10.8043],[104.7635,10.8123]]]}},{"type":"Feature","properties":{"c":"211011","en":"Smaong","km":"ស្មោង"},"geometry":{"type":"Polygon","coordinates":[[[104.8499,10.8001],[104.8497,10.8081],[104.8447,10.8081],[104.8445,10.8153],[104.8175,10.8195],[104.8065,10.8117],[104.8137,10.8003],[104.8079,10.7999],[104.8101,10.7823],[104.8499,10.7859],[104.8499,10.8001]]]}},{"type":"Feature","properties":{"c":"211012","en":"Srangae","km":"ស្រង៉ែ"},"geometry":{"type":"Polygon","coordinates":[[[104.8469,10.9927],[104.8297,10.9937],[104.8267,10.9907],[104.8181,10.9935],[104.8099,10.9931],[104.8089,10.9845],[104.8129,10.9721],[104.8131,10.9581],[104.8093,10.9483],[104.8083,10.9367],[104.7985,10.9257],[104.8081,10.9229],[104.8099,10.9257],[104.8197,10.9297],[104.8339,10.9297],[104.8341,10.9397],[104.8459,10.9397],[104.8469,10.9927]]]}},{"type":"Feature","properties":{"c":"211013","en":"Thlok","km":"ធ្លក"},"geometry":{"type":"Polygon","coordinates":[[[104.9485,10.9305],[104.9065,10.9297],[104.9101,10.9231],[104.8499,10.9217],[104.8497,10.9307],[104.8459,10.9311],[104.8459,10.9397],[104.8341,10.9397],[104.8339,10.9297],[104.8197,10.9297],[104.8099,10.9257],[104.8081,10.9229],[104.7985,10.9257],[104.7925,10.9151],[104.7943,10.9029],[104.8031,10.8951],[104.8833,10.8955],[104.8831,10.8995],[104.8893,10.9111],[104.9633,10.9123],[104.9485,10.9305]]]}},{"type":"Feature","properties":{"c":"211014","en":"Tralach","km":"ត្រឡាច"},"geometry":{"type":"Polygon","coordinates":[[[104.8529,10.8403],[104.8447,10.8401],[104.8445,10.8443],[104.8225,10.8441],[104.8221,10.8403],[104.8165,10.8343],[104.8087,10.8305],[104.8091,10.8135],[104.8175,10.8195],[104.8445,10.8153],[104.8447,10.8081],[104.8497,10.8081],[104.8499,10.8001],[104.8625,10.8009],[104.8637,10.8215],[104.8589,10.8223],[104.8591,10.8401],[104.8529,10.8403]]]}}]}