{"type":"FeatureCollection","features":[{"type":"Feature","properties":{"c":"220101","en":"Anlong Veaeng","km":"អន្លង់វែង"},"geometry":{"type":"Polygon","coordinates":[[[104.0459,14.3411],[104.0301,14.3391],[104.0167,14.3425],[104.0107,14.3483],[104.0095,14.3559],[104.0047,14.3561],[103.9949,14.3457],[103.9881,14.3467],[103.9827,14.3541],[103.9799,14.3547],[103.9781,14.2753],[103.9731,14.2597],[104.0173,14.2413],[104.0689,14.2259],[104.0841,14.2121],[104.0839,14.1993],[104.0667,14.1669],[104.0567,14.1531],[104.0261,14.0893],[103.9951,14.0661],[103.9859,14.0553],[103.9485,14.0005],[103.9317,13.9673],[104.0385,13.9675],[104.0529,13.9843],[104.0711,14.0241],[104.0825,14.0433],[104.0977,14.0543],[104.1099,14.0897],[104.1145,14.1255],[104.1215,14.1525],[104.1371,14.2661],[104.0745,14.2671],[104.0459,14.3411]]]}},{"type":"Feature","properties":{"c":"220106","en":"Lumtong","km":"លំទង"},"geometry":{"type":"Polygon","coordinates":[[[103.9317,13.9673],[103.9485,14.0005],[103.9859,14.0553],[103.9951,14.0661],[104.0261,14.0893],[104.0567,14.1531],[104.0667,14.1669],[104.0853,14.2045],[104.0817,14.2155],[104.0689,14.2259],[104.0173,14.2413],[103.9731,14.2597],[103.9699,14.2361],[103.9611,14.2221],[103.9493,14.1887],[103.9435,14.1827],[103.9411,14.1845],[103.9375,14.1781],[103.9355,14.1805],[103.9301,14.1781],[103.9277,14.1681],[103.9233,14.1639],[103.9203,14.1657],[103.9169,14.1639],[103.9189,14.1609],[103.9161,14.1527],[103.9119,14.1521],[103.9029,14.1437],[103.8689,14.1249],[103.8297,14.1113],[103.8297,13.9663],[103.9317,13.9673]]]}},{"type":"Feature","properties":{"c":"220105","en":"Thlat","km":"ថ្លាត"},"geometry":{"type":"Polygon","coordinates":[[[104.1629,13.9563],[104.1615,14.2661],[104.1371,14.2661],[104.1207,14.1475],[104.1145,14.1255],[104.1099,14.0897],[104.1011,14.0613],[104.0953,14.0519],[104.0825,14.0433],[104.0711,14.0241],[104.0529,13.9843],[104.0385,13.9675],[104.1129,13.9667],[104.1115,13.9549],[104.1479,13.9597],[104.1629,13.9563]]]}},{"type":"Feature","properties":{"c":"220104","en":"Trapeang Prei","km":"ត្រពាំងប្រីយ៍"},"geometry":{"type":"Polygon","coordinates":[[[104.1595,14.3567],[104.1411,14.3557],[104.1373,14.3579],[104.1397,14.3663],[104.1375,14.3733],[104.1293,14.3757],[104.1211,14.3743],[104.1091,14.3779],[104.1057,14.3701],[104.0995,14.3677],[104.0911,14.3503],[104.0861,14.3473],[104.0671,14.3423],[104.0581,14.3443],[104.0459,14.3411],[104.0745,14.2671],[104.1615,14.2661],[104.1595,14.3567]]]}},{"type":"Feature","properties":{"c":"220103","en":"Trapeang Tav","km":"ត្រពាំងតាវ"},"geometry":{"type":"Polygon","coordinates":[[[103.9799,14.3547],[103.9715,14.3499],[103.9507,14.3507],[103.9459,14.3405],[103.9467,14.3323],[103.9413,14.3307],[103.9289,14.3325],[103.9237,14.3363],[103.9007,14.3385],[103.8993,14.3451],[103.8865,14.3431],[103.8843,14.3397],[103.8811,14.3395],[103.8721,14.3473],[103.8681,14.3549],[103.8615,14.3573],[103.8623,14.3647],[103.8601,14.3671],[103.8417,14.3717],[103.8335,14.3683],[103.8283,14.3569],[103.8301,14.3543],[103.8281,14.1289],[103.8297,14.1113],[103.8689,14.1249],[103.9029,14.1437],[103.9119,14.1521],[103.9161,14.1527],[103.9189,14.1609],[103.9169,14.1639],[103.9203,14.1657],[103.9233,14.1639],[103.9277,14.1681],[103.9301,14.1781],[103.9355,14.1805],[103.9375,14.1781],[103.9411,14.1845],[103.9435,14.1827],[103.9493,14.1887],[103.9611,14.2221],[103.9699,14.2361],[103.9731,14.2597],[103.9781,14.2753],[103.9799,14.3547]]]}}]}