{"type":"FeatureCollection","features":[{"type":"Feature","properties":{"c":"220201","en":"Ampil","km":"អំពិល"},"geometry":{"type":"Polygon","coordinates":[[[103.1969,14.3305],[103.1811,14.3349],[103.1689,14.3351],[103.1621,14.3317],[103.1529,14.3165],[103.1461,14.3253],[103.1419,14.3261],[103.1297,14.3203],[103.1281,14.3169],[103.1303,14.3075],[103.1249,14.3035],[103.1165,14.3003],[103.0977,14.2995],[103.0811,14.2957],[103.0739,14.2861],[103.0563,14.2833],[103.0553,14.2723],[103.0387,14.2525],[103.0319,14.2503],[103.0761,14.1635],[103.0827,14.1411],[103.1113,14.1163],[103.1243,14.1101],[103.1305,14.1119],[103.1431,14.1087],[103.1519,14.1119],[103.1581,14.1087],[103.1643,14.1121],[103.1753,14.1069],[103.1861,14.1069],[103.1971,14.1331],[103.2247,14.1585],[103.2293,14.1655],[103.2305,14.1751],[103.2233,14.2185],[103.2283,14.2349],[103.2131,14.2615],[103.2077,14.2861],[103.2041,14.2923],[103.1991,14.3281],[103.1969,14.3305]]]}},{"type":"Feature","properties":{"c":"220202","en":"Beng","km":"បេង"},"geometry":{"type":"Polygon","coordinates":[[[103.3921,14.0985],[103.3843,14.1241],[103.3873,14.1327],[103.3877,14.1467],[103.3943,14.1557],[103.3945,14.1597],[103.3917,14.1575],[103.3267,14.1575],[103.3105,14.1353],[103.3039,14.1299],[103.2089,14.1021],[103.2003,14.0837],[103.2003,14.0687],[103.1869,14.0545],[103.1869,14.0505],[103.1957,14.0391],[103.1929,14.0233],[103.1869,14.0113],[103.1715,14.0009],[103.1705,13.9969],[103.2041,13.9393],[103.2073,13.9449],[103.2189,13.9501],[103.2505,13.9515],[103.2645,13.9551],[103.2803,13.9691],[103.3285,14.0257],[103.3329,14.0151],[103.3641,13.9651],[103.3869,13.9351],[103.3931,13.9317],[103.4113,13.9285],[103.4263,13.9199],[103.4407,13.9163],[103.4459,13.9223],[103.4437,13.9305],[103.4455,13.9329],[103.4427,13.9343],[103.4441,13.9431],[103.4381,13.9519],[103.4341,13.9531],[103.4363,13.9561],[103.4331,13.9575],[103.4299,13.9697],[103.4309,13.9751],[103.4285,13.9777],[103.4363,13.9893],[103.4329,13.9911],[103.4307,13.9991],[103.4325,14.0047],[103.4307,14.0171],[103.4231,14.0339],[103.4245,14.0385],[103.4199,14.0463],[103.4121,14.0499],[103.4083,14.0481],[103.3983,14.0553],[103.3943,14.0677],[103.3859,14.0755],[103.3921,14.0985]]]}},{"type":"Feature","properties":{"c":"220203","en":"Kouk Khpos","km":"គោកខ្ពស់"},"geometry":{"type":"Polygon","coordinates":[[[103.4511,14.2907],[103.4527,14.2995],[103.4387,14.3189],[103.4331,14.3339],[103.4289,14.3347],[103.4203,14.3833],[103.4121,14.3717],[103.4005,14.3699],[103.3991,14.3663],[103.4023,14.3585],[103.3807,14.3529],[103.3675,14.3521],[103.3529,14.3527],[103.3407,14.3603],[103.3363,14.3589],[103.3239,14.3403],[103.3105,14.3011],[103.3031,14.2901],[103.2963,14.2707],[103.2935,14.2533],[103.2953,14.2367],[103.2995,14.2271],[103.3073,14.2219],[103.3195,14.2183],[103.3261,14.2123],[103.3285,14.1809],[103.3267,14.1575],[103.3917,14.1575],[103.4003,14.1653],[103.4029,14.1881],[103.4149,14.2031],[103.4201,14.2267],[103.4263,14.2345],[103.4297,14.2611],[103.4447,14.2715],[103.4529,14.2839],[103.4511,14.2907]]]}},{"type":"Feature","properties":{"c":"220204","en":"Kouk Mon","km":"គោកមន"},"geometry":{"type":"Polygon","coordinates":[[[103.3311,14.3511],[103.3169,14.3567],[103.2817,14.3483],[103.2649,14.3509],[103.2197,14.3239],[103.2135,14.3283],[103.1991,14.3281],[103.2033,14.2957],[103.2077,14.2861],[103.2131,14.2615],[103.2283,14.2349],[103.2233,14.2185],[103.2305,14.1751],[103.2293,14.1655],[103.2247,14.1585],[103.1971,14.1331],[103.1861,14.1069],[103.2103,14.1093],[103.2089,14.1021],[103.2127,14.1021],[103.2571,14.1173],[103.2991,14.1277],[103.3105,14.1353],[103.3267,14.1575],[103.3285,14.1809],[103.3261,14.2123],[103.3195,14.2183],[103.3073,14.2219],[103.2995,14.2271],[103.2953,14.2367],[103.2935,14.2533],[103.2963,14.2707],[103.3031,14.2901],[103.3089,14.2975],[103.3137,14.3133],[103.3201,14.3249],[103.3239,14.3403],[103.3311,14.3511]]]}}]}