{"type":"FeatureCollection","features":[{"type":"Feature","properties":{"c":"220301","en":"Cheung Tien","km":"ជើងទៀន"},"geometry":{"type":"Polygon","coordinates":[[[103.5787,13.9265],[103.5589,13.9347],[103.5519,13.9413],[103.5281,13.9555],[103.5199,13.9663],[103.5201,13.9737],[103.5023,13.9699],[103.4837,13.9593],[103.4785,13.9617],[103.4677,13.9571],[103.4299,13.9697],[103.4331,13.9575],[103.4363,13.9561],[103.4341,13.9531],[103.4381,13.9519],[103.4441,13.9431],[103.4427,13.9343],[103.4455,13.9329],[103.4437,13.9305],[103.4459,13.9223],[103.4407,13.9163],[103.4403,13.9117],[103.4369,13.9103],[103.4391,13.9065],[103.4369,13.9041],[103.4423,13.8989],[103.4381,13.8911],[103.4353,13.8917],[103.4331,13.8795],[103.4385,13.8803],[103.4407,13.8775],[103.4441,13.8801],[103.4445,13.8837],[103.4485,13.8833],[103.4605,13.8921],[103.4677,13.8947],[103.4701,13.8923],[103.4735,13.8931],[103.4807,13.9019],[103.4887,13.8999],[103.5163,13.8999],[103.5189,13.8967],[103.5301,13.8977],[103.5319,13.9025],[103.5375,13.8965],[103.5403,13.8997],[103.5477,13.9017],[103.5487,13.9047],[103.5523,13.9053],[103.5545,13.9019],[103.5563,13.9085],[103.5681,13.9059],[103.5703,13.9097],[103.5687,13.9167],[103.5727,13.9151],[103.5799,13.9201],[103.5787,13.9265]]]}},{"type":"Feature","properties":{"c":"220302","en":"Chong Kal","km":"ចុងកាល់"},"geometry":{"type":"Polygon","coordinates":[[[103.8297,14.1113],[103.8281,14.1289],[103.8139,14.1249],[103.8095,14.1199],[103.8029,14.1221],[103.8005,14.1077],[103.7891,14.1025],[103.7855,14.0973],[103.7865,14.0941],[103.7779,14.0913],[103.7771,14.0879],[103.7735,14.0871],[103.7715,14.0847],[103.7771,14.0821],[103.7691,14.0765],[103.7669,14.0703],[103.7295,14.0605],[103.7101,14.0523],[103.6963,14.0419],[103.6835,14.0243],[103.6695,14.0117],[103.6355,14.0109],[103.6247,14.0085],[103.6043,14.0015],[103.5805,13.9887],[103.5635,13.9925],[103.5537,13.9915],[103.5363,13.9859],[103.5219,13.9771],[103.5187,13.9703],[103.5199,13.9663],[103.5281,13.9555],[103.5519,13.9413],[103.5589,13.9347],[103.5787,13.9265],[103.5891,13.9295],[103.5927,13.9261],[103.5935,13.9333],[103.6033,13.9415],[103.6053,13.9459],[103.6161,13.9491],[103.6167,13.9549],[103.6197,13.9547],[103.6197,13.9619],[103.6245,13.9593],[103.6299,13.9617],[103.6269,13.9641],[103.6295,13.9667],[103.6325,13.9661],[103.6325,13.9695],[103.6355,13.9717],[103.6469,13.9633],[103.6465,13.9665],[103.6515,13.9709],[103.6535,13.9683],[103.6627,13.9687],[103.6615,13.9649],[103.6819,13.9603],[103.6887,13.9649],[103.8297,13.9663],[103.8297,14.1113]]]}},{"type":"Feature","properties":{"c":"220303","en":"Krasang","km":"ក្រសាំង"},"geometry":{"type":"Polygon","coordinates":[[[103.5057,14.1061],[103.4697,14.1087],[103.4349,14.1047],[103.4009,14.0971],[103.3921,14.0985],[103.3859,14.0755],[103.3943,14.0677],[103.3983,14.0553],[103.4083,14.0481],[103.4121,14.0499],[103.4199,14.0463],[103.4245,14.0385],[103.4231,14.0339],[103.4307,14.0171],[103.4325,14.0047],[103.4307,13.9991],[103.4329,13.9911],[103.4363,13.9893],[103.4285,13.9777],[103.4309,13.9751],[103.4299,13.9697],[103.4677,13.9571],[103.4785,13.9617],[103.4837,13.9593],[103.5023,13.9699],[103.5201,13.9737],[103.5219,13.9771],[103.5333,13.9831],[103.5161,14.0007],[103.5105,14.0197],[103.5105,14.0411],[103.5051,14.0475],[103.5057,14.1061]]]}},{"type":"Feature","properties":{"c":"220304","en":"Pongro","km":"ពង្រ"},"geometry":{"type":"Polygon","coordinates":[[[103.7871,14.0999],[103.7759,14.1121],[103.7629,14.1149],[103.7529,14.1211],[103.7453,14.1147],[103.7297,14.1135],[103.7151,14.1159],[103.6999,14.1137],[103.6631,14.1011],[103.6435,14.1039],[103.6191,14.1151],[103.6081,14.1173],[103.5859,14.1167],[103.5517,14.1069],[103.5057,14.1061],[103.5051,14.0475],[103.5105,14.0411],[103.5105,14.0197],[103.5161,14.0007],[103.5333,13.9831],[103.5363,13.9859],[103.5595,13.9923],[103.5805,13.9887],[103.6043,14.0015],[103.6303,14.0099],[103.6695,14.0117],[103.6835,14.0243],[103.6963,14.0419],[103.7101,14.0523],[103.7295,14.0605],[103.7669,14.0703],[103.7691,14.0765],[103.7771,14.0821],[103.7715,14.0847],[103.7771,14.0879],[103.7779,14.0913],[103.7865,14.0941],[103.7871,14.0999]]]}}]}