{"type":"FeatureCollection","features":[{"type":"Feature","properties":{"c":"220401","en":"Bansay Reak","km":"សង្កាត់បន្សាយរាក់"},"geometry":{"type":"Polygon","coordinates":[[[103.5337,14.2089],[103.5323,14.2191],[103.5009,14.2867],[103.4979,14.2893],[103.4511,14.2907],[103.4529,14.2839],[103.4447,14.2715],[103.4297,14.2611],[103.4263,14.2345],[103.4201,14.2267],[103.4149,14.2031],[103.4029,14.1881],[103.4031,14.1791],[103.4007,14.1755],[103.4027,14.1733],[103.4159,14.1813],[103.4531,14.1699],[103.4845,14.1733],[103.4863,14.1809],[103.4821,14.1993],[103.4851,14.2059],[103.5309,14.2071],[103.5337,14.2089]]]}},{"type":"Feature","properties":{"c":"220402","en":"Bos Sbov","km":"សង្កាត់បុស្បូវ"},"geometry":{"type":"Polygon","coordinates":[[[103.4845,14.1733],[103.4531,14.1699],[103.4159,14.1813],[103.4027,14.1733],[103.4003,14.1653],[103.3945,14.1597],[103.3943,14.1557],[103.3877,14.1467],[103.3873,14.1327],[103.3845,14.1285],[103.3921,14.0985],[103.4009,14.0971],[103.4349,14.1047],[103.4697,14.1087],[103.5197,14.1057],[103.5391,14.1059],[103.5437,14.1079],[103.5291,14.1155],[103.5153,14.1265],[103.4987,14.1545],[103.4845,14.1733]]]}},{"type":"Feature","properties":{"c":"220403","en":"Koun Kriel","km":"សង្កាត់កូនក្រៀល"},"geometry":{"type":"Polygon","coordinates":[[[103.6277,14.4073],[103.6207,14.4043],[103.6173,14.4061],[103.6099,14.4247],[103.6035,14.4223],[103.5821,14.4323],[103.5607,14.4323],[103.5343,14.4249],[103.5223,14.4179],[103.4981,14.4115],[103.4961,14.3893],[103.4937,14.3867],[103.4851,14.3875],[103.4797,14.3789],[103.4735,14.3769],[103.4667,14.3653],[103.4507,14.3689],[103.4461,14.3815],[103.4411,14.3797],[103.4385,14.3883],[103.4361,14.3907],[103.4319,14.3895],[103.4203,14.3833],[103.4289,14.3347],[103.4331,14.3339],[103.4387,14.3189],[103.4527,14.2995],[103.4511,14.2907],[103.4979,14.2893],[103.5009,14.2867],[103.5323,14.2191],[103.5337,14.2089],[103.5473,14.2023],[103.5599,14.1915],[103.5769,14.1709],[103.6143,14.1167],[103.6435,14.1039],[103.6631,14.1011],[103.6999,14.1137],[103.7151,14.1159],[103.7297,14.1135],[103.7453,14.1147],[103.7529,14.1211],[103.7559,14.1209],[103.7629,14.1149],[103.7759,14.1121],[103.7871,14.0999],[103.8005,14.1077],[103.8029,14.1221],[103.8095,14.1199],[103.8139,14.1249],[103.8281,14.1289],[103.8301,14.3543],[103.8263,14.3531],[103.8033,14.3569],[103.8025,14.3691],[103.7867,14.3667],[103.7789,14.3613],[103.7753,14.3613],[103.7745,14.3645],[103.7591,14.3773],[103.7529,14.3723],[103.7315,14.3853],[103.7253,14.3817],[103.7097,14.3799],[103.7033,14.3851],[103.7007,14.3907],[103.7033,14.4097],[103.6277,14.4073]]]}},{"type":"Feature","properties":{"c":"220405","en":"Ou Smach","km":"សង្កាត់អូរស្មាច់"},"geometry":{"type":"Polygon","coordinates":[[[103.7033,14.4097],[103.7073,14.4159],[103.7075,14.4325],[103.6879,14.4403],[103.6765,14.4369],[103.6561,14.4395],[103.6459,14.4339],[103.6427,14.4261],[103.6563,14.4207],[103.6557,14.4167],[103.6531,14.4137],[103.6427,14.4147],[103.6311,14.4085],[103.7033,14.4097]]]}},{"type":"Feature","properties":{"c":"220404","en":"Samraong","km":"សង្កាត់សំរោង"},"geometry":{"type":"Polygon","coordinates":[[[103.6143,14.1167],[103.5769,14.1709],[103.5599,14.1915],[103.5473,14.2023],[103.5337,14.2089],[103.5309,14.2071],[103.4851,14.2059],[103.4821,14.1993],[103.4863,14.1809],[103.4845,14.1733],[103.4987,14.1545],[103.5153,14.1265],[103.5229,14.1197],[103.5467,14.1065],[103.5615,14.1083],[103.5859,14.1167],[103.6143,14.1167]]]}}]}