{"type":"FeatureCollection","features":[{"type":"Feature","properties":{"c":"220501","en":"Bak Anloung","km":"បាក់អន្លូង"},"geometry":{"type":"Polygon","coordinates":[[[104.5065,14.1401],[104.5075,14.1453],[104.5029,14.1513],[104.4729,14.1689],[104.4707,14.1745],[104.4627,14.1781],[104.4515,14.1977],[104.4451,14.2009],[104.4435,14.2047],[104.4421,14.2089],[104.4443,14.2113],[104.4567,14.2129],[104.4571,14.2195],[104.4629,14.2337],[104.4619,14.2511],[104.4559,14.2593],[104.4569,14.2679],[104.4509,14.2595],[104.4401,14.2517],[104.4085,14.2471],[104.3969,14.2423],[104.3621,14.1943],[104.4565,14.0915],[104.4807,14.1175],[104.4869,14.1203],[104.4993,14.1321],[104.5023,14.1381],[104.5065,14.1401]]]}},{"type":"Feature","properties":{"c":"220503","en":"Ou Svay","km":"អូរស្វាយ"},"geometry":{"type":"Polygon","coordinates":[[[104.3711,14.3775],[104.3527,14.3687],[104.3297,14.3711],[104.3225,14.3739],[104.3137,14.3819],[104.3065,14.3837],[104.2935,14.3981],[104.2861,14.4001],[104.2761,14.4083],[104.2687,14.4015],[104.2603,14.3989],[104.2525,14.3911],[104.2531,14.3869],[104.2473,14.3775],[104.2343,14.3723],[104.2339,14.3529],[104.2375,14.3199],[104.2417,14.3041],[104.2443,14.2999],[104.2585,14.2977],[104.2649,14.2941],[104.2717,14.2815],[104.2935,14.2797],[104.3039,14.2721],[104.3107,14.2703],[104.3117,14.2673],[104.3469,14.2785],[104.3689,14.2957],[104.3715,14.3033],[104.3711,14.3775]]]}},{"type":"Feature","properties":{"c":"220502","en":"Ph'av","km":"ផ្អាវ"},"geometry":{"type":"Polygon","coordinates":[[[104.2343,14.3723],[104.2181,14.3677],[104.2111,14.3683],[104.2007,14.3819],[104.1881,14.3847],[104.1711,14.3757],[104.1747,14.3705],[104.1739,14.3597],[104.1595,14.3567],[104.1629,13.9563],[104.1747,13.9517],[104.1919,13.9345],[104.2161,13.9283],[104.2405,13.9429],[104.2397,14.1333],[104.2515,14.1569],[104.2751,14.1757],[104.2761,14.2237],[104.2779,14.2283],[104.3117,14.2673],[104.3107,14.2703],[104.3039,14.2721],[104.2935,14.2797],[104.2717,14.2815],[104.2671,14.2913],[104.2619,14.2963],[104.2443,14.2999],[104.2375,14.3199],[104.2339,14.3529],[104.2343,14.3723]]]}},{"type":"Feature","properties":{"c":"220504","en":"Preah Pralay","km":"ព្រះប្រឡាយ"},"geometry":{"type":"Polygon","coordinates":[[[104.4663,14.3451],[104.4621,14.3469],[104.4641,14.3553],[104.4601,14.3605],[104.4565,14.3607],[104.4503,14.3567],[104.4367,14.3581],[104.4259,14.3683],[104.4157,14.3717],[104.4053,14.3663],[104.3997,14.3733],[104.3949,14.3747],[104.3859,14.3721],[104.3755,14.3825],[104.3711,14.3775],[104.3715,14.3033],[104.3947,14.3049],[104.4045,14.3029],[104.4313,14.3099],[104.4617,14.3105],[104.4649,14.3209],[104.4663,14.3451]]]}},{"type":"Feature","properties":{"c":"220506","en":"Trapeang Prasat","km":"ត្រពាំងប្រាសាទ"},"geometry":{"type":"Polygon","coordinates":[[[104.4565,14.0915],[104.3621,14.1943],[104.2763,14.1941],[104.2751,14.1757],[104.2515,14.1569],[104.2387,14.1277],[104.2405,13.9429],[104.2449,13.9483],[104.2607,13.9579],[104.2669,13.9575],[104.2727,13.9527],[104.2825,13.9589],[104.2909,13.9601],[104.3049,13.9557],[104.3339,13.9581],[104.3487,13.9537],[104.3603,13.9645],[104.3689,13.9611],[104.3909,13.9625],[104.4069,13.9527],[104.4163,13.9349],[104.4197,13.9361],[104.4229,13.9489],[104.4201,13.9571],[104.4239,13.9591],[104.4277,13.9731],[104.4177,13.9945],[104.4193,14.0055],[104.4251,14.0137],[104.4233,14.0235],[104.4293,14.0267],[104.4305,14.0469],[104.4381,14.0695],[104.4401,14.0731],[104.4513,14.0787],[104.4565,14.0915]]]}},{"type":"Feature","properties":{"c":"220505","en":"Tumnob Dach","km":"ទំនប់ដាច់"},"geometry":{"type":"Polygon","coordinates":[[[104.4617,14.3105],[104.4313,14.3099],[104.4045,14.3029],[104.3947,14.3049],[104.3715,14.3033],[104.3689,14.2957],[104.3469,14.2785],[104.3117,14.2673],[104.2779,14.2283],[104.2761,14.2237],[104.2763,14.1941],[104.3621,14.1943],[104.3969,14.2423],[104.4085,14.2471],[104.4401,14.2517],[104.4537,14.2625],[104.4569,14.2679],[104.4563,14.2901],[104.4617,14.3105]]]}}]}