{"type":"FeatureCollection","features":[{"type":"Feature","properties":{"c":"230101","en":"Angkaol","km":"អង្កោល"},"geometry":{"type":"Polygon","coordinates":[[[104.4019,10.4745],[104.4051,10.4719],[104.4079,10.4795],[104.4073,10.4831],[104.4041,10.4807],[104.4013,10.4849],[104.4027,10.4929],[104.4079,10.4937],[104.4061,10.4905],[104.4121,10.4875],[104.4201,10.4901],[104.4215,10.4935],[104.4163,10.4991],[104.4179,10.5041],[104.4147,10.5085],[104.4147,10.5197],[104.3987,10.5259],[104.3735,10.5245],[104.3693,10.4979],[104.3595,10.4973],[104.3559,10.4943],[104.3891,10.4535],[104.4019,10.4479],[104.4151,10.4461],[104.4243,10.4539],[104.4261,10.4581],[104.4159,10.4663],[104.4193,10.4715],[104.4145,10.4739],[104.4123,10.4705],[104.4055,10.4677],[104.4051,10.4719],[104.4019,10.4709],[104.4019,10.4745]]]}},{"type":"Feature","properties":{"c":"230103","en":"Pong Tuek","km":"ពងទឹក"},"geometry":{"type":"Polygon","coordinates":[[[104.3987,10.5259],[104.3943,10.5355],[104.3863,10.5417],[104.3861,10.5641],[104.3839,10.5713],[104.3753,10.5755],[104.3733,10.5705],[104.3693,10.5763],[104.3631,10.5775],[104.3449,10.5651],[104.3431,10.5321],[104.3465,10.5297],[104.3501,10.5207],[104.3463,10.5037],[104.3423,10.4961],[104.3493,10.4967],[104.3559,10.4943],[104.3595,10.4973],[104.3693,10.4979],[104.3735,10.5245],[104.3987,10.5259]]]}}]}