{"type":"FeatureCollection","features":[{"type":"Feature","properties":{"c":"230201","en":"Kaeb","km":"សង្កាត់កែប"},"geometry":{"type":"MultiPolygon","coordinates":[[[[104.3281,10.3945],[104.3275,10.3979],[104.3311,10.3971],[104.3281,10.3945]]],[[[104.3221,10.4433],[104.3307,10.4413],[104.3337,10.4381],[104.3331,10.4339],[104.3261,10.4303],[104.3163,10.4329],[104.3221,10.4433]]],[[[104.3231,10.5325],[104.3431,10.5321],[104.3465,10.5297],[104.3501,10.5207],[104.3463,10.5037],[104.3423,10.4961],[104.3181,10.4817],[104.3041,10.4767],[104.2953,10.4787],[104.3231,10.5325]]]]}},{"type":"Feature","properties":{"c":"230203","en":"Ou Krasar","km":"សង្កាត់អូរក្រសារ"},"geometry":{"type":"Polygon","coordinates":[[[104.3067,10.5751],[104.2943,10.5767],[104.2769,10.5905],[104.2729,10.5797],[104.2709,10.5631],[104.2661,10.5587],[104.2679,10.5471],[104.2709,10.5443],[104.2757,10.5457],[104.2851,10.5379],[104.2889,10.5397],[104.2907,10.5457],[104.2967,10.5481],[104.3001,10.5557],[104.3069,10.5627],[104.3051,10.5669],[104.3067,10.5751]]]}},{"type":"Feature","properties":{"c":"230202","en":"Prey Thum","km":"សង្កាត់ព្រៃធំ"},"geometry":{"type":"Polygon","coordinates":[[[104.3631,10.5775],[104.3429,10.5779],[104.3275,10.5737],[104.3067,10.5751],[104.3051,10.5669],[104.3069,10.5627],[104.3001,10.5557],[104.2967,10.5481],[104.2907,10.5457],[104.2889,10.5397],[104.2851,10.5379],[104.2757,10.5457],[104.2709,10.5443],[104.2791,10.5317],[104.2879,10.5097],[104.2883,10.4817],[104.2905,10.4793],[104.2953,10.4787],[104.3231,10.5325],[104.3431,10.5321],[104.3449,10.5651],[104.3631,10.5775]]]}}]}