{"type":"FeatureCollection","features":[{"type":"Feature","properties":{"c":"240104","en":"Bar Yakha","km":"សង្កាត់បរយ៉ាខា"},"geometry":{"type":"Polygon","coordinates":[[[102.5665,12.8905],[102.5069,12.8909],[102.5069,12.8663],[102.4985,12.8605],[102.5005,12.8515],[102.5141,12.8417],[102.5157,12.8231],[102.5293,12.8169],[102.5311,12.8137],[102.5283,12.7975],[102.5357,12.7845],[102.5315,12.7667],[102.5255,12.7631],[102.5197,12.7539],[102.5081,12.7523],[102.5003,12.7405],[102.5043,12.7309],[102.5033,12.7131],[102.4979,12.7049],[102.5049,12.6987],[102.5097,12.6899],[102.5057,12.6829],[102.5099,12.6713],[102.5195,12.6629],[102.5641,12.6719],[102.5565,12.6783],[102.5571,12.6835],[102.5529,12.6945],[102.5557,12.6979],[102.5523,12.7137],[102.5563,12.7223],[102.5579,12.7813],[102.5663,12.8123],[102.5775,12.8347],[102.5739,12.8521],[102.5815,12.8665],[102.5815,12.8753],[102.5793,12.8789],[102.5721,12.8827],[102.5665,12.8905]]]}},{"type":"Feature","properties":{"c":"240102","en":"Ou Ta Vau","km":"សង្កាត់អូរតាវ៉ៅ"},"geometry":{"type":"Polygon","coordinates":[[[102.7523,12.8651],[102.6425,12.8651],[102.6321,12.8719],[102.6265,12.8717],[102.6199,12.8647],[102.6185,12.8505],[102.6073,12.8273],[102.6085,12.8211],[102.6321,12.7929],[102.6567,12.7521],[102.6723,12.7325],[102.6859,12.7029],[102.7533,12.7495],[102.7523,12.8651]]]}},{"type":"Feature","properties":{"c":"240101","en":"Pailin","km":"សង្កាត់ប៉ៃលិន"},"geometry":{"type":"Polygon","coordinates":[[[102.7523,12.8651],[102.7521,12.8923],[102.5857,12.8905],[102.6041,12.8609],[102.6043,12.8573],[102.5985,12.8529],[102.5937,12.8445],[102.5937,12.8315],[102.6017,12.7863],[102.6011,12.7607],[102.6039,12.7421],[102.6211,12.6819],[102.6667,12.6899],[102.6859,12.7029],[102.6723,12.7325],[102.6567,12.7521],[102.6321,12.7929],[102.6085,12.8211],[102.6073,12.8273],[102.6185,12.8505],[102.6191,12.8619],[102.6221,12.8683],[102.6265,12.8717],[102.6321,12.8719],[102.6425,12.8651],[102.7523,12.8651]]]}},{"type":"Feature","properties":{"c":"240103","en":"Tuol Lvea","km":"សង្កាត់ទួលល្វា"},"geometry":{"type":"Polygon","coordinates":[[[102.6211,12.6819],[102.6039,12.7421],[102.6011,12.7607],[102.6017,12.7863],[102.5937,12.8315],[102.5937,12.8445],[102.5985,12.8529],[102.6043,12.8573],[102.6041,12.8609],[102.5857,12.8905],[102.5665,12.8905],[102.5721,12.8827],[102.5793,12.8789],[102.5815,12.8753],[102.5815,12.8665],[102.5739,12.8521],[102.5775,12.8347],[102.5663,12.8123],[102.5585,12.7859],[102.5563,12.7223],[102.5523,12.7137],[102.5557,12.6979],[102.5529,12.6945],[102.5571,12.6835],[102.5565,12.6783],[102.5641,12.6719],[102.6211,12.6819]]]}}]}