{"type":"FeatureCollection","features":[{"type":"Feature","properties":{"c":"240204","en":"Ou Andoung","km":"អូរអណ្ដូង"},"geometry":{"type":"Polygon","coordinates":[[[102.7355,13.0445],[102.7013,13.0475],[102.6805,13.0387],[102.6407,13.0067],[102.6279,12.9895],[102.6157,12.9625],[102.6015,12.9401],[102.5551,12.9355],[102.5775,12.9225],[102.5889,12.9249],[102.6153,12.9225],[102.7519,12.9231],[102.7513,13.0267],[102.7355,13.0445]]]}},{"type":"Feature","properties":{"c":"240201","en":"Sala Krau","km":"សាលាក្រៅ"},"geometry":{"type":"Polygon","coordinates":[[[102.5971,12.9397],[102.5943,12.9533],[102.5947,12.9989],[102.5919,13.0153],[102.5859,13.0233],[102.5833,13.0195],[102.5845,13.0153],[102.5801,13.0141],[102.5793,13.0083],[102.5625,12.9807],[102.4873,12.9825],[102.4863,12.9777],[102.4947,12.9703],[102.5005,12.9611],[102.4963,12.9531],[102.5109,12.9467],[102.5245,12.9349],[102.5283,12.9337],[102.5377,12.9397],[102.5457,12.9407],[102.5551,12.9355],[102.5971,12.9397]]]}},{"type":"Feature","properties":{"c":"240203","en":"Stueng Kach","km":"ស្ទឹងកាច់"},"geometry":{"type":"Polygon","coordinates":[[[102.5551,12.9355],[102.5457,12.9407],[102.5377,12.9397],[102.5283,12.9337],[102.5109,12.9467],[102.4963,12.9531],[102.4863,12.9473],[102.4959,12.9225],[102.5009,12.9163],[102.5033,12.9009],[102.5087,12.8965],[102.5069,12.8909],[102.7521,12.8923],[102.7519,12.9231],[102.6153,12.9225],[102.5889,12.9249],[102.5775,12.9225],[102.5551,12.9355]]]}},{"type":"Feature","properties":{"c":"240202","en":"Stueng Trang","km":"ស្ទឹងត្រង់"},"geometry":{"type":"Polygon","coordinates":[[[102.6945,13.1023],[102.6897,13.1037],[102.6871,13.1011],[102.6805,13.1101],[102.6727,13.1113],[102.6659,13.1155],[102.6631,13.1135],[102.6515,13.1159],[102.6451,13.1125],[102.6433,13.1147],[102.6359,13.1147],[102.6331,13.1137],[102.6351,13.1099],[102.6337,13.1053],[102.6249,13.1043],[102.6219,13.1017],[102.6143,13.1023],[102.6139,13.0993],[102.6099,13.0975],[102.6063,13.1005],[102.6027,13.0993],[102.6021,13.0953],[102.5981,13.0939],[102.6011,13.0899],[102.5991,13.0865],[102.5875,13.0865],[102.5873,13.0821],[102.5919,13.0835],[102.5925,13.0807],[102.5881,13.0759],[102.5797,13.0739],[102.5773,13.0655],[102.5735,13.0623],[102.5749,13.0583],[102.5773,13.0605],[102.5811,13.0499],[102.5837,13.0485],[102.5823,13.0415],[102.5841,13.0353],[102.5809,13.0303],[102.5853,13.0289],[102.5823,13.0249],[102.5919,13.0153],[102.5953,12.9947],[102.5943,12.9533],[102.5971,12.9397],[102.6037,12.9423],[102.6279,12.9895],[102.6407,13.0067],[102.6519,13.0173],[102.6691,13.0279],[102.6805,13.0387],[102.6963,13.0465],[102.7127,13.0479],[102.7355,13.0445],[102.6945,13.1023]]]}}]}