{"type":"FeatureCollection","features":[{"type":"Feature","properties":{"c":"250101","en":"Chong Cheach","km":"ចុងជាច"},"geometry":{"type":"Polygon","coordinates":[[[105.9687,11.9449],[105.9501,11.9501],[105.9247,11.9479],[105.8551,11.9319],[105.8269,11.9379],[105.8153,11.9431],[105.7899,11.9435],[105.8037,11.8991],[105.8537,11.8975],[105.8647,11.9029],[105.8889,11.9065],[105.8891,11.9103],[105.8927,11.9115],[105.9275,11.9129],[105.9379,11.9155],[105.9601,11.9291],[105.9687,11.9403],[105.9687,11.9449]]]}},{"type":"Feature","properties":{"c":"250102","en":"Dambae","km":"តំបែរ"},"geometry":{"type":"Polygon","coordinates":[[[105.8863,12.0677],[105.8435,12.0685],[105.8311,12.0821],[105.8139,12.0959],[105.7937,12.0983],[105.7887,12.0907],[105.7877,12.0843],[105.7923,12.0811],[105.7993,12.0665],[105.8133,12.0285],[105.8189,12.0239],[105.8481,12.0165],[105.8617,12.0093],[105.8555,12.0041],[105.8563,11.9959],[105.8575,11.9915],[105.8661,11.9835],[105.8883,11.9843],[105.8981,11.9905],[105.9157,12.0083],[105.9011,12.0199],[105.8983,12.0293],[105.8981,12.0527],[105.8863,12.0677]]]}},{"type":"Feature","properties":{"c":"250103","en":"Kouk Srok","km":"គោកស្រុក"},"geometry":{"type":"Polygon","coordinates":[[[105.9157,12.0083],[105.8981,11.9905],[105.8883,11.9843],[105.8701,11.9827],[105.8661,11.9835],[105.8575,11.9915],[105.8555,12.0041],[105.8617,12.0093],[105.8481,12.0165],[105.8367,12.0179],[105.8369,12.0133],[105.8475,11.9961],[105.7935,11.9497],[105.7899,11.9435],[105.8153,11.9431],[105.8269,11.9379],[105.8551,11.9319],[105.9247,11.9479],[105.9263,11.9783],[105.9247,11.9991],[105.9223,12.0063],[105.9157,12.0083]]]}},{"type":"Feature","properties":{"c":"250104","en":"Neang Teut","km":"នាងទើត"},"geometry":{"type":"Polygon","coordinates":[[[105.8891,11.8747],[105.8907,11.8865],[105.8889,11.9065],[105.8647,11.9029],[105.8537,11.8975],[105.8431,11.8977],[105.8445,11.8943],[105.8351,11.8805],[105.8345,11.8761],[105.8365,11.8713],[105.8403,11.8699],[105.8541,11.8719],[105.8707,11.8621],[105.8835,11.8633],[105.8891,11.8747]]]}},{"type":"Feature","properties":{"c":"250105","en":"Seda","km":"សេដា"},"geometry":{"type":"Polygon","coordinates":[[[105.8771,12.2179],[105.8731,12.2157],[105.8647,12.2219],[105.8607,12.2193],[105.8593,12.2131],[105.8519,12.2033],[105.8425,12.2049],[105.8349,12.1997],[105.8325,12.1919],[105.8227,12.1915],[105.8125,12.1861],[105.8029,12.1507],[105.7945,12.1333],[105.7937,12.0983],[105.8177,12.0937],[105.8435,12.0685],[105.8907,12.0677],[105.9069,12.0757],[105.9181,12.0779],[105.9257,12.0839],[105.9307,12.0921],[105.9285,12.0961],[105.9127,12.1037],[105.9037,12.1115],[105.8975,12.1239],[105.8987,12.1299],[105.9101,12.1505],[105.9219,12.1589],[105.9301,12.1719],[105.9493,12.1831],[105.9661,12.1967],[105.9607,12.1963],[105.9549,12.2009],[105.9475,12.1979],[105.9443,12.1999],[105.9451,12.2071],[105.9405,12.2125],[105.9333,12.2131],[105.9299,12.2203],[105.9159,12.2143],[105.9101,12.2187],[105.9091,12.2145],[105.8935,12.2109],[105.8831,12.2131],[105.8771,12.2179]]]}},{"type":"Feature","properties":{"c":"250106","en":"Trapeang Pring","km":"ត្រពាំងព្រីង"},"geometry":{"type":"Polygon","coordinates":[[[105.9931,12.1833],[105.9853,12.1913],[105.9891,12.1937],[105.9905,12.1905],[105.9935,12.1907],[105.9947,12.1995],[105.9901,12.2027],[105.9845,12.2001],[105.9833,12.2037],[105.9793,12.2047],[105.9737,12.2013],[105.9719,12.1967],[105.9661,12.1967],[105.9493,12.1831],[105.9301,12.1719],[105.9219,12.1589],[105.9101,12.1505],[105.8987,12.1299],[105.8975,12.1239],[105.9037,12.1115],[105.9127,12.1037],[105.9285,12.0961],[105.9307,12.0921],[105.9297,12.0883],[105.9181,12.0779],[105.9069,12.0757],[105.8959,12.0687],[105.8863,12.0677],[105.8981,12.0527],[105.8983,12.0293],[105.9011,12.0199],[105.9113,12.0105],[105.9223,12.0063],[105.9239,12.0025],[105.9263,11.9877],[105.9247,11.9479],[105.9501,11.9501],[105.9687,11.9449],[105.9755,11.9485],[105.9957,11.9507],[105.9953,11.9755],[105.9735,12.0107],[105.9717,12.0295],[105.9617,12.0515],[105.9581,12.0767],[105.9665,12.1075],[105.9797,12.1169],[106.0013,12.1425],[106.0175,12.1473],[106.0189,12.1617],[106.0131,12.1657],[106.0135,12.1689],[106.0073,12.1761],[106.0107,12.1789],[106.0089,12.1827],[105.9959,12.1853],[105.9931,12.1833]]]}},{"type":"Feature","properties":{"c":"250107","en":"Tuek Chrov","km":"ទឹកជ្រៅ"},"geometry":{"type":"Polygon","coordinates":[[[106.0131,11.8601],[106.0119,11.8677],[105.9981,11.8845],[105.9965,11.9317],[105.9943,11.9383],[105.9957,11.9507],[105.9717,11.9467],[105.9601,11.9291],[105.9379,11.9155],[105.8891,11.9103],[105.8907,11.8865],[105.8891,11.8747],[105.9031,11.8769],[105.9201,11.8701],[105.9263,11.8707],[105.9353,11.8783],[105.9395,11.8779],[105.9599,11.8583],[105.9965,11.8571],[106.0013,11.8501],[106.0113,11.8425],[106.0167,11.8303],[106.0219,11.8269],[106.0199,11.8417],[106.0131,11.8601]]]}}]}