{"type":"FeatureCollection","features":[{"type":"Feature","properties":{"c":"250201","en":"Chhuk","km":"ឈូក"},"geometry":{"type":"Polygon","coordinates":[[[105.8369,12.2207],[105.8293,12.2237],[105.8261,12.2231],[105.8257,12.2199],[105.8149,12.2245],[105.8129,12.2219],[105.8057,12.2203],[105.8031,12.2271],[105.7901,12.2137],[105.7867,12.2125],[105.7843,12.2163],[105.7787,12.2145],[105.7671,12.2039],[105.7579,12.2019],[105.7507,12.2035],[105.7495,12.2061],[105.7477,12.2035],[105.7393,12.2055],[105.7355,12.2027],[105.7325,12.1975],[105.7347,12.1879],[105.7223,12.1835],[105.7053,12.1615],[105.7053,12.1481],[105.6969,12.1361],[105.7063,12.1353],[105.7059,12.1179],[105.7341,12.0925],[105.7521,12.0915],[105.7515,12.0949],[105.7599,12.1063],[105.7777,12.0903],[105.7887,12.0907],[105.7937,12.0983],[105.7951,12.1055],[105.7931,12.1089],[105.7945,12.1333],[105.8029,12.1507],[105.8125,12.1861],[105.8227,12.1915],[105.8325,12.1919],[105.8349,12.1997],[105.8425,12.2049],[105.8369,12.2207]]]}},{"type":"Feature","properties":{"c":"250202","en":"Chumnik","km":"ជំនីក"},"geometry":{"type":"Polygon","coordinates":[[[105.8311,12.2569],[105.8169,12.2599],[105.7917,12.2587],[105.7925,12.2449],[105.7843,12.2163],[105.7867,12.2125],[105.7929,12.2155],[105.7941,12.2193],[105.8031,12.2271],[105.8057,12.2203],[105.8129,12.2219],[105.8149,12.2245],[105.8257,12.2199],[105.8261,12.2231],[105.8293,12.2237],[105.8369,12.2207],[105.8373,12.2311],[105.8301,12.2435],[105.8311,12.2569]]]}},{"type":"Feature","properties":{"c":"250203","en":"Kampong Treas","km":"កំពង់ទ្រាស"},"geometry":{"type":"Polygon","coordinates":[[[105.5853,12.1577],[105.5531,12.1575],[105.5611,12.1431],[105.5603,12.1313],[105.5567,12.1289],[105.5341,12.1313],[105.5299,12.1153],[105.5305,12.1019],[105.5579,12.1045],[105.5597,12.1089],[105.5707,12.1115],[105.5747,12.1253],[105.5859,12.1235],[105.5905,12.1325],[105.5961,12.1377],[105.5951,12.1419],[105.5881,12.1403],[105.5847,12.1431],[105.5853,12.1577]]]}},{"type":"Feature","properties":{"c":"250204","en":"Kaoh Pir","km":"កោះពីរ"},"geometry":{"type":"Polygon","coordinates":[[[105.5531,12.1575],[105.5469,12.1733],[105.5411,12.1783],[105.5369,12.1641],[105.5341,12.1313],[105.5567,12.1289],[105.5603,12.1313],[105.5611,12.1431],[105.5531,12.1575]]]}},{"type":"Feature","properties":{"c":"250205","en":"Krouch Chhmar","km":"ក្រូចឆ្មារ"},"geometry":{"type":"Polygon","coordinates":[[[105.6491,12.2863],[105.6211,12.2987],[105.6107,12.3005],[105.5875,12.2989],[105.5765,12.2925],[105.5889,12.2841],[105.5931,12.2639],[105.6049,12.2417],[105.6089,12.2273],[105.6211,12.2105],[105.6297,12.2115],[105.6309,12.2157],[105.6273,12.2185],[105.6241,12.2343],[105.6255,12.2611],[105.6301,12.2703],[105.6337,12.2695],[105.6459,12.2759],[105.6491,12.2863]]]}},{"type":"Feature","properties":{"c":"250206","en":"Peus Muoy","km":"ប៉ឺស១"},"geometry":{"type":"Polygon","coordinates":[[[105.7711,12.2599],[105.7565,12.2579],[105.7399,12.2605],[105.7305,12.2661],[105.7279,12.2635],[105.7175,12.2487],[105.7105,12.2315],[105.7115,12.2199],[105.7071,12.1911],[105.7223,12.1835],[105.7347,12.1879],[105.7325,12.1975],[105.7329,12.2007],[105.7393,12.2055],[105.7423,12.2255],[105.7417,12.2445],[105.7441,12.2481],[105.7659,12.2539],[105.7711,12.2599]]]}},{"type":"Feature","properties":{"c":"250207","en":"Peus Pir","km":"ប៉ឺស២"},"geometry":{"type":"Polygon","coordinates":[[[105.7211,12.2775],[105.7041,12.2799],[105.6743,12.2387],[105.6661,12.2149],[105.6617,12.2127],[105.7071,12.1911],[105.7115,12.2199],[105.7105,12.2315],[105.7175,12.2487],[105.7305,12.2661],[105.7247,12.2695],[105.7211,12.2775]]]}},{"type":"Feature","properties":{"c":"250208","en":"Preaek A Chi","km":"ព្រែកអាជី"},"geometry":{"type":"Polygon","coordinates":[[[105.6023,12.2089],[105.5917,12.2235],[105.5783,12.2323],[105.5389,12.2343],[105.5353,12.2061],[105.5395,12.1817],[105.5469,12.1733],[105.5531,12.1575],[105.5853,12.1577],[105.5875,12.1645],[105.5853,12.1753],[105.5791,12.1835],[105.5767,12.1925],[105.5851,12.1937],[105.5915,12.1901],[105.6003,12.1981],[105.5991,12.2029],[105.6023,12.2089]]]}},{"type":"Feature","properties":{"c":"250209","en":"Roka Khnor","km":"រការខ្នុរ"},"geometry":{"type":"Polygon","coordinates":[[[105.7917,12.2587],[105.7711,12.2599],[105.7659,12.2539],[105.7441,12.2481],[105.7417,12.2445],[105.7423,12.2255],[105.7393,12.2055],[105.7477,12.2035],[105.7495,12.2061],[105.7507,12.2035],[105.7579,12.2019],[105.7671,12.2039],[105.7787,12.2145],[105.7843,12.2163],[105.7925,12.2449],[105.7917,12.2587]]]}},{"type":"Feature","properties":{"c":"250210","en":"Svay Khleang","km":"ស្វាយឃ្លាំង"},"geometry":{"type":"Polygon","coordinates":[[[105.6853,12.2853],[105.6491,12.2863],[105.6459,12.2759],[105.6337,12.2695],[105.6301,12.2703],[105.6255,12.2611],[105.6239,12.2511],[105.6241,12.2343],[105.6273,12.2185],[105.6309,12.2157],[105.6427,12.2209],[105.6551,12.2129],[105.6661,12.2149],[105.6743,12.2387],[105.7041,12.2799],[105.6853,12.2853]]]}},{"type":"Feature","properties":{"c":"250211","en":"Trea","km":"ទ្រា"},"geometry":{"type":"Polygon","coordinates":[[[105.6167,12.2155],[105.6089,12.2273],[105.6049,12.2417],[105.5947,12.2597],[105.5889,12.2841],[105.5765,12.2925],[105.5707,12.2899],[105.5591,12.2799],[105.5493,12.2659],[105.5389,12.2343],[105.5783,12.2323],[105.5917,12.2235],[105.5953,12.2167],[105.6053,12.2071],[105.6073,12.2111],[105.6147,12.2129],[105.6167,12.2155]]]}},{"type":"Feature","properties":{"c":"250212","en":"Tuol Snuol","km":"ទួលស្នួល"},"geometry":{"type":"Polygon","coordinates":[[[105.6617,12.2127],[105.6519,12.2139],[105.6427,12.2209],[105.6309,12.2157],[105.6297,12.2115],[105.6211,12.2105],[105.6167,12.2155],[105.6147,12.2129],[105.6073,12.2111],[105.6053,12.2071],[105.6023,12.2089],[105.5991,12.2029],[105.6003,12.1981],[105.5915,12.1901],[105.5851,12.1937],[105.5767,12.1925],[105.5791,12.1835],[105.5853,12.1753],[105.5875,12.1645],[105.5835,12.1479],[105.5847,12.1431],[105.5881,12.1403],[105.5951,12.1419],[105.5961,12.1377],[105.6075,12.1391],[105.6121,12.1367],[105.6235,12.1243],[105.6243,12.1171],[105.6429,12.1063],[105.6575,12.1069],[105.6795,12.1243],[105.6851,12.1353],[105.6969,12.1361],[105.7053,12.1481],[105.7053,12.1615],[105.7223,12.1835],[105.6617,12.2127]]]}}]}