{"type":"FeatureCollection","features":[{"type":"Feature","properties":{"c":"250301","en":"Chan Mul","km":"ចាន់មូល"},"geometry":{"type":"Polygon","coordinates":[[[106.2563,11.7915],[106.2359,11.7945],[106.2187,11.7831],[106.2307,11.7689],[106.2209,11.7475],[106.2305,11.7409],[106.2305,11.7371],[106.2259,11.7315],[106.2441,11.7269],[106.2503,11.7279],[106.2621,11.7237],[106.2609,11.7293],[106.2669,11.7375],[106.2657,11.7473],[106.2687,11.7593],[106.2647,11.7617],[106.2603,11.7715],[106.2563,11.7915]]]}},{"type":"Feature","properties":{"c":"250302","en":"Choam","km":"ជាំ"},"geometry":{"type":"Polygon","coordinates":[[[106.3341,11.6879],[106.3373,11.6961],[106.3415,11.6957],[106.3451,11.6991],[106.3483,11.7071],[106.3407,11.7151],[106.3305,11.7321],[106.3227,11.7317],[106.3155,11.7359],[106.3125,11.7613],[106.3077,11.7601],[106.2965,11.7625],[106.2759,11.7561],[106.2687,11.7593],[106.2657,11.7473],[106.2669,11.7375],[106.2609,11.7293],[106.2621,11.7237],[106.2723,11.7135],[106.2703,11.7065],[106.2977,11.6817],[106.2981,11.6739],[106.3173,11.6757],[106.3341,11.6879]]]}},{"type":"Feature","properties":{"c":"250303","en":"Choam Kravien","km":"ជាំក្រវៀន"},"geometry":{"type":"Polygon","coordinates":[[[106.4173,11.7745],[106.4065,11.7785],[106.4079,11.7909],[106.3951,11.7957],[106.3917,11.8039],[106.3805,11.8121],[106.3669,11.8115],[106.3529,11.8251],[106.3459,11.8363],[106.3317,11.8427],[106.3229,11.8411],[106.3197,11.8507],[106.3069,11.8551],[106.2987,11.8551],[106.2927,11.8435],[106.2811,11.8291],[106.2669,11.8281],[106.2673,11.8163],[106.2607,11.8115],[106.2585,11.7977],[106.2561,11.7953],[106.2603,11.7715],[106.2647,11.7617],[106.2687,11.7593],[106.2759,11.7561],[106.2965,11.7625],[106.3077,11.7601],[106.3125,11.7613],[106.3155,11.7359],[106.3227,11.7317],[106.3305,11.7321],[106.3407,11.7151],[106.3483,11.7071],[106.3451,11.6991],[106.3415,11.6957],[106.3373,11.6961],[106.3353,11.6925],[106.3343,11.6837],[106.3363,11.6813],[106.3685,11.6967],[106.3829,11.6969],[106.4015,11.6899],[106.4151,11.6785],[106.4269,11.6771],[106.4285,11.6729],[106.4355,11.6699],[106.4505,11.6707],[106.4527,11.6731],[106.4537,11.6895],[106.4395,11.7051],[106.4347,11.7185],[106.4227,11.7387],[106.4151,11.7663],[106.4173,11.7745]]]}},{"type":"Feature","properties":{"c":"250304","en":"Choam Ta Mau","km":"ជាំតាម៉ៅ"},"geometry":{"type":"Polygon","coordinates":[[[106.2187,11.9623],[106.2067,11.9661],[106.2109,11.9563],[106.2127,11.9417],[106.2249,11.9387],[106.2291,11.9327],[106.2279,11.9265],[106.2191,11.9127],[106.2159,11.8949],[106.2297,11.8769],[106.2363,11.8737],[106.2427,11.8647],[106.2539,11.8573],[106.2587,11.8455],[106.2583,11.8283],[106.2811,11.8291],[106.2955,11.8479],[106.3031,11.8697],[106.2941,11.8791],[106.2949,11.8873],[106.2915,11.9035],[106.2855,11.9085],[106.2883,11.9217],[106.2871,11.9349],[106.2955,11.9423],[106.3095,11.9479],[106.3133,11.9639],[106.2883,11.9579],[106.2859,11.9605],[106.2809,11.9551],[106.2589,11.9557],[106.2559,11.9537],[106.2423,11.9593],[106.2405,11.9635],[106.2361,11.9659],[106.2251,11.9575],[106.2211,11.9581],[106.2187,11.9623]]]}},{"type":"Feature","properties":{"c":"250305","en":"Dar","km":"ដារ"},"geometry":{"type":"Polygon","coordinates":[[[106.1055,11.8709],[106.0331,11.8711],[106.0317,11.8605],[106.0131,11.8601],[106.0209,11.8379],[106.0225,11.8221],[106.0273,11.8119],[106.0241,11.7753],[106.0417,11.7781],[106.0507,11.7745],[106.0681,11.7765],[106.0901,11.7655],[106.0947,11.7569],[106.1015,11.7543],[106.1055,11.7657],[106.1163,11.7767],[106.1127,11.7805],[106.1203,11.7919],[106.1199,11.7999],[106.1297,11.8085],[106.1273,11.8209],[106.1231,11.8277],[106.1259,11.8459],[106.1141,11.8453],[106.1105,11.8473],[106.1051,11.8571],[106.1055,11.8709]]]}},{"type":"Feature","properties":{"c":"250306","en":"Kampoan","km":"កំពាន់"},"geometry":{"type":"Polygon","coordinates":[[[106.1797,11.9531],[106.1737,11.9603],[106.1755,11.9637],[106.1671,11.9667],[106.1689,11.9697],[106.1741,11.9713],[106.1741,11.9787],[106.1709,11.9861],[106.1715,11.9967],[106.1751,11.9983],[106.1811,12.0103],[106.1799,12.0153],[106.1767,12.0169],[106.1797,12.0193],[106.1791,12.0239],[106.1723,12.0305],[106.1727,12.0349],[106.1625,12.0421],[106.1281,12.0301],[106.1181,12.0217],[106.0997,12.0217],[106.0533,11.9771],[105.9953,11.9755],[105.9943,11.9383],[105.9965,11.9317],[105.9981,11.8845],[106.0119,11.8677],[106.0131,11.8601],[106.0317,11.8605],[106.0343,11.9071],[106.0929,11.9069],[106.1125,11.9169],[106.1163,11.9209],[106.1239,11.9231],[106.1297,11.9313],[106.1417,11.9253],[106.1453,11.9259],[106.1531,11.9347],[106.1703,11.9335],[106.1783,11.9355],[106.1797,11.9531]]]}},{"type":"Feature","properties":{"c":"250307","en":"Kokir","km":"គគីរ"},"geometry":{"type":"Polygon","coordinates":[[[106.1703,11.9335],[106.1531,11.9347],[106.1453,11.9259],[106.1417,11.9253],[106.1297,11.9313],[106.1239,11.9231],[106.1163,11.9209],[106.1125,11.9169],[106.0929,11.9069],[106.0343,11.9071],[106.0331,11.8711],[106.1055,11.8709],[106.1287,11.8731],[106.1461,11.8831],[106.1501,11.8907],[106.1455,11.8989],[106.1467,11.9037],[106.1535,11.9053],[106.1601,11.9103],[106.1703,11.9273],[106.1703,11.9335]]]}},{"type":"Feature","properties":{"c":"250308","en":"Memong","km":"មេមង"},"geometry":{"type":"Polygon","coordinates":[[[106.2067,11.9661],[106.1997,11.9651],[106.1993,11.9685],[106.1965,11.9677],[106.1885,11.9611],[106.1865,11.9567],[106.1797,11.9531],[106.1783,11.9355],[106.1703,11.9335],[106.1703,11.9273],[106.1601,11.9103],[106.1535,11.9053],[106.1467,11.9037],[106.1455,11.8989],[106.1501,11.8907],[106.1461,11.8831],[106.1287,11.8731],[106.1313,11.8697],[106.1389,11.8707],[106.1649,11.8607],[106.1703,11.8465],[106.1761,11.8407],[106.1919,11.8463],[106.1937,11.8621],[106.2009,11.8715],[106.2067,11.8923],[106.2153,11.8981],[106.2229,11.9213],[106.2279,11.9265],[106.2277,11.9361],[106.2127,11.9417],[106.2109,11.9563],[106.2067,11.9661]]]}},{"type":"Feature","properties":{"c":"250309","en":"Memot","km":"មេមត់"},"geometry":{"type":"Polygon","coordinates":[[[106.1919,11.8463],[106.1761,11.8407],[106.1703,11.8465],[106.1649,11.8607],[106.1573,11.8647],[106.1489,11.8655],[106.1389,11.8707],[106.1313,11.8697],[106.1287,11.8731],[106.1055,11.8709],[106.1051,11.8571],[106.1105,11.8473],[106.1141,11.8453],[106.1259,11.8459],[106.1231,11.8277],[106.1273,11.8209],[106.1297,11.8085],[106.1345,11.8043],[106.1523,11.8081],[106.1729,11.8029],[106.1759,11.8055],[106.1767,11.8167],[106.1893,11.8205],[106.1931,11.8255],[106.1961,11.8351],[106.1919,11.8463]]]}},{"type":"Feature","properties":{"c":"250310","en":"Rumchek","km":"រំចេក"},"geometry":{"type":"Polygon","coordinates":[[[106.0599,12.1279],[106.0591,12.1319],[106.0513,12.1357],[106.0481,12.1449],[106.0439,12.1461],[106.0447,12.1563],[106.0397,12.1513],[106.0301,12.1475],[106.0215,12.1491],[106.0013,12.1425],[105.9797,12.1169],[105.9641,12.1039],[105.9581,12.0767],[105.9617,12.0515],[105.9705,12.0343],[105.9749,12.0069],[105.9841,11.9957],[105.9953,11.9755],[106.0533,11.9771],[106.0997,12.0217],[106.1181,12.0217],[106.1281,12.0301],[106.1577,12.0407],[106.1541,12.0483],[106.1503,12.0487],[106.1467,12.0543],[106.1399,12.0491],[106.1367,12.0519],[106.1333,12.0461],[106.1311,12.0559],[106.1287,12.0543],[106.1267,12.0569],[106.1229,12.0553],[106.1201,12.0571],[106.1215,12.0607],[106.1181,12.0623],[106.1179,12.0679],[106.1113,12.0753],[106.1077,12.0735],[106.1003,12.0749],[106.0959,12.0721],[106.0943,12.0749],[106.0867,12.0745],[106.0863,12.0713],[106.0803,12.0695],[106.0739,12.0725],[106.0759,12.0815],[106.0689,12.0801],[106.0591,12.0825],[106.0597,12.0853],[106.0571,12.0865],[106.0513,12.0819],[106.0449,12.0825],[106.0495,12.0895],[106.0435,12.0929],[106.0417,12.0967],[106.0435,12.1003],[106.0467,12.0997],[106.0489,12.1019],[106.0497,12.1067],[106.0593,12.1127],[106.0597,12.1171],[106.0557,12.1205],[106.0599,12.1279]]]}},{"type":"Feature","properties":{"c":"250311","en":"Rung","km":"រូង"},"geometry":{"type":"Polygon","coordinates":[[[106.2259,11.7315],[106.2305,11.7371],[106.2305,11.7409],[106.2209,11.7475],[106.2307,11.7689],[106.2187,11.7831],[106.2057,11.7819],[106.1905,11.7745],[106.1863,11.7745],[106.1795,11.7805],[106.1767,11.7787],[106.1743,11.7803],[106.1703,11.7773],[106.1707,11.7617],[106.1473,11.7605],[106.1417,11.7561],[106.1383,11.7483],[106.1383,11.7439],[106.1531,11.7371],[106.1665,11.7469],[106.1817,11.7483],[106.1893,11.7539],[106.1927,11.7521],[106.1977,11.7395],[106.2095,11.7307],[106.2167,11.7283],[106.2259,11.7315]]]}},{"type":"Feature","properties":{"c":"250312","en":"Tonlung","km":"ទន្លូង"},"geometry":{"type":"Polygon","coordinates":[[[106.4111,11.9751],[106.3997,11.9773],[106.3979,11.9731],[106.3853,11.9637],[106.3845,11.9593],[106.3683,11.9513],[106.3629,11.9549],[106.3535,11.9499],[106.3391,11.9577],[106.3133,11.9639],[106.3095,11.9479],[106.2887,11.9381],[106.2855,11.9085],[106.2915,11.9035],[106.2949,11.8873],[106.2941,11.8791],[106.3031,11.8697],[106.2987,11.8551],[106.3165,11.8533],[106.3197,11.8507],[106.3229,11.8411],[106.3317,11.8427],[106.3459,11.8363],[106.3529,11.8251],[106.3669,11.8115],[106.3805,11.8121],[106.3917,11.8039],[106.3951,11.7957],[106.4079,11.7909],[106.4065,11.7785],[106.4173,11.7745],[106.4341,11.8009],[106.4347,11.8075],[106.4467,11.8227],[106.4457,11.8305],[106.4393,11.8397],[106.4397,11.8555],[106.4453,11.8599],[106.4479,11.8661],[106.4579,11.8645],[106.4659,11.8675],[106.4139,11.9735],[106.4111,11.9751]]]}},{"type":"Feature","properties":{"c":"250313","en":"Tramung","km":"ត្រមូង"},"geometry":{"type":"Polygon","coordinates":[[[106.2669,11.8281],[106.2583,11.8283],[106.2587,11.8455],[106.2539,11.8573],[106.2455,11.8621],[106.2363,11.8737],[106.2271,11.8795],[106.2153,11.8981],[106.2067,11.8923],[106.2009,11.8715],[106.1937,11.8621],[106.1919,11.8463],[106.1961,11.8351],[106.1931,11.8255],[106.1893,11.8205],[106.1767,11.8167],[106.1759,11.8055],[106.1729,11.8029],[106.1735,11.7947],[106.1605,11.7823],[106.1703,11.7773],[106.1795,11.7805],[106.1863,11.7745],[106.1905,11.7745],[106.2057,11.7819],[106.2187,11.7831],[106.2359,11.7945],[106.2563,11.7915],[106.2607,11.8115],[106.2673,11.8163],[106.2669,11.8281]]]}},{"type":"Feature","properties":{"c":"250314","en":"Triek","km":"ទ្រៀក"},"geometry":{"type":"Polygon","coordinates":[[[106.1729,11.8029],[106.1523,11.8081],[106.1345,11.8043],[106.1297,11.8085],[106.1199,11.7999],[106.1203,11.7919],[106.1127,11.7805],[106.1163,11.7767],[106.1055,11.7657],[106.1021,11.7573],[106.1041,11.7479],[106.1159,11.7429],[106.1263,11.7453],[106.1383,11.7439],[106.1395,11.7531],[106.1473,11.7605],[106.1707,11.7617],[106.1703,11.7773],[106.1605,11.7823],[106.1735,11.7947],[106.1729,11.8029]]]}}]}