{"type":"FeatureCollection","features":[{"type":"Feature","properties":{"c":"250401","en":"Ampil Ta Pok","km":"អំពិលតាពក"},"geometry":{"type":"Polygon","coordinates":[[[105.5105,11.8383],[105.5063,11.8447],[105.5023,11.8449],[105.4885,11.8307],[105.4737,11.8233],[105.4683,11.8057],[105.4669,11.7653],[105.4783,11.7641],[105.4855,11.7773],[105.4963,11.7875],[105.5147,11.8113],[105.5177,11.8217],[105.5135,11.8217],[105.5137,11.8299],[105.5081,11.8341],[105.5105,11.8383]]]}},{"type":"Feature","properties":{"c":"250402","en":"Chak","km":"ចក"},"geometry":{"type":"Polygon","coordinates":[[[105.6643,11.7767],[105.6471,11.7779],[105.6403,11.7913],[105.6367,11.7937],[105.6237,11.7887],[105.5989,11.7961],[105.5889,11.8057],[105.5865,11.8297],[105.5807,11.8295],[105.5679,11.8229],[105.5647,11.8265],[105.5563,11.8271],[105.5561,11.8075],[105.5733,11.8055],[105.5723,11.7991],[105.5747,11.7927],[105.5723,11.7857],[105.5737,11.7777],[105.5721,11.7669],[105.5763,11.7567],[105.5751,11.7511],[105.5779,11.7491],[105.6199,11.7425],[105.6493,11.7435],[105.6647,11.7397],[105.6643,11.7767]]]}},{"type":"Feature","properties":{"c":"250403","en":"Damril","km":"ដំរិល"},"geometry":{"type":"Polygon","coordinates":[[[105.6651,11.8247],[105.6503,11.8313],[105.6271,11.8295],[105.6013,11.8351],[105.5865,11.8297],[105.5861,11.8197],[105.5889,11.8057],[105.5989,11.7961],[105.6237,11.7887],[105.6367,11.7937],[105.6403,11.7913],[105.6471,11.7779],[105.6599,11.7763],[105.6643,11.7767],[105.6821,11.7881],[105.6717,11.8171],[105.6651,11.8247]]]}},{"type":"Feature","properties":{"c":"250404","en":"Kong Chey","km":"គងជ័យ"},"geometry":{"type":"Polygon","coordinates":[[[105.5491,11.7503],[105.5497,11.7857],[105.5369,11.8009],[105.5387,11.8115],[105.5341,11.8239],[105.5273,11.8145],[105.5093,11.8047],[105.4855,11.7773],[105.4783,11.7641],[105.4983,11.7633],[105.5141,11.7561],[105.5281,11.7559],[105.5351,11.7523],[105.5491,11.7503]]]}},{"type":"Feature","properties":{"c":"250405","en":"Mien","km":"មៀន"},"geometry":{"type":"Polygon","coordinates":[[[105.4737,11.8233],[105.4735,11.8273],[105.4613,11.8411],[105.4483,11.8477],[105.4469,11.8363],[105.4443,11.8335],[105.4187,11.8277],[105.4191,11.8235],[105.4127,11.8179],[105.4153,11.8023],[105.4075,11.7941],[105.4125,11.7927],[105.4189,11.7725],[105.4423,11.7557],[105.4473,11.7551],[105.4607,11.7651],[105.4669,11.7653],[105.4683,11.8057],[105.4737,11.8233]]]}},{"type":"Feature","properties":{"c":"250406","en":"Preah Theat","km":"ព្រះធាតុ"},"geometry":{"type":"Polygon","coordinates":[[[105.5139,11.9093],[105.5083,11.9143],[105.4989,11.9137],[105.4841,11.9065],[105.4747,11.8981],[105.4669,11.9009],[105.4535,11.8903],[105.4535,11.8763],[105.4499,11.8653],[105.4483,11.8477],[105.4613,11.8411],[105.4735,11.8273],[105.4737,11.8233],[105.4885,11.8307],[105.5023,11.8449],[105.5063,11.8447],[105.5105,11.8383],[105.5263,11.8463],[105.5353,11.8541],[105.5797,11.8553],[105.5785,11.8673],[105.5727,11.8725],[105.5709,11.8781],[105.5613,11.8783],[105.5473,11.8923],[105.5389,11.8973],[105.5209,11.9021],[105.5139,11.9093]]]}},{"type":"Feature","properties":{"c":"250407","en":"Tuol Souphi","km":"ទួលសូភី"},"geometry":{"type":"Polygon","coordinates":[[[105.5797,11.8553],[105.5353,11.8541],[105.5263,11.8463],[105.5105,11.8383],[105.5081,11.8341],[105.5137,11.8299],[105.5135,11.8217],[105.5177,11.8217],[105.5119,11.8067],[105.5273,11.8145],[105.5341,11.8239],[105.5387,11.8115],[105.5369,11.8009],[105.5497,11.7857],[105.5491,11.7503],[105.5685,11.7491],[105.5751,11.7511],[105.5763,11.7567],[105.5721,11.7669],[105.5737,11.7777],[105.5723,11.7857],[105.5747,11.7927],[105.5723,11.7991],[105.5733,11.8055],[105.5561,11.8075],[105.5563,11.8271],[105.5647,11.8265],[105.5679,11.8229],[105.5807,11.8295],[105.5797,11.8553]]]}}]}