{"type":"FeatureCollection","features":[{"type":"Feature","properties":{"c":"250501","en":"Dountei","km":"ដូនតី"},"geometry":{"type":"Polygon","coordinates":[[[105.7865,11.7819],[105.7693,11.7881],[105.7655,11.7971],[105.7513,11.8137],[105.7429,11.8073],[105.7327,11.8065],[105.7321,11.8025],[105.7045,11.8045],[105.7013,11.8007],[105.6787,11.7983],[105.6821,11.7881],[105.6803,11.7853],[105.6643,11.7767],[105.6647,11.7397],[105.7013,11.7425],[105.7203,11.7251],[105.7313,11.7023],[105.7327,11.6931],[105.7459,11.6967],[105.7527,11.6931],[105.7659,11.7227],[105.7683,11.7417],[105.7865,11.7819]]]}},{"type":"Feature","properties":{"c":"250502","en":"Kak","km":"កក់"},"geometry":{"type":"Polygon","coordinates":[[[105.8185,11.7953],[105.8005,11.7957],[105.7865,11.7819],[105.7683,11.7417],[105.7659,11.7227],[105.7555,11.6969],[105.7527,11.6931],[105.7459,11.6967],[105.7327,11.6931],[105.7559,11.6779],[105.7585,11.6695],[105.7625,11.6681],[105.7649,11.6639],[105.7671,11.6551],[105.7647,11.6529],[105.7701,11.6411],[105.7747,11.6377],[105.7751,11.6339],[105.7803,11.6279],[105.7897,11.6209],[105.7899,11.6167],[105.7957,11.6077],[105.8041,11.6053],[105.8095,11.5995],[105.8131,11.6091],[105.8101,11.6183],[105.8291,11.6215],[105.8363,11.6339],[105.8373,11.6465],[105.8441,11.6511],[105.8531,11.6627],[105.8739,11.6711],[105.8765,11.6741],[105.8763,11.7017],[105.8657,11.7189],[105.8749,11.7249],[105.8809,11.7329],[105.8703,11.7479],[105.8201,11.7599],[105.8211,11.7675],[105.8177,11.7689],[105.8185,11.7953]]]}},{"type":"Feature","properties":{"c":"250503","en":"Kandaol Chrum","km":"កណ្ដោលជ្រុំ"},"geometry":{"type":"Polygon","coordinates":[[[105.8431,11.8977],[105.8037,11.8991],[105.8017,11.8949],[105.7941,11.8895],[105.7913,11.8677],[105.7801,11.8601],[105.7717,11.8459],[105.7651,11.8419],[105.7611,11.8213],[105.7513,11.8137],[105.7655,11.7971],[105.7693,11.7881],[105.7865,11.7819],[105.8005,11.7957],[105.8185,11.7953],[105.8193,11.8215],[105.8235,11.8205],[105.8275,11.8445],[105.8365,11.8713],[105.8351,11.8805],[105.8445,11.8943],[105.8431,11.8977]]]}},{"type":"Feature","properties":{"c":"250504","en":"Kaong Kang","km":"កោងកាង"},"geometry":{"type":"Polygon","coordinates":[[[105.8235,11.8205],[105.8193,11.8215],[105.8177,11.7689],[105.8211,11.7675],[105.8201,11.7599],[105.8703,11.7479],[105.8781,11.7377],[105.8849,11.7767],[105.8953,11.7893],[105.8769,11.7983],[105.8755,11.8047],[105.8719,11.8069],[105.8439,11.8109],[105.8235,11.8205]]]}},{"type":"Feature","properties":{"c":"250505","en":"Kraek","km":"ក្រែក"},"geometry":{"type":"Polygon","coordinates":[[[105.9549,11.8627],[105.9547,11.8593],[105.9365,11.8595],[105.9365,11.8685],[105.9179,11.8499],[105.9177,11.8467],[105.9061,11.8423],[105.9049,11.8001],[105.8849,11.7767],[105.8781,11.7377],[105.8809,11.7329],[105.8921,11.7325],[105.8993,11.7349],[105.9199,11.7563],[105.9311,11.7535],[105.9511,11.7587],[105.9667,11.7535],[105.9735,11.7589],[106.0071,11.7603],[106.0137,11.7621],[106.0241,11.7753],[106.0273,11.8119],[106.0219,11.8269],[106.0167,11.8303],[106.0113,11.8425],[106.0013,11.8501],[105.9965,11.8571],[105.9599,11.8583],[105.9549,11.8627]]]}},{"type":"Feature","properties":{"c":"250506","en":"Popel","km":"ពពេល"},"geometry":{"type":"Polygon","coordinates":[[[105.8835,11.8633],[105.8707,11.8621],[105.8541,11.8719],[105.8403,11.8699],[105.8365,11.8713],[105.8275,11.8445],[105.8235,11.8205],[105.8439,11.8109],[105.8655,11.8087],[105.8755,11.8047],[105.8835,11.8633]]]}},{"type":"Feature","properties":{"c":"250507","en":"Trapeang Phlong","km":"ត្រពាំងផ្លុង"},"geometry":{"type":"Polygon","coordinates":[[[105.8765,11.6741],[105.8847,11.6771],[105.8915,11.6759],[105.9045,11.6635],[105.9229,11.6507],[105.9533,11.6407],[105.9735,11.6621],[105.9803,11.6663],[105.9823,11.6731],[105.9781,11.6861],[105.9943,11.7017],[106.0035,11.7049],[106.0101,11.7227],[106.0147,11.7265],[106.0159,11.7347],[106.0107,11.7489],[106.0137,11.7621],[105.9735,11.7589],[105.9667,11.7535],[105.9511,11.7587],[105.9311,11.7535],[105.9199,11.7563],[105.8993,11.7349],[105.8921,11.7325],[105.8809,11.7329],[105.8749,11.7249],[105.8657,11.7189],[105.8763,11.7017],[105.8765,11.6741]]]}},{"type":"Feature","properties":{"c":"250508","en":"Veal Mlu","km":"វាលម្លូរ"},"geometry":{"type":"Polygon","coordinates":[[[105.9549,11.8627],[105.9395,11.8779],[105.9353,11.8783],[105.9263,11.8707],[105.9201,11.8701],[105.9031,11.8769],[105.8891,11.8747],[105.8835,11.8633],[105.8755,11.8047],[105.8769,11.7983],[105.8953,11.7893],[105.9049,11.8001],[105.9061,11.8423],[105.9177,11.8467],[105.9179,11.8499],[105.9365,11.8685],[105.9365,11.8595],[105.9547,11.8593],[105.9549,11.8627]]]}}]}