{"type":"FeatureCollection","features":[{"type":"Feature","properties":{"c":"250601","en":"Suong","km":"សង្កាត់សួង"},"geometry":{"type":"Polygon","coordinates":[[[105.6263,11.9703],[105.6215,11.9705],[105.6203,11.9265],[105.6147,11.9255],[105.6155,11.9167],[105.6223,11.9197],[105.6327,11.9181],[105.6363,11.9159],[105.6399,11.9067],[105.6541,11.8981],[105.6583,11.8909],[105.6579,11.8819],[105.6655,11.8803],[105.6655,11.8659],[105.6741,11.8633],[105.6797,11.8673],[105.6937,11.8625],[105.7051,11.8679],[105.7097,11.8845],[105.7063,11.8883],[105.6955,11.8895],[105.6779,11.8981],[105.6749,11.9011],[105.6723,11.9129],[105.6653,11.9117],[105.6647,11.9183],[105.6599,11.9247],[105.6487,11.9247],[105.6397,11.9299],[105.6403,11.9701],[105.6263,11.9703]]]}},{"type":"Feature","properties":{"c":"250602","en":"Vihear Luong","km":"សង្កាត់វិហារលួង"},"geometry":{"type":"Polygon","coordinates":[[[105.6497,11.9969],[105.6269,11.9971],[105.6263,11.9703],[105.6403,11.9701],[105.6397,11.9299],[105.6487,11.9247],[105.6599,11.9247],[105.6647,11.9183],[105.6653,11.9117],[105.6723,11.9129],[105.6749,11.9011],[105.6779,11.8981],[105.6955,11.8895],[105.7063,11.8883],[105.7097,11.8845],[105.7111,11.8893],[105.6995,11.9081],[105.7027,11.9109],[105.7139,11.9135],[105.7211,11.9251],[105.7173,11.9313],[105.7185,11.9393],[105.7099,11.9407],[105.7035,11.9523],[105.7037,11.9869],[105.6495,11.9879],[105.6497,11.9969]]]}}]}