{"type":"FeatureCollection","features":[{"type":"Feature","properties":{"c":"250701","en":"Anhchaeum","km":"អញ្ចើម"},"geometry":{"type":"Polygon","coordinates":[[[105.7651,11.8419],[105.7543,11.8405],[105.7431,11.8333],[105.7395,11.8345],[105.7329,11.8433],[105.7319,11.8655],[105.7217,11.8719],[105.7071,11.8715],[105.7051,11.8679],[105.6937,11.8625],[105.6797,11.8673],[105.6741,11.8633],[105.6655,11.8659],[105.6611,11.8611],[105.6613,11.8357],[105.6659,11.8347],[105.6651,11.8247],[105.6717,11.8171],[105.6787,11.7983],[105.7013,11.8007],[105.7045,11.8045],[105.7321,11.8025],[105.7327,11.8065],[105.7429,11.8073],[105.7611,11.8213],[105.7651,11.8419]]]}},{"type":"Feature","properties":{"c":"250702","en":"Boeng Pruol","km":"បឹងព្រួល"},"geometry":{"type":"Polygon","coordinates":[[[105.5979,12.0511],[105.5873,12.0571],[105.5793,12.0527],[105.5753,12.0639],[105.5677,12.0703],[105.5625,12.0693],[105.5515,12.0725],[105.5421,12.0701],[105.5483,12.0563],[105.5445,12.0439],[105.5369,12.0339],[105.5227,12.0307],[105.5215,12.0271],[105.5267,12.0209],[105.5529,12.0243],[105.5585,12.0227],[105.5681,12.0147],[105.5733,12.0217],[105.5829,12.0445],[105.5861,12.0479],[105.5979,12.0511]]]}},{"type":"Feature","properties":{"c":"250703","en":"Chikor","km":"ជីគរ"},"geometry":{"type":"Polygon","coordinates":[[[105.6655,11.8659],[105.6655,11.8803],[105.6579,11.8819],[105.6553,11.8761],[105.6389,11.8741],[105.6375,11.8797],[105.6225,11.8791],[105.6213,11.8683],[105.6093,11.8683],[105.6101,11.8761],[105.5931,11.8759],[105.5931,11.8797],[105.5779,11.8775],[105.5727,11.8725],[105.5785,11.8673],[105.5807,11.8295],[105.6013,11.8351],[105.6271,11.8295],[105.6503,11.8313],[105.6651,11.8247],[105.6659,11.8347],[105.6613,11.8357],[105.6611,11.8611],[105.6655,11.8659]]]}},{"type":"Feature","properties":{"c":"250704","en":"Chirou Ti Muoy","km":"ជីរោទ៍ ទី១"},"geometry":{"type":"Polygon","coordinates":[[[105.5227,12.0307],[105.5037,12.0319],[105.4907,12.0247],[105.4857,12.0387],[105.4729,12.0179],[105.4715,12.0077],[105.4731,12.0035],[105.4819,11.9929],[105.4883,11.9925],[105.5009,11.9837],[105.5079,11.9869],[105.5199,11.9829],[105.5301,11.9923],[105.5425,11.9939],[105.5613,12.0199],[105.5529,12.0243],[105.5267,12.0209],[105.5215,12.0271],[105.5227,12.0307]]]}},{"type":"Feature","properties":{"c":"250705","en":"Chirou Ti Pir","km":"ជីរោទ៍ ទី២"},"geometry":{"type":"Polygon","coordinates":[[[105.5681,12.0147],[105.5613,12.0199],[105.5575,12.0161],[105.5425,11.9939],[105.5407,11.9819],[105.5343,11.9739],[105.5205,11.9689],[105.5083,11.9495],[105.5101,11.9473],[105.5071,11.9305],[105.5129,11.9179],[105.5139,11.9093],[105.5397,11.9089],[105.5491,11.9113],[105.5661,11.9267],[105.5699,11.9475],[105.5843,11.9477],[105.5847,11.9943],[105.5759,12.0065],[105.5689,12.0103],[105.5681,12.0147]]]}},{"type":"Feature","properties":{"c":"250706","en":"Chob","km":"ជប់"},"geometry":{"type":"Polygon","coordinates":[[[105.6215,11.9705],[105.5847,11.9711],[105.5843,11.9477],[105.5699,11.9475],[105.5685,11.9317],[105.5625,11.9229],[105.5491,11.9113],[105.5443,11.9097],[105.5139,11.9093],[105.5209,11.9021],[105.5389,11.8973],[105.5473,11.8923],[105.5613,11.8783],[105.5663,11.8783],[105.5777,11.8877],[105.5803,11.9001],[105.5897,11.9015],[105.5927,11.9049],[105.6035,11.9053],[105.6043,11.9133],[105.6155,11.9167],[105.6147,11.9255],[105.6203,11.9265],[105.6215,11.9705]]]}},{"type":"Feature","properties":{"c":"250707","en":"Kor","km":"គរ"},"geometry":{"type":"Polygon","coordinates":[[[105.8335,12.0195],[105.8241,12.0219],[105.8157,12.0131],[105.7889,11.9991],[105.7813,11.9977],[105.7727,11.9995],[105.7645,12.0101],[105.7599,12.0115],[105.7355,12.0103],[105.7317,12.0099],[105.7193,11.9977],[105.7055,11.9949],[105.7063,12.0077],[105.6949,12.0189],[105.6919,12.0185],[105.6869,12.0153],[105.6865,11.9871],[105.7037,11.9869],[105.7033,11.9689],[105.7145,11.9687],[105.7145,11.9523],[105.7365,11.9599],[105.7699,11.9551],[105.8051,11.9599],[105.8475,11.9961],[105.8369,12.0133],[105.8367,12.0179],[105.8335,12.0195]]]}},{"type":"Feature","properties":{"c":"250708","en":"Lngieng","km":"ល្ងៀង"},"geometry":{"type":"Polygon","coordinates":[[[105.8051,11.9599],[105.7699,11.9551],[105.7365,11.9599],[105.7145,11.9523],[105.7145,11.9687],[105.7033,11.9689],[105.7035,11.9523],[105.7099,11.9407],[105.7185,11.9393],[105.7173,11.9313],[105.7243,11.9227],[105.7469,11.9231],[105.7717,11.9401],[105.7825,11.9439],[105.7899,11.9435],[105.7935,11.9497],[105.8051,11.9599]]]}},{"type":"Feature","properties":{"c":"250709","en":"Mong Riev","km":"មង់រៀវ"},"geometry":{"type":"Polygon","coordinates":[[[105.6579,11.8819],[105.6583,11.8909],[105.6541,11.8981],[105.6399,11.9067],[105.6363,11.9159],[105.6223,11.9197],[105.6113,11.9141],[105.6043,11.9133],[105.6035,11.9053],[105.5927,11.9049],[105.5897,11.9015],[105.5803,11.9001],[105.5777,11.8877],[105.5663,11.8783],[105.5709,11.8781],[105.5727,11.8725],[105.5779,11.8775],[105.5931,11.8797],[105.5931,11.8759],[105.6101,11.8761],[105.6093,11.8683],[105.6213,11.8683],[105.6225,11.8791],[105.6375,11.8797],[105.6389,11.8741],[105.6553,11.8761],[105.6579,11.8819]]]}},{"type":"Feature","properties":{"c":"250710","en":"Peam Chileang","km":"ពាមជីលាំង"},"geometry":{"type":"Polygon","coordinates":[[[105.6235,12.1243],[105.6075,12.1391],[105.5961,12.1377],[105.5905,12.1325],[105.5859,12.1235],[105.5747,12.1253],[105.5707,12.1115],[105.5597,12.1089],[105.5579,12.1045],[105.5305,12.1019],[105.5421,12.0701],[105.5515,12.0725],[105.5625,12.0693],[105.5677,12.0703],[105.5753,12.0639],[105.5793,12.0527],[105.5873,12.0571],[105.5979,12.0511],[105.6117,12.0669],[105.6145,12.0887],[105.6203,12.0983],[105.6177,12.1169],[105.6235,12.1243]]]}},{"type":"Feature","properties":{"c":"250711","en":"Roka Po Pram","km":"រកាពប្រាំ"},"geometry":{"type":"Polygon","coordinates":[[[105.7887,12.0907],[105.7777,12.0903],[105.7599,12.1063],[105.7515,12.0949],[105.7521,12.0915],[105.7341,12.0925],[105.7059,12.1179],[105.7063,12.1353],[105.6851,12.1353],[105.6795,12.1243],[105.6627,12.1101],[105.6525,12.1061],[105.6381,12.1075],[105.6311,12.1115],[105.6243,12.1171],[105.6235,12.1243],[105.6177,12.1169],[105.6171,12.1105],[105.6203,12.0983],[105.6263,12.0937],[105.6311,12.0813],[105.6507,12.0783],[105.6621,12.0687],[105.6639,12.0643],[105.6651,12.0423],[105.6503,12.0425],[105.6495,11.9879],[105.6865,11.9871],[105.6869,12.0153],[105.6919,12.0185],[105.6949,12.0189],[105.7063,12.0077],[105.7055,11.9949],[105.7193,11.9977],[105.7317,12.0099],[105.7599,12.0115],[105.7645,12.0101],[105.7697,12.0013],[105.7813,11.9977],[105.7957,12.0013],[105.8157,12.0131],[105.8241,12.0219],[105.8157,12.0263],[105.8117,12.0311],[105.7993,12.0665],[105.7923,12.0811],[105.7877,12.0843],[105.7887,12.0907]]]}},{"type":"Feature","properties":{"c":"250712","en":"Sralab","km":"ស្រឡប់"},"geometry":{"type":"Polygon","coordinates":[[[105.7899,11.9435],[105.7825,11.9439],[105.7717,11.9401],[105.7469,11.9231],[105.7243,11.9227],[105.7211,11.9251],[105.7139,11.9135],[105.7027,11.9109],[105.6995,11.9081],[105.7111,11.8893],[105.7071,11.8715],[105.7217,11.8719],[105.7319,11.8655],[105.7329,11.8433],[105.7395,11.8345],[105.7431,11.8333],[105.7543,11.8405],[105.7687,11.8433],[105.7801,11.8601],[105.7913,11.8677],[105.7941,11.8895],[105.8017,11.8949],[105.8037,11.8991],[105.7899,11.9435]]]}},{"type":"Feature","properties":{"c":"250713","en":"Thma Pech","km":"ថ្មពេជ្រ"},"geometry":{"type":"Polygon","coordinates":[[[105.6497,11.9969],[105.6503,12.0425],[105.6651,12.0423],[105.6639,12.0643],[105.6621,12.0687],[105.6507,12.0783],[105.6311,12.0813],[105.6263,12.0937],[105.6203,12.0983],[105.6145,12.0887],[105.6135,12.0729],[105.6099,12.0635],[105.5979,12.0511],[105.5861,12.0479],[105.5829,12.0445],[105.5733,12.0217],[105.5681,12.0147],[105.5689,12.0103],[105.5759,12.0065],[105.5847,11.9943],[105.5847,11.9711],[105.6263,11.9703],[105.6269,11.9971],[105.6497,11.9969]]]}},{"type":"Feature","properties":{"c":"250714","en":"Tonle Bet","km":"ទន្លេបិទ"},"geometry":{"type":"Polygon","coordinates":[[[105.5425,11.9939],[105.5301,11.9923],[105.5199,11.9829],[105.5079,11.9869],[105.5009,11.9837],[105.4883,11.9925],[105.4819,11.9929],[105.4731,12.0035],[105.4683,11.9413],[105.4637,11.9269],[105.4549,11.9137],[105.4669,11.9009],[105.4747,11.8981],[105.4875,11.9085],[105.5035,11.9147],[105.5113,11.9129],[105.5139,11.9093],[105.5129,11.9179],[105.5071,11.9305],[105.5101,11.9473],[105.5083,11.9495],[105.5205,11.9689],[105.5311,11.9719],[105.5379,11.9781],[105.5407,11.9819],[105.5425,11.9939]]]}}]}